{
  "LTFM": {
    "icao": "LTFM",
    "metar": "LTFM 052120Z 05009KT 9999 SCT004 21/20 Q1018 NOSIG RMK RWY17L 05007KT RWY34L 04007KT 360V060 RWY16R 05008KT RWY36 05008KT RWY18 06008KT",
    "metar_obs_time": "2025-06-05 21:20:00",
    "taf": "TAF LTFM 051640Z 0518/0624 04009KT CAVOK BECMG 0518/0521 SCT008 PROB30 0521/0601 1200 BCFG BKN004 PROB30 0601/0605 1200 BCFG BKN004 BECMG 0605/0608 04015G25KT BECMG 0608/0611 CAVOK BECMG 0617/0620 04012KT SCT008",
    "taf_obs_time": "2025-06-05 16:40:00",
    "fetched_at": "2025-06-05T21:55:14.432845Z"
  },
  "LTFJ": {
    "icao": "LTFJ",
    "metar": "LTFJ 052120Z 03013KT CAVOK 20/16 Q1017 NOSIG RMK RWY24R 04007KT RWY06R 03013KT RWY24L 03008KT",
    "metar_obs_time": "2025-06-05 21:20:00",
    "taf": "TAF LTFJ 051640Z 0518/0618 04015KT CAVOK PROB30 TEMPO 0601/0605 2400 BCFG TEMPO 0609/0613 04020G30KT TEMPO 0613/0617 04018G28KT",
    "taf_obs_time": "2025-06-05 16:40:00",
    "fetched_at": "2025-06-05T21:55:14.432845Z"
  },
  "LTBA": {
    "icao": "LTBA",
    "metar": "LTBA 052120Z 04012KT CAVOK 22/17 Q1017 RMK RWY23 05008KT",
    "metar_obs_time": "2025-06-05 21:20:00",
    "taf": "TAF LTBA 051640Z 0518/0618 04012KT CAVOK BECMG 0605/0608 04017G28KT",
    "taf_obs_time": "2025-06-05 16:40:00",
    "fetched_at": "2025-06-05T21:55:14.432845Z"
  },
  "LTBU": {
    "icao": "LTBU",
    "metar": "LTBU 052120Z 06010KT CAVOK 19/15 Q1017 RMK RWY22 06007KT",
    "metar_obs_time": "2025-06-05 21:20:00",
    "taf": "TAF LTBU 051640Z 0518/0618 02009KT CAVOK BECMG 0605/0608 04015G25KT BECMG 0616/0618 03012KT SCT008",
    "taf_obs_time": "2025-06-05 16:40:00",
    "fetched_at": "2025-06-05T21:55:14.432845Z"
  }
}