{
  "LTFM": {
    "icao": "LTFM",
    "metar": "LTFM 200520Z 20009KT 170V230 CAVOK 24/11 Q1014 NOSIG RMK RWY17L 22009KT RWY34L 22009KT RWY16R 23009KT RWY36 21010KT RWY18 22011KT 160V250",
    "metar_obs_time": "2025-06-20 05:20:00",
    "taf": "TAF LTFM 200440Z 2006/2112 23006KT CAVOK BECMG 2006/2009 34013KT SCT016 BECMG 2013/2016 04015KT BKN008 BECMG 2018/2021 SCT016",
    "taf_obs_time": "2025-06-20 04:40:00",
    "fetched_at": "2025-06-20T05:32:50.193477Z"
  },
  "LTFJ": {
    "icao": "LTFJ",
    "metar": "LTFJ 200520Z 19004KT 140V230 9999 FEW035 23/10 Q1014 NOSIG RMK RWY24R 25003KT 200V300 RWY06R 23003KT 180V280 RWY24L 23003KT 180V290",
    "metar_obs_time": "2025-06-20 05:20:00",
    "taf": "TAF LTFJ 200440Z 2006/2106 24007KT 9999 FEW035 BECMG 2009/2013 03012KT BECMG 2018/2022 BKN035 TEMPO 2023/2102 -SHRA",
    "taf_obs_time": "2025-06-20 04:40:00",
    "fetched_at": "2025-06-20T05:32:50.193477Z"
  },
  "LTBA": {
    "icao": "LTBA",
    "metar": "LTBA 200520Z 17006KT 130V200 9999 FEW040 23/17 Q1014 RMK RWY23 20006KT 150V220",
    "metar_obs_time": "2025-06-20 05:20:00",
    "taf": "TAF LTBA 200440Z 2006/2106 20006KT CAVOK BECMG 2009/2012 02015KT SCT016 BECMG 2015/2018 BKN009 BECMG 2022/2101 SCT016",
    "taf_obs_time": "2025-06-20 04:40:00",
    "fetched_at": "2025-06-20T05:32:50.193477Z"
  },
  "LTBU": {
    "icao": "LTBU",
    "metar": "LTBU 200520Z 27005KT CAVOK 25/12 Q1014 RMK RWY22 26005KT",
    "metar_obs_time": "2025-06-20 05:20:00",
    "taf": "TAF LTBU 200440Z 2006/2106 VRB02KT CAVOK BECMG 2008/2011 03015KT SCT022 TEMPO 2011/2015 03016G26KT -SHRA FEW018CB BKN022 BECMG 2020/2023 03005KT",
    "taf_obs_time": "2025-06-20 04:40:00",
    "fetched_at": "2025-06-20T05:32:50.193477Z"
  }
}