{
  "LTFM": {
    "icao": "LTFM",
    "metar": "LTFM 140850Z 05015KT 9999 BKN025 23/15 Q1019 NOSIG RMK RWY17L 04013KT RWY34L 03012KT 350V050 RWY16R 04013KT RWY36 04014KT 010V070 RWY18 05012KT",
    "metar_obs_time": "2025-06-14 08:50:00",
    "taf": "TAF LTFM 140440Z 1406/1512 04014KT 9999 BKN020 BECMG 1410/1413 SCT022 BECMG 1415/1418 VRB02KT CAVOK BECMG 1504/1507 01012KT SCT025 PROB40 TEMPO 1507/1511 -SHRA FEW022TCU BKN028",
    "taf_obs_time": "2025-06-14 04:40:00",
    "fetched_at": "2025-06-14T09:21:28.470332Z"
  },
  "LTFJ": {
    "icao": "LTFJ",
    "metar": "LTFJ 140850Z 04012KT 360V090 9999 SCT035 25/12 Q1018 NOSIG RMK RWY24R 04012KT 360V080 RWY06R 03012KT RWY24L 04011KT",
    "metar_obs_time": "2025-06-14 08:50:00",
    "taf": "TAF LTFJ 140440Z 1406/1506 04006KT CAVOK BECMG 1406/1409 04016KT SCT035 BECMG 1414/1418 04005KT CAVOK BECMG 1503/1506 SCT035",
    "taf_obs_time": "2025-06-14 04:40:00",
    "fetched_at": "2025-06-14T09:21:28.470332Z"
  },
  "LTBA": {
    "icao": "LTBA",
    "metar": "LTBA 140850Z 05013KT 010V080 9999 SCT035 25/11 Q1018 RMK RWY23 05012KT 360V120",
    "metar_obs_time": "2025-06-14 08:50:00",
    "taf": "TAF LTBA 140440Z 1406/1506 04009KT CAVOK BECMG 1406/1409 03015G25KT SCT035 BECMG 1413/1415 CAVOK BECMG 1415/1418 03007KT",
    "taf_obs_time": "2025-06-14 04:40:00",
    "fetched_at": "2025-06-14T09:21:28.470332Z"
  },
  "LTBU": {
    "icao": "LTBU",
    "metar": "LTBU 140850Z 04013KT 360V070 9999 SCT030 BKN080 24/14 Q1019 RMK RWY22 06011KT 020V110",
    "metar_obs_time": "2025-06-14 08:50:00",
    "taf": "TAF LTBU 140440Z 1406/1506 03010KT CAVOK BECMG 1406/1408 04015G25KT SCT035 PROB30 TEMPO 1409/1412 -SHRA FEW025TCU BKN030 BECMG 1412/1415 CAVOK BECMG 1416/1419 35007KT",
    "taf_obs_time": "2025-06-14 04:40:00",
    "fetched_at": "2025-06-14T09:21:28.470332Z"
  }
}