{
  "LTFM": {
    "icao": "LTFM",
    "metar": "LTFM 312150Z 02007KT CAVOK 16/14 Q1018 NOSIG RMK RWY17L 01005KT RWY34L 36006KT RWY16R 36005KT RWY36 01007KT RWY18 01005KT",
    "metar_obs_time": "2025-05-31 21:50:00",
    "taf": "TAF LTFM 311640Z 3118/0124 01009KT CAVOK BECMG 3122/0101 SCT006 BKN025 TEMPO 0104/0108 -SHRA BECMG 0109/0112 SCT028 BECMG 0112/0114 CAVOK BECMG 0118/0121 SCT006 BKN025",
    "taf_obs_time": "2025-05-31 16:40:00",
    "fetched_at": "2025-05-31T22:20:46.426101Z"
  },
  "LTFJ": {
    "icao": "LTFJ",
    "metar": "LTFJ 312150Z 04008KT 9999 FEW025 15/13 Q1017 NOSIG RMK RWY24R 04006KT RWY06R 03008KT RWY24L 02006KT",
    "metar_obs_time": "2025-05-31 21:50:00",
    "taf": "TAF LTFJ 311640Z 3118/0118 03006KT 9999 SCT020 BECMG 3119/3123 BKN006 PROB30 3123/0103 1200 BCFG BKN002 BECMG 0103/0105 BKN012 BECMG 0105/0108 03016KT SCT025 PROB40 0108/0112 -SHRA FEW017CB BKN022",
    "taf_obs_time": "2025-05-31 16:40:00",
    "fetched_at": "2025-05-31T22:20:46.426101Z"
  },
  "LTBA": {
    "icao": "LTBA",
    "metar": "LTBA 312150Z 02006KT 9999 FEW035 17/14 Q1018 RMK RWY23 02007KT",
    "metar_obs_time": "2025-05-31 21:50:00",
    "taf": "TAF LTBA 311640Z 3118/0118 02017KT CAVOK BECMG 3118/3120 02007KT SCT035 BECMG 0106/0109 01017KT TEMPO 0107/0111 -SHRA BKN025 BECMG 0111/0114 CAVOK BECMG 0115/0118 SCT006 BKN025",
    "taf_obs_time": "2025-05-31 16:40:00",
    "fetched_at": "2025-05-31T22:20:46.426101Z"
  },
  "LTBU": {
    "icao": "LTBU",
    "metar": "LTBU 312150Z 35005KT CAVOK 13/10 Q1018 RMK RWY22 36006KT",
    "metar_obs_time": "2025-05-31 21:50:00",
    "taf": "TAF LTBU 311640Z 3118/0118 03018KT CAVOK BECMG 3118/3120 35007KT BECMG 0100/0103 SCT035 BECMG 0105/0108 02017KT",
    "taf_obs_time": "2025-05-31 16:40:00",
    "fetched_at": "2025-05-31T22:20:46.426101Z"
  }
}