{
  "LTFM": {
    "icao": "LTFM",
    "metar": "LTFM 132020Z 09010KT 9999 FEW020 21/16 Q1019 NOSIG RMK RWY17L 09010KT RWY34L 07010KT RWY16R 08010KT RWY36 09009KT RWY18 09009KT",
    "metar_obs_time": "2025-06-13 20:20:00",
    "taf": "TAF LTFM 131640Z 1318/1424 06010KT CAVOK BECMG 1405/1408 03015G25KT SCT025 BECMG 1412/1415 02012KT BECMG 1415/1418 VRB02KT CAVOK",
    "taf_obs_time": "2025-06-13 16:40:00",
    "fetched_at": "2025-06-13T20:41:57.001124Z"
  },
  "LTFJ": {
    "icao": "LTFJ",
    "metar": "LTFJ 132020Z 04010KT CAVOK 19/16 Q1018 NOSIG RMK RWY24R 03008KT RWY06R 03011KT RWY24L 02006KT",
    "metar_obs_time": "2025-06-13 20:20:00",
    "taf": "TAF LTFJ 131640Z 1318/1418 05017KT CAVOK BECMG 1318/1321 04007KT TEMPO 1400/1404 SCT015 BECMG 1406/1410 04017KT SCT035 BECMG 1413/1417 CAVOK",
    "taf_obs_time": "2025-06-13 16:40:00",
    "fetched_at": "2025-06-13T20:41:57.001124Z"
  },
  "LTBA": {
    "icao": "LTBA",
    "metar": "LTBA 132020Z 05013KT CAVOK 21/16 Q1018 RMK RWY23 06012KT",
    "metar_obs_time": "2025-06-13 20:20:00",
    "taf": "TAF LTBA 131640Z 1318/1418 04009KT CAVOK BECMG 1405/1408 03015G25KT SCT040 BECMG 1415/1418 03007KT CAVOK",
    "taf_obs_time": "2025-06-13 16:40:00",
    "fetched_at": "2025-06-13T20:41:57.001124Z"
  },
  "LTBU": {
    "icao": "LTBU",
    "metar": "LTBU 132020Z 03010KT CAVOK 18/16 Q1019 RMK RWY22 03008KT",
    "metar_obs_time": "2025-06-13 20:20:00",
    "taf": "TAF LTBU 131640Z 1318/1418 03006KT CAVOK BECMG 1403/1406 03016KT SCT040 BECMG 1409/1412 CAVOK BECMG 1416/1418 01006KT",
    "taf_obs_time": "2025-06-13 16:40:00",
    "fetched_at": "2025-06-13T20:41:57.001124Z"
  }
}