{
  "LTFM": {
    "icao": "LTFM",
    "metar": "LTFM 151920Z 07005KT CAVOK 20/12 Q1018 NOSIG RMK RWY17L VRB01KT RWY34L 05004KT 020V080 RWY16R 04003KT RWY36 09003KT 030V120 RWY18 12001KT",
    "metar_obs_time": "2025-06-15 19:20:00",
    "taf": "TAF LTFM 151640Z 1518/1624 04012KT CAVOK BECMG 1518/1520 17007KT BECMG 1523/1601 25010KT TEMPO 1601/1605 FEW032 BECMG 1605/1607 01011KT BECMG 1617/1620 17007KT",
    "taf_obs_time": "2025-06-15 16:40:00",
    "fetched_at": "2025-06-15T19:49:30.677672Z"
  },
  "LTFJ": {
    "icao": "LTFJ",
    "metar": "LTFJ 151920Z 07007KT CAVOK 18/13 Q1017 NOSIG RMK RWY24R 06004KT RWY06R 03007KT RWY24L 04005KT",
    "metar_obs_time": "2025-06-15 19:20:00",
    "taf": "TAF AMD LTFJ 151911Z 1519/1618 06012KT CAVOK BECMG 1521/1524 VRB02KT BECMG 1609/1612 03012KT",
    "taf_obs_time": "2025-06-15 19:11:00",
    "fetched_at": "2025-06-15T19:49:30.677672Z"
  },
  "LTBA": {
    "icao": "LTBA",
    "metar": "LTBA 151920Z 08006KT CAVOK 20/13 Q1017 RMK RWY23 09005KT",
    "metar_obs_time": "2025-06-15 19:20:00",
    "taf": "TAF LTBA 151640Z 1518/1618 01015KT CAVOK BECMG 1518/1520 03005KT BECMG 1605/1608 18010KT SCT032 BECMG 1610/1612 01012KT CAVOK",
    "taf_obs_time": "2025-06-15 16:40:00",
    "fetched_at": "2025-06-15T19:49:30.677672Z"
  },
  "LTBU": {
    "icao": "LTBU",
    "metar": "LTBU 151920Z 05007KT CAVOK 16/10 Q1017 RMK RWY22 05004KT",
    "metar_obs_time": "2025-06-15 19:20:00",
    "taf": "TAF LTBU 151640Z 1518/1618 05015G25KT CAVOK BECMG 1518/1520 03007KT BECMG 1523/1601 33010KT BECMG 1606/1608 03012KT SCT032 BECMG 1615/1618 VRB02KT",
    "taf_obs_time": "2025-06-15 16:40:00",
    "fetched_at": "2025-06-15T19:49:30.677672Z"
  }
}