{
  "LTFM": {
    "icao": "LTFM",
    "metar": "LTFM 181420Z 04013KT 9999 FEW032 25/19 Q1019 NOSIG RMK RWY17L 04012KT RWY34L 03012KT 340V050 RWY16R 04012KT 360V060 RWY36 04013KT RWY18 05011KT 010V070",
    "metar_obs_time": "2025-06-18 14:20:00",
    "taf": "TAF LTFM 181040Z 1812/1918 05012KT CAVOK BECMG 1817/1820 VRB02KT BECMG 1821/1824 1400 BCFG BKN004 BECMG 1902/1904 9999 NSW FEW020 BECMG 1905/1907 05012KT",
    "taf_obs_time": "2025-06-18 10:40:00",
    "fetched_at": "2025-06-18T14:48:36.360847Z"
  },
  "LTFJ": {
    "icao": "LTFJ",
    "metar": "LTFJ 181420Z 04015KT CAVOK 27/16 Q1018 NOSIG RMK RWY24R 04014KT 010V070 RWY06R 02014KT RWY24L 02015KT",
    "metar_obs_time": "2025-06-18 14:20:00",
    "taf": "TAF LTFJ 181040Z 1812/1912 03015KT CAVOK BECMG 1816/1820 03005KT BECMG 1907/1910 03015KT",
    "taf_obs_time": "2025-06-18 10:40:00",
    "fetched_at": "2025-06-18T14:48:36.360847Z"
  },
  "LTBA": {
    "icao": "LTBA",
    "metar": "LTBA 181420Z 03014KT CAVOK 29/14 Q1018 RMK RWY23 02013KT 350V060",
    "metar_obs_time": "2025-06-18 14:20:00",
    "taf": "TAF LTBA 181040Z 1812/1912 03015KT CAVOK BECMG 1817/1820 05005KT BECMG 1904/1907 04015KT",
    "taf_obs_time": "2025-06-18 10:40:00",
    "fetched_at": "2025-06-18T14:48:36.360847Z"
  },
  "LTBU": {
    "icao": "LTBU",
    "metar": "LTBU 181420Z 04014KT CAVOK 28/16 Q1019 RMK RWY22 05012KT 020V080",
    "metar_obs_time": "2025-06-18 14:20:00",
    "taf": "TAF COR LTBU 181040Z 1812/1912 05015KT CAVOK BECMG 1817/1820 02005KT TEMPO 1822/1902 2500 BCFG BKN006 BECMG 1906/1909 05015KT",
    "taf_obs_time": "2025-06-18 10:40:00",
    "fetched_at": "2025-06-18T14:48:36.360847Z"
  }
}