{
  "LTFM": {
    "icao": "LTFM",
    "metar": "LTFM 180620Z 03009KT 340V060 9999 FEW018 25/18 Q1019 NOSIG RMK RWY17L 36007KT 320V020 RWY34L 01008KT 330V030 RWY16R 36008KT 330V030 RWY36 01009KT RWY18 02007KT",
    "metar_obs_time": "2025-06-18 06:20:00",
    "taf": "TAF LTFM 180440Z 1806/1912 03010KT CAVOK BECMG 1818/1821 09006KT SCT008 PROB30 TEMPO 1823/1903 2000 BCFG BKN004 BECMG 1905/1908 03010KT CAVOK",
    "taf_obs_time": "2025-06-18 04:40:00",
    "fetched_at": "2025-06-18T06:52:34.525481Z"
  },
  "LTFJ": {
    "icao": "LTFJ",
    "metar": "LTFJ 180620Z 03009KT CAVOK 24/17 Q1019 NOSIG RMK RWY24R 03008KT RWY06R 02008KT RWY24L 01008KT",
    "metar_obs_time": "2025-06-18 06:20:00",
    "taf": "TAF LTFJ 180440Z 1806/1906 04008KT CAVOK BECMG 1806/1808 24010KT BECMG 1810/1813 03016KT BECMG 1818/1821 04006KT PROB30 TEMPO 1901/1904 3500 PRFG",
    "taf_obs_time": "2025-06-18 04:40:00",
    "fetched_at": "2025-06-18T06:52:34.525481Z"
  },
  "LTBA": {
    "icao": "LTBA",
    "metar": "LTBA 180620Z 04009KT 020V080 CAVOK 27/15 Q1019 RMK RWY23 04008KT 360V070",
    "metar_obs_time": "2025-06-18 06:20:00",
    "taf": "TAF LTBA 180440Z 1806/1906 04010KT CAVOK BECMG 1806/1808 19007KT BECMG 1808/1811 04013KT",
    "taf_obs_time": "2025-06-18 04:40:00",
    "fetched_at": "2025-06-18T06:52:34.525481Z"
  },
  "LTBU": {
    "icao": "LTBU",
    "metar": "LTBU 180620Z 04009KT CAVOK 27/11 Q1019 RMK RWY22 06008KT 030V090",
    "metar_obs_time": "2025-06-18 06:20:00",
    "taf": "TAF LTBU 180440Z 1806/1906 04005KT CAVOK BECMG 1806/1808 04015KT BECMG 1816/1819 03005KT",
    "taf_obs_time": "2025-06-18 04:40:00",
    "fetched_at": "2025-06-18T06:52:34.525481Z"
  }
}