{
  "LTFM": {
    "icao": "LTFM",
    "metar": "LTFM 210420Z 06019KT 9999 FEW025 22/12 Q1017 NOSIG RMK RWY17L 05018KT RWY34L 04017KT RWY16R 05017KT RWY36 05018KT RWY18 06018KT",
    "metar_obs_time": "2025-06-21 04:20:00",
    "taf": "TAF LTFM 202240Z 2100/2206 05015KT 9999 SCT018 BKN025 BECMG 2100/2103 SCT025 BECMG 2104/2107 04018G28KT BECMG 2115/2118 04012KT CAVOK BECMG 2122/2201 SCT025",
    "taf_obs_time": "2025-06-20 22:40:00",
    "fetched_at": "2025-06-21T04:56:45.650109Z"
  },
  "LTFJ": {
    "icao": "LTFJ",
    "metar": "LTFJ 210420Z 04013KT 9999 SCT032 BKN090 21/14 Q1016 NOSIG RMK RWY24R 04011KT RWY06R 03014KT RWY24L 03012KT",
    "metar_obs_time": "2025-06-21 04:20:00",
    "taf": "TAF LTFJ 202240Z 2100/2124 04009KT 9999 SCT012 BKN030 TEMPO 2100/2104 -SHRA BECMG 2104/2107 04019KT SCT030 BKN090 TEMPO 2112/2116 04020G30KT BECMG 2116/2118 CAVOK BECMG 2118/2121 05009KT",
    "taf_obs_time": "2025-06-20 22:40:00",
    "fetched_at": "2025-06-21T04:56:45.650109Z"
  },
  "LTBA": {
    "icao": "LTBA",
    "metar": "LTBA 210420Z 05017KT CAVOK 23/12 Q1016 RMK RWY23 06015KT",
    "metar_obs_time": "2025-06-21 04:20:00",
    "taf": "TAF LTBA 202240Z 2100/2124 03014KT CAVOK BECMG 2104/2107 04018G28KT SCT025 BECMG 2112/2115 CAVOK BECMG 2116/2119 03008KT",
    "taf_obs_time": "2025-06-20 22:40:00",
    "fetched_at": "2025-06-21T04:56:45.650109Z"
  },
  "LTBU": {
    "icao": "LTBU",
    "metar": "LTBU 210420Z 03016KT 9999 FEW035 BKN070 20/13 Q1016 RMK RWY22 03011KT",
    "metar_obs_time": "2025-06-21 04:20:00",
    "taf": "TAF LTBU 202240Z 2100/2124 04007KT 9999 SCT035 BKN100 BECMG 2105/2108 05018KT BECMG 2110/2113 CAVOK BECMG 2116/2119 02008KT",
    "taf_obs_time": "2025-06-20 22:40:00",
    "fetched_at": "2025-06-21T04:56:45.650109Z"
  }
}