{
  "LTFM": {
    "icao": "LTFM",
    "metar": "LTFM 152320Z 19004KT 140V270 CAVOK 17/12 Q1017 NOSIG RMK RWY17L VRB04KT RWY34L 18004KT RWY16R 24004KT RWY36 20004KT 150V210 RWY18 25006KT 190V300",
    "metar_obs_time": "2025-06-15 23:20:00",
    "taf": "TAF LTFM 152240Z 1600/1706 27007KT CAVOK TEMPO 1601/1605 FEW032 BECMG 1605/1607 01012KT BECMG 1616/1618 11007KT",
    "taf_obs_time": "2025-06-15 22:40:00",
    "fetched_at": "2025-06-15T23:48:22.909014Z"
  },
  "LTFJ": {
    "icao": "LTFJ",
    "metar": "LTFJ 152320Z 04004KT CAVOK 17/13 Q1017 NOSIG RMK RWY24R 01004KT RWY06R 02004KT RWY24L 04003KT",
    "metar_obs_time": "2025-06-15 23:20:00",
    "taf": "TAF LTFJ 152240Z 1600/1624 VRB02KT CAVOK BECMG 1609/1612 03012KT SCT035 BECMG 1612/1615 CAVOK BECMG 1615/1618 VRB02KT",
    "taf_obs_time": "2025-06-15 22:40:00",
    "fetched_at": "2025-06-15T23:48:22.909014Z"
  },
  "LTBA": {
    "icao": "LTBA",
    "metar": "LTBA 152320Z 05002KT CAVOK 19/12 Q1016 RMK RWY23 VRB01KT",
    "metar_obs_time": "2025-06-15 23:20:00",
    "taf": "TAF LTBA 152240Z 1600/1624 03005KT CAVOK BECMG 1605/1607 19010KT FEW032 BECMG 1610/1612 02008KT CAVOK",
    "taf_obs_time": "2025-06-15 22:40:00",
    "fetched_at": "2025-06-15T23:48:22.909014Z"
  },
  "LTBU": {
    "icao": "LTBU",
    "metar": "LTBU 152320Z 34004KT CAVOK 13/08 Q1017 RMK RWY22 35004KT",
    "metar_obs_time": "2025-06-15 23:20:00",
    "taf": "TAF LTBU 152240Z 1600/1624 33007KT CAVOK BECMG 1606/1608 03012KT FEW032 BECMG 1615/1618 VRB02KT CAVOK",
    "taf_obs_time": "2025-06-15 22:40:00",
    "fetched_at": "2025-06-15T23:48:22.909014Z"
  }
}