{
  "LTFM": {
    "icao": "LTFM",
    "metar": "LTFM 131120Z 05017KT 9999 FEW028 24/15 Q1018 NOSIG RMK RWY17L 04016KT RWY34L 04014KT 360V070 RWY16R 03015KT RWY36 04017G28KT RWY18 05016KT",
    "metar_obs_time": "2025-06-13 11:20:00",
    "taf": "TAF LTFM 131040Z 1312/1418 05018KT CAVOK BECMG 1316/1319 06008KT BECMG 1405/1408 03018KT SCT025 BECMG 1415/1418 VRB02KT",
    "taf_obs_time": "2025-06-13 10:40:00",
    "fetched_at": "2025-06-13T11:44:52.253449Z"
  },
  "LTFJ": {
    "icao": "LTFJ",
    "metar": "LTFJ 131120Z 06018KT 9999 FEW030 27/12 Q1016 NOSIG RMK RWY24R 07015KT 040V100 RWY06R 04019KT 010V070 RWY24L 04018KT",
    "metar_obs_time": "2025-06-13 11:20:00",
    "taf": "TAF LTFJ 131040Z 1312/1412 06017KT 9999 FEW035 TEMPO 1312/1316 06020G30KT BECMG 1313/1315 CAVOK BECMG 1318/1321 04007KT TEMPO 1400/1404 SCT008 BECMG 1406/1409 04017KT SCT040",
    "taf_obs_time": "2025-06-13 10:40:00",
    "fetched_at": "2025-06-13T11:44:52.253449Z"
  },
  "LTBA": {
    "icao": "LTBA",
    "metar": "LTBA 131120Z 03017KT CAVOK 27/11 Q1017 RMK RWY23 04014G27KT 010V080",
    "metar_obs_time": "2025-06-13 11:20:00",
    "taf": "TAF LTBA 131040Z 1312/1412 04018KT CAVOK BECMG 1316/1319 05008KT BECMG 1405/1408 SCT040",
    "taf_obs_time": "2025-06-13 10:40:00",
    "fetched_at": "2025-06-13T11:44:52.253449Z"
  },
  "LTBU": {
    "icao": "LTBU",
    "metar": "LTBU 131120Z 05015KT 020V080 CAVOK 26/14 Q1018 RMK RWY22 07012KT 030V110",
    "metar_obs_time": "2025-06-13 11:20:00",
    "taf": "TAF LTBU 131040Z 1312/1412 05016KT 9999 SCT025 BECMG 1312/1314 CAVOK BECMG 1316/1319 03006KT BECMG 1404/1407 04016KT SCT040",
    "taf_obs_time": "2025-06-13 10:40:00",
    "fetched_at": "2025-06-13T11:44:52.253449Z"
  }
}