{
  "LTFM": {
    "icao": "LTFM",
    "metar": "LTFM 161520Z 09005KT 040V150 CAVOK 25/10 Q1016 NOSIG RMK RWY17L 09006KT 050V110 RWY34L VRB05KT RWY16R 08006KT 010V130 RWY36 08006KT 020V120 RWY18 10006KT 060V120",
    "metar_obs_time": "2025-06-16 15:20:00",
    "taf": "TAF LTFM 161040Z 1612/1718 03012KT CAVOK BECMG 1615/1618 VRB02KT PROB30 1701/1705 4000 BR SCT008 BECMG 1705/1708 01012KT",
    "taf_obs_time": "2025-06-16 10:40:00",
    "fetched_at": "2025-06-16T15:43:29.222266Z"
  },
  "LTFJ": {
    "icao": "LTFJ",
    "metar": "LTFJ 161520Z 05012KT CAVOK 25/10 Q1016 NOSIG RMK RWY24R 02009KT 360V060 RWY06R 02010KT RWY24L 03010KT 350V050",
    "metar_obs_time": "2025-06-16 15:20:00",
    "taf": "TAF LTFJ 161040Z 1612/1712 27012KT 9999 SCT040 BECMG 1612/1615 02012KT CAVOK BECMG 1619/1622 VRB02KT BECMG 1709/1712 01012KT",
    "taf_obs_time": "2025-06-16 10:40:00",
    "fetched_at": "2025-06-16T15:43:29.222266Z"
  },
  "LTBA": {
    "icao": "LTBA",
    "metar": "LTBA 161520Z 23006KT 200V260 CAVOK 25/15 Q1016 RMK RWY23 03007KT 350V080",
    "metar_obs_time": "2025-06-16 15:20:00",
    "taf": "TAF LTBA 161040Z 1612/1712 21007KT CAVOK BECMG 1612/1615 04012KT BECMG 1618/1621 VRB02KT BECMG 1705/1708 21012KT",
    "taf_obs_time": "2025-06-16 10:40:00",
    "fetched_at": "2025-06-16T15:43:29.222266Z"
  },
  "LTBU": {
    "icao": "LTBU",
    "metar": "LTBU 161520Z 15008KT 120V190 CAVOK 26/11 Q1016 RMK RWY22 17008KT 130V220",
    "metar_obs_time": "2025-06-16 15:20:00",
    "taf": "TAF LTBU 161040Z 1612/1712 04010KT CAVOK BECMG 1616/1619 20007KT BECMG 1707/1710 01012KT",
    "taf_obs_time": "2025-06-16 10:40:00",
    "fetched_at": "2025-06-16T15:43:29.222266Z"
  }
}