{
  "LTFM": {
    "icao": "LTFM",
    "metar": "LTFM 012150Z 32009KT 9999 FEW009 17/12 Q1018 NOSIG RMK RWY17L 29007KT RWY34L 29008KT RWY16R 26004KT RWY36 31009KT RWY18 30008KT",
    "metar_obs_time": "2025-06-01 21:50:00",
    "taf": "TAF LTFM 011640Z 0118/0224 33007KT CAVOK BECMG 0118/0120 SCT008 BECMG 0120/0122 BKN004 PROB40 0121/0124 2500 BR PROB30 0200/0204 1200 BCFG OVC002 BECMG 0204/0207 03010KT SCT008 BECMG 0207/0210 CAVOK BECMG 0215/0219 13005KT",
    "taf_obs_time": "2025-06-01 16:40:00",
    "fetched_at": "2025-06-01T22:16:41.127104Z"
  },
  "LTFJ": {
    "icao": "LTFJ",
    "metar": "LTFJ 012150Z 03009KT 9999 BKN012 17/15 Q1018 NOSIG RMK RWY24R VRB04KT RWY06R 02009KT RWY24L 34004KT",
    "metar_obs_time": "2025-06-01 21:50:00",
    "taf": "TAF LTFJ 011640Z 0118/0218 03009KT 9999 SCT035 BECMG 0121/0201 BKN011 TEMPO 0201/0203 4000 BR BKN006 PROB30 TEMPO 0202/0205 1200 BCFG BKN004 BECMG 0205/0208 SCT035 BECMG 0211/0215 CAVOK",
    "taf_obs_time": "2025-06-01 16:40:00",
    "fetched_at": "2025-06-01T22:16:41.127104Z"
  },
  "LTBA": {
    "icao": "LTBA",
    "metar": "LTBA 012150Z 35004KT CAVOK 18/13 Q1018 RMK RWY23 04005KT",
    "metar_obs_time": "2025-06-01 21:50:00",
    "taf": "TAF LTBA 011640Z 0118/0218 35012KT CAVOK BECMG 0118/0121 SCT010 BECMG 0122/0201 VRB02KT 2000 BR BKN004 PROB30 0201/0204 0700 FG VV002 BECMG 0204/0207 20012KT CAVOK BECMG 0210/0212 02012KT",
    "taf_obs_time": "2025-06-01 16:40:00",
    "fetched_at": "2025-06-01T22:16:41.127104Z"
  },
  "LTBU": {
    "icao": "LTBU",
    "metar": "LTBU 012150Z 34005KT CAVOK 14/06 Q1019 RMK RWY22 35006KT",
    "metar_obs_time": "2025-06-01 21:50:00",
    "taf": "TAF LTBU 011640Z 0118/0218 35007KT CAVOK BECMG 0205/0208 16010KT SCT040 BECMG 0210/0213 05012KT",
    "taf_obs_time": "2025-06-01 16:40:00",
    "fetched_at": "2025-06-01T22:16:41.127104Z"
  }
}