{
  "LTFM": {
    "icao": "LTFM",
    "metar": "LTFM 161050Z 04011KT 360V060 CAVOK 25/14 Q1017 NOSIG RMK RWY17L 03009KT 340V060 RWY34L 03010KT 350V050 RWY16R 02010KT RWY36 03011KT RWY18 03008KT 340V080",
    "metar_obs_time": "2025-06-16 10:50:00",
    "taf": "TAF LTFM 161040Z 1612/1718 03012KT CAVOK BECMG 1615/1618 VRB02KT PROB30 1701/1705 4000 BR SCT008 BECMG 1705/1708 01012KT",
    "taf_obs_time": "2025-06-16 10:40:00",
    "fetched_at": "2025-06-16T11:18:38.252936Z"
  },
  "LTFJ": {
    "icao": "LTFJ",
    "metar": "LTFJ 161050Z 23007KT 200V270 9999 SCT035 25/13 Q1016 NOSIG RMK RWY24R VRB05KT RWY06R 23010KT RWY24L 25007KT 200V330",
    "metar_obs_time": "2025-06-16 10:50:00",
    "taf": "TAF LTFJ 161040Z 1612/1712 27012KT 9999 SCT040 BECMG 1612/1615 02012KT CAVOK BECMG 1619/1622 VRB02KT BECMG 1709/1712 01012KT",
    "taf_obs_time": "2025-06-16 10:40:00",
    "fetched_at": "2025-06-16T11:18:38.252936Z"
  },
  "LTBA": {
    "icao": "LTBA",
    "metar": "LTBA 161050Z 24010KT 9999 SCT035 24/13 Q1016 RMK RWY23 24010KT",
    "metar_obs_time": "2025-06-16 10:50:00",
    "taf": "TAF LTBA 161040Z 1612/1712 21007KT CAVOK BECMG 1612/1615 04012KT BECMG 1618/1621 VRB02KT BECMG 1705/1708 21012KT",
    "taf_obs_time": "2025-06-16 10:40:00",
    "fetched_at": "2025-06-16T11:18:38.252936Z"
  },
  "LTBU": {
    "icao": "LTBU",
    "metar": "LTBU 161050Z VRB05KT CAVOK 27/11 Q1016 RMK RWY22 VRB06KT",
    "metar_obs_time": "2025-06-16 10:50:00",
    "taf": "TAF LTBU 161040Z 1612/1712 04010KT CAVOK BECMG 1616/1619 20007KT BECMG 1707/1710 01012KT",
    "taf_obs_time": "2025-06-16 10:40:00",
    "fetched_at": "2025-06-16T11:18:38.252936Z"
  }
}