{
  "LTFM": {
    "icao": "LTFM",
    "metar": "LTFM 110250Z 03012KT 9999 FEW011 20/16 Q1015 NOSIG RMK RWY17L 04012KT RWY34L 02012KT RWY16R 03012KT RWY36 03013KT RWY18 04012KT",
    "metar_obs_time": "2025-06-11 02:50:00",
    "taf": "TAF LTFM 102240Z 1100/1206 05012KT 9999 FEW014 BECMG 1103/1106 04015G25KT BECMG 1106/1109 CAVOK BECMG 1117/1120 36005KT BKN006 PROB30 TEMPO 1122/1202 4000 BR",
    "taf_obs_time": "2025-06-10 22:40:00",
    "fetched_at": "2025-06-11T03:09:38.995013Z"
  },
  "LTFJ": {
    "icao": "LTFJ",
    "metar": "LTFJ 110250Z 04008KT 9999 BKN017 19/17 Q1014 NOSIG RMK RWY24R 04005KT 010V080 RWY06R 03008KT RWY24L 03007KT",
    "metar_obs_time": "2025-06-11 02:50:00",
    "taf": "TAF LTFJ 102240Z 1100/1124 03012KT 9999 SCT022 TEMPO 1100/1104 BKN016 BECMG 1108/1111 CAVOK TEMPO 1112/1116 04015G25KT BECMG 1121/1124 3500 BR SCT012",
    "taf_obs_time": "2025-06-10 22:40:00",
    "fetched_at": "2025-06-11T03:09:38.995013Z"
  },
  "LTBA": {
    "icao": "LTBA",
    "metar": "LTBA 110250Z 03008KT CAVOK 20/16 Q1014 RMK RWY23 03008KT",
    "metar_obs_time": "2025-06-11 02:50:00",
    "taf": "TAF LTBA 102240Z 1100/1124 05012KT 9999 FEW018 BECMG 1100/1102 BKN022 BECMG 1104/1107 03018G28KT SCT025 BECMG 1107/1109 CAVOK BECMG 1116/1119 03007KT",
    "taf_obs_time": "2025-06-10 22:40:00",
    "fetched_at": "2025-06-11T03:09:38.995013Z"
  },
  "LTBU": {
    "icao": "LTBU",
    "metar": "LTBU 110250Z 02013KT CAVOK 17/14 Q1015 RMK RWY22 02009KT",
    "metar_obs_time": "2025-06-11 02:50:00",
    "taf": "TAF LTBU 102240Z 1100/1124 02008KT 9999 FEW018 BECMG 1104/1107 04018G28KT CAVOK BECMG 1116/1119 01007KT SCT014 PROB30 TEMPO 1120/1124 2500 BR",
    "taf_obs_time": "2025-06-10 22:40:00",
    "fetched_at": "2025-06-11T03:09:38.995013Z"
  }
}