{
  "LTFM": {
    "icao": "LTFM",
    "metar": "LTFM 181120Z 02012KT 340V040 CAVOK 26/16 Q1020 NOSIG RMK RWY17L 01012KT RWY34L 36011KT 320V040 RWY16R 36011KT RWY36 36012KT RWY18 36011KT",
    "metar_obs_time": "2025-06-18 11:20:00",
    "taf": "TAF LTFM 181040Z 1812/1918 05012KT CAVOK BECMG 1817/1820 VRB02KT BECMG 1821/1824 1400 BCFG BKN004 BECMG 1902/1904 9999 NSW FEW020 BECMG 1905/1907 05012KT",
    "taf_obs_time": "2025-06-18 10:40:00",
    "fetched_at": "2025-06-18T11:31:39.014621Z"
  },
  "LTFJ": {
    "icao": "LTFJ",
    "metar": "LTFJ 181120Z 03013KT 360V070 CAVOK 30/13 Q1018 NOSIG RMK RWY24R 04012G22KT 360V090 RWY06R 03014KT 350V060 RWY24L 02012KT 350V080",
    "metar_obs_time": "2025-06-18 11:20:00",
    "taf": "TAF LTFJ 181040Z 1812/1912 03015KT CAVOK BECMG 1816/1820 03005KT BECMG 1907/1910 03015KT",
    "taf_obs_time": "2025-06-18 10:40:00",
    "fetched_at": "2025-06-18T11:31:39.014621Z"
  },
  "LTBA": {
    "icao": "LTBA",
    "metar": "LTBA 181120Z 05014KT 020V080 CAVOK 30/12 Q1018 RMK RWY23 05012KT 020V090",
    "metar_obs_time": "2025-06-18 11:20:00",
    "taf": "TAF LTBA 181040Z 1812/1912 03015KT CAVOK BECMG 1817/1820 05005KT BECMG 1904/1907 04015KT",
    "taf_obs_time": "2025-06-18 10:40:00",
    "fetched_at": "2025-06-18T11:31:39.014621Z"
  },
  "LTBU": {
    "icao": "LTBU",
    "metar": "LTBU 181120Z 06013KT CAVOK 30/13 Q1019 RMK RWY22 06011KT 020V090",
    "metar_obs_time": "2025-06-18 11:20:00",
    "taf": "TAF COR LTBU 181040Z 1812/1912 05015KT CAVOK BECMG 1817/1820 02005KT TEMPO 1822/1902 2500 BCFG BKN006 BECMG 1906/1909 05015KT",
    "taf_obs_time": "2025-06-18 10:40:00",
    "fetched_at": "2025-06-18T11:31:39.014621Z"
  }
}