{
  "LTFM": {
    "icao": "LTFM",
    "metar": "LTFM 020350Z 34005KT 9999 FEW008 17/11 Q1019 NOSIG RMK RWY17L 29004KT RWY34L 33004KT RWY16R 29003KT RWY36 33006KT 290V350 RWY18 31006G16KT 280V340",
    "metar_obs_time": "2025-06-02 03:50:00",
    "taf": "TAF LTFM 012240Z 0200/0306 33007KT 9999 SCT008 TEMPO 0200/0204 1200 BCFG BKN002 BECMG 0204/0207 03010KT BECMG 0210/0213 CAVOK BECMG 0217/0220 13005KT",
    "taf_obs_time": "2025-06-01 22:40:00",
    "fetched_at": "2025-06-02T04:05:37.147402Z"
  },
  "LTFJ": {
    "icao": "LTFJ",
    "metar": "LTFJ 020350Z VRB02KT 9999 BKN017 17/14 Q1019 NOSIG RMK RWY24R 14001KT RWY06R 11004KT 020V130 RWY24L 13002KT",
    "metar_obs_time": "2025-06-02 03:50:00",
    "taf": "TAF LTFJ 012240Z 0200/0224 03009KT 9999 BKN012 TEMPO 0200/0203 4000 BR BKN006 PROB30 0203/0205 1200 BCFG BKN004 BECMG 0205/0208 SCT035 BECMG 0210/0214 CAVOK",
    "taf_obs_time": "2025-06-01 22:40:00",
    "fetched_at": "2025-06-02T04:05:37.147402Z"
  },
  "LTBA": {
    "icao": "LTBA",
    "metar": "LTBA 020350Z 10004KT CAVOK 17/14 Q1019 RMK RWY23 10004KT 070V130",
    "metar_obs_time": "2025-06-02 03:50:00",
    "taf": "TAF LTBA 012240Z 0200/0224 VRB02KT 9999 SCT008 TEMPO 0200/0204 1200 BCFG BKN003 BECMG 0210/0213 02012KT CAVOK",
    "taf_obs_time": "2025-06-01 22:40:00",
    "fetched_at": "2025-06-02T04:05:37.147402Z"
  },
  "LTBU": {
    "icao": "LTBU",
    "metar": "LTBU 020350Z 33005KT 260V340 CAVOK 17/10 Q1019 RMK RWY22 33006KT",
    "metar_obs_time": "2025-06-02 03:50:00",
    "taf": "TAF LTBU 012240Z 0200/0224 35007KT CAVOK BECMG 0205/0208 16010KT SCT040 BECMG 0210/0213 05012KT BECMG 0216/0219 VRB02KT CAVOK",
    "taf_obs_time": "2025-06-01 22:40:00",
    "fetched_at": "2025-06-02T04:05:37.147402Z"
  }
}