{
  "LTFM": {
    "icao": "LTFM",
    "metar": "LTFM 040750Z 25008KT 200V260 CAVOK 27/14 Q1019 NOSIG RMK RWY17L 24008KT 200V270 RWY34L 23008KT RWY16R 22008KT RWY36 23007KT 200V260 RWY18 24007KT 210V280",
    "metar_obs_time": "2025-06-04 07:50:00",
    "taf": "TAF LTFM 040440Z 0406/0512 20006KT CAVOK BECMG 0407/0410 05010KT BECMG 0417/0420 11010KT BECMG 0421/0424 31005KT FEW006 BECMG 0505/0507 05012KT CAVOK",
    "taf_obs_time": "2025-06-04 04:40:00",
    "fetched_at": "2025-06-04T08:27:47.650722Z"
  },
  "LTFJ": {
    "icao": "LTFJ",
    "metar": "LTFJ 040750Z 22006KT 170V250 CAVOK 26/11 Q1019 NOSIG RMK RWY24R 23006KT 180V250 RWY06R 21007KT RWY24L 22007KT",
    "metar_obs_time": "2025-06-04 07:50:00",
    "taf": "TAF LTFJ 040440Z 0406/0506 23007KT CAVOK BECMG 0410/0412 03010KT",
    "taf_obs_time": "2025-06-04 04:40:00",
    "fetched_at": "2025-06-04T08:27:47.650722Z"
  },
  "LTBA": {
    "icao": "LTBA",
    "metar": "LTBA 040750Z 24006KT 200V270 CAVOK 23/16 Q1019 RMK RWY23 24007KT 210V270",
    "metar_obs_time": "2025-06-04 07:50:00",
    "taf": "TAF LTBA 040440Z 0406/0506 VRB02KT CAVOK BECMG 0407/0410 21012KT BECMG 0414/0417 01008KT",
    "taf_obs_time": "2025-06-04 04:40:00",
    "fetched_at": "2025-06-04T08:27:47.650722Z"
  },
  "LTBU": {
    "icao": "LTBU",
    "metar": "LTBU 040750Z VRB04KT CAVOK 28/14 Q1019 RMK RWY22 VRB04KT",
    "metar_obs_time": "2025-06-04 07:50:00",
    "taf": "TAF LTBU 040440Z 0406/0506 VRB02KT CAVOK BECMG 0407/0410 17012KT BECMG 0417/0420 01006KT",
    "taf_obs_time": "2025-06-04 04:40:00",
    "fetched_at": "2025-06-04T08:27:47.650722Z"
  }
}