{
  "LTFM": {
    "icao": "LTFM",
    "metar": "LTFM 080620Z 02011KT 350V050 9999 BKN018 21/16 Q1016 NOSIG RMK RWY17L 03010KT RWY34L 01010KT RWY16R 02010KT 350V050 RWY36 02011KT RWY18 04010KT",
    "metar_obs_time": "2025-06-08 06:20:00",
    "taf": "TAF LTFM 080440Z 0806/0912 02016KT 9999 BKN016 BECMG 0807/0810 SCT018 BECMG 0817/0819 03006KT BECMG 0821/0824 BKN012 PROB30 0901/0905 2500 BCFG BKN006 BECMG 0906/0909 SCT016",
    "taf_obs_time": "2025-06-08 04:40:00",
    "fetched_at": "2025-06-08T06:48:48.353955Z"
  },
  "LTFJ": {
    "icao": "LTFJ",
    "metar": "LTFJ 080620Z 03007KT 340V080 9999 SCT021 21/15 Q1016 NOSIG RMK RWY24R 07005KT 010V130 RWY06R 03005KT 340V090 RWY24L VRB05KT",
    "metar_obs_time": "2025-06-08 06:20:00",
    "taf": "TAF LTFJ 080440Z 0806/0906 04012KT 9999 SCT025 BECMG 0807/0810 CAVOK BECMG 0820/0824 SCT015 PROB30 TEMPO 0902/0905 3500 BCFG BKN012",
    "taf_obs_time": "2025-06-08 04:40:00",
    "fetched_at": "2025-06-08T06:48:48.353955Z"
  },
  "LTBA": {
    "icao": "LTBA",
    "metar": "LTBA 080620Z 03007KT 350V070 9999 FEW023 23/14 Q1016 RMK RWY23 06008KT 360V090",
    "metar_obs_time": "2025-06-08 06:20:00",
    "taf": "TAF LTBA 080440Z 0806/0906 04006KT 9999 BKN020 BECMG 0806/0809 03016KT SCT022 BECMG 0818/0820 04006KT BECMG 0820/0822 BKN012 PROB40 0823/0903 2800 BCFG BKN004",
    "taf_obs_time": "2025-06-08 04:40:00",
    "fetched_at": "2025-06-08T06:48:48.353955Z"
  },
  "LTBU": {
    "icao": "LTBU",
    "metar": "LTBU 080620Z 03009KT 9999 SCT017 22/16 Q1016 RMK RWY22 05008KT 020V080",
    "metar_obs_time": "2025-06-08 06:20:00",
    "taf": "TAF LTBU 080440Z 0806/0906 33005KT 9999 SCT012 BECMG 0806/0809 03015KT CAVOK BECMG 0819/0822 01005KT SCT016 BECMG 0822/0824 BKN012 PROB40 0901/0905 2200 BCFG BKN006",
    "taf_obs_time": "2025-06-08 04:40:00",
    "fetched_at": "2025-06-08T06:48:48.353955Z"
  }
}