{
  "LTFM": {
    "icao": "LTFM",
    "metar": "LTFM 161850Z 14008KT CAVOK 23/12 Q1016 NOSIG RMK RWY17L 14008KT RWY34L 15005KT 110V170 RWY16R 12008KT RWY36 15007KT 100V180 RWY18 VRB02KT",
    "metar_obs_time": "2025-06-16 18:50:00",
    "taf": "TAF LTFM 161640Z 1618/1724 VRB02KT CAVOK BECMG 1705/1708 01012KT BECMG 1715/1718 VRB02KT",
    "taf_obs_time": "2025-06-16 16:40:00",
    "fetched_at": "2025-06-16T19:28:55.752960Z"
  },
  "LTFJ": {
    "icao": "LTFJ",
    "metar": "LTFJ 161850Z 07005KT CAVOK 22/11 Q1016 NOSIG RMK RWY24R 06003KT RWY06R 06005KT RWY24L VRB02KT",
    "metar_obs_time": "2025-06-16 18:50:00",
    "taf": "TAF LTFJ 161640Z 1618/1718 05012KT CAVOK BECMG 1619/1622 VRB02KT BECMG 1710/1714 01012KT",
    "taf_obs_time": "2025-06-16 16:40:00",
    "fetched_at": "2025-06-16T19:28:55.752960Z"
  },
  "LTBA": {
    "icao": "LTBA",
    "metar": "LTBA 161850Z 09006KT CAVOK 23/13 Q1016 RMK RWY23 12006KT 090V150",
    "metar_obs_time": "2025-06-16 18:50:00",
    "taf": "TAF LTBA 161640Z 1618/1718 VRB02KT CAVOK BECMG 1705/1708 21012KT BECMG 1711/1714 03009KT",
    "taf_obs_time": "2025-06-16 16:40:00",
    "fetched_at": "2025-06-16T19:28:55.752960Z"
  },
  "LTBU": {
    "icao": "LTBU",
    "metar": "LTBU 161850Z 00000KT CAVOK 18/11 Q1016 RMK RWY22 20003KT 160V220",
    "metar_obs_time": "2025-06-16 18:50:00",
    "taf": "TAF LTBU 161640Z 1618/1718 VRB02KT CAVOK BECMG 1621/1624 35012KT BECMG 1710/1713 13007KT",
    "taf_obs_time": "2025-06-16 16:40:00",
    "fetched_at": "2025-06-16T19:28:55.752960Z"
  }
}