{
  "LTFM": {
    "icao": "LTFM",
    "metar": "LTFM 072020Z 05011KT CAVOK 20/17 Q1016 NOSIG RMK RWY17L 05011KT RWY34L 04010KT RWY16R 04009KT RWY36 05010KT RWY18 06009KT",
    "metar_obs_time": "2025-06-07 20:20:00",
    "taf": "TAF LTFM 071640Z 0718/0824 04008KT 9999 FEW022 BECMG 0718/0720 CAVOK BECMG 0800/0803 BKN012 BECMG 0806/0809 04018KT BECMG 0811/0813 SCT012 BECMG 0816/0818 04008KT CAVOK",
    "taf_obs_time": "2025-06-07 16:40:00",
    "fetched_at": "2025-06-07T20:39:38.761229Z"
  },
  "LTFJ": {
    "icao": "LTFJ",
    "metar": "LTFJ 072020Z 03010KT CAVOK 19/16 Q1015 NOSIG RMK RWY24R 02007KT RWY06R 02011KT RWY24L 01006KT",
    "metar_obs_time": "2025-06-07 20:20:00",
    "taf": "TAF LTFJ 071640Z 0718/0818 04016KT CAVOK BECMG 0718/0721 05006KT SCT016 BECMG 0723/0802 BKN013 BECMG 0807/0810 03016KT CAVOK",
    "taf_obs_time": "2025-06-07 16:40:00",
    "fetched_at": "2025-06-07T20:39:38.761229Z"
  },
  "LTBA": {
    "icao": "LTBA",
    "metar": "LTBA 072020Z 05010KT 9999 FEW021 20/16 Q1015 RMK RWY23 06010KT",
    "metar_obs_time": "2025-06-07 20:20:00",
    "taf": "TAF LTBA 071640Z 0718/0818 03007KT 9999 FEW022 BECMG 0718/0720 CAVOK BECMG 0802/0804 SCT022 TEMPO 0805/0808 FEW012 BKN022 BECMG 0806/0809 03017KT CAVOK",
    "taf_obs_time": "2025-06-07 16:40:00",
    "fetched_at": "2025-06-07T20:39:38.761229Z"
  },
  "LTBU": {
    "icao": "LTBU",
    "metar": "LTBU 072020Z 02011KT CAVOK 18/15 Q1016 RMK RWY22 02008KT",
    "metar_obs_time": "2025-06-07 20:20:00",
    "taf": "TAF LTBU 071640Z 0718/0818 04006KT CAVOK BECMG 0800/0803 SCT012 TEMPO 0801/0805 4000 BR BKN009 BECMG 0806/0809 03016KT CAVOK",
    "taf_obs_time": "2025-06-07 16:40:00",
    "fetched_at": "2025-06-07T20:39:38.761229Z"
  }
}