{
  "LTFM": {
    "icao": "LTFM",
    "metar": "LTFM 040520Z 20007KT 170V250 CAVOK 24/13 Q1018 NOSIG RMK RWY17L 22005KT 150V280 RWY34L 22005KT 160V270 RWY16R 22005KT 180V250 RWY36 19007KT RWY18 21008KT 180V250",
    "metar_obs_time": "2025-06-04 05:20:00",
    "taf": "TAF LTFM 040440Z 0406/0512 20006KT CAVOK BECMG 0407/0410 05010KT BECMG 0417/0420 11010KT BECMG 0421/0424 31005KT FEW006 BECMG 0505/0507 05012KT CAVOK",
    "taf_obs_time": "2025-06-04 04:40:00",
    "fetched_at": "2025-06-04T05:55:03.862374Z"
  },
  "LTFJ": {
    "icao": "LTFJ",
    "metar": "LTFJ 040520Z VRB02KT CAVOK 22/15 Q1019 NOSIG RMK RWY24R VRB02KT RWY06R 00000KT RWY24L VRB02KT",
    "metar_obs_time": "2025-06-04 05:20:00",
    "taf": "TAF LTFJ 040440Z 0406/0506 23007KT CAVOK BECMG 0410/0412 03010KT",
    "taf_obs_time": "2025-06-04 04:40:00",
    "fetched_at": "2025-06-04T05:55:03.862374Z"
  },
  "LTBA": {
    "icao": "LTBA",
    "metar": "LTBA 040520Z 22004KT CAVOK 22/17 Q1018 RMK RWY23 13004KT 100V160",
    "metar_obs_time": "2025-06-04 05:20:00",
    "taf": "TAF LTBA 040440Z 0406/0506 VRB02KT CAVOK BECMG 0407/0410 21012KT BECMG 0414/0417 01008KT",
    "taf_obs_time": "2025-06-04 04:40:00",
    "fetched_at": "2025-06-04T05:55:03.862374Z"
  },
  "LTBU": {
    "icao": "LTBU",
    "metar": "LTBU 040520Z 18003KT 150V220 CAVOK 23/13 Q1019 RMK RWY22 VRB02KT",
    "metar_obs_time": "2025-06-04 05:20:00",
    "taf": "TAF LTBU 040440Z 0406/0506 VRB02KT CAVOK BECMG 0407/0410 17012KT BECMG 0417/0420 01006KT",
    "taf_obs_time": "2025-06-04 04:40:00",
    "fetched_at": "2025-06-04T05:55:03.862374Z"
  }
}