{
  "LTFM": {
    "icao": "LTFM",
    "metar": "LTFM 032020Z 18005KT CAVOK 21/13 Q1018 NOSIG RMK RWY17L 16004KT RWY34L 17005KT RWY16R 16007KT RWY36 15006KT 080V170 RWY18 17005KT",
    "metar_obs_time": "2025-06-03 20:20:00",
    "taf": "TAF LTFM 031640Z 0318/0424 10010KT CAVOK BECMG 0318/0320 18006KT BECMG 0407/0410 07012KT BECMG 0418/0420 VRB02KT",
    "taf_obs_time": "2025-06-03 16:40:00",
    "fetched_at": "2025-06-03T20:56:24.856236Z"
  },
  "LTFJ": {
    "icao": "LTFJ",
    "metar": "LTFJ 032020Z 03004KT 360V060 CAVOK 22/11 Q1018 NOSIG RMK RWY24R 01004KT 320V050 RWY06R 35003KT 330V030 RWY24L 35005KT",
    "metar_obs_time": "2025-06-03 20:20:00",
    "taf": "TAF LTFJ 031640Z 0318/0418 05006KT CAVOK BECMG 0405/0408 23010KT BECMG 0409/0412 03009KT SCT040 BECMG 0413/0416 CAVOK",
    "taf_obs_time": "2025-06-03 16:40:00",
    "fetched_at": "2025-06-03T20:56:24.856236Z"
  },
  "LTBA": {
    "icao": "LTBA",
    "metar": "LTBA 032020Z 08003KT CAVOK 22/13 Q1018 RMK RWY23 00000KT",
    "metar_obs_time": "2025-06-03 20:20:00",
    "taf": "TAF LTBA 031640Z 0318/0418 05005KT CAVOK BECMG 0406/0409 22010KT BECMG 0416/0418 05007KT",
    "taf_obs_time": "2025-06-03 16:40:00",
    "fetched_at": "2025-06-03T20:56:24.856236Z"
  },
  "LTBU": {
    "icao": "LTBU",
    "metar": "LTBU 032020Z 26002KT CAVOK 18/11 Q1018 RMK RWY22 24004KT",
    "metar_obs_time": "2025-06-03 20:20:00",
    "taf": "TAF LTBU 031640Z 0318/0418 VRB02KT CAVOK BECMG 0407/0410 17012KT FEW040 BECMG 0416/0418 VRB02KT CAVOK",
    "taf_obs_time": "2025-06-03 16:40:00",
    "fetched_at": "2025-06-03T20:56:24.856236Z"
  }
}