{
  "LTFM": {
    "icao": "LTFM",
    "metar": "LTFM 100950Z 02021KT 9999 BKN012 24/19 Q1019 NOSIG RMK RWY17L 02017KT RWY34L 01020KT RWY16R 01018KT RWY36 03019KT RWY18 02016KT",
    "metar_obs_time": "2025-06-10 09:50:00",
    "taf": "TAF LTFM 100440Z 1006/1112 36013KT 9999 SCT012 BECMG 1006/1009 BKN008 BECMG 1009/1012 03018G28KT SCT022 BECMG 1015/1018 04013KT CAVOK BECMG 1020/1023 SCT008",
    "taf_obs_time": "2025-06-10 04:40:00",
    "fetched_at": "2025-06-10T10:19:52.221576Z"
  },
  "LTFJ": {
    "icao": "LTFJ",
    "metar": "LTFJ 100950Z 03013KT 9999 FEW035 27/19 Q1017 NOSIG RMK RWY24R 03015KT 360V060 RWY06R 01014KT RWY24L 01015KT",
    "metar_obs_time": "2025-06-10 09:50:00",
    "taf": "TAF LTFJ 100440Z 1006/1106 03008KT 9999 BKN008 BECMG 1006/1008 CAVOK BECMG 1009/1012 03018KT SCT020 TEMPO 1013/1016 03020G30KT BECMG 1015/1017 CAVOK BECMG 1020/1023 SCT012 BECMG 1100/1103 BKN010 BECMG 1103/1106 SCT018",
    "taf_obs_time": "2025-06-10 04:40:00",
    "fetched_at": "2025-06-10T10:19:52.221576Z"
  },
  "LTBA": {
    "icao": "LTBA",
    "metar": "LTBA 100950Z 03017KT 9999 SCT024 27/19 Q1017 RMK RWY23 04016KT 360V070",
    "metar_obs_time": "2025-06-10 09:50:00",
    "taf": "TAF LTBA 100440Z 1006/1106 03013KT CAVOK BECMG 1008/1011 03021G31KT SCT030 BECMG 1015/1017 CAVOK BECMG 1017/1020 04013KT",
    "taf_obs_time": "2025-06-10 04:40:00",
    "fetched_at": "2025-06-10T10:19:52.221576Z"
  },
  "LTBU": {
    "icao": "LTBU",
    "metar": "LTBU 100950Z 02026KT 9999 SCT021 26/18 Q1018 RMK RWY22 03020KT 360V060",
    "metar_obs_time": "2025-06-10 09:50:00",
    "taf": "TAF LTBU 100440Z 1006/1106 02016KT CAVOK BECMG 1006/1008 03022G32KT SCT025 BECMG 1015/1017 CAVOK BECMG 1017/1020 03013KT",
    "taf_obs_time": "2025-06-10 04:40:00",
    "fetched_at": "2025-06-10T10:19:52.221576Z"
  }
}