{
  "LTFM": {
    "icao": "LTFM",
    "metar": "LTFM 170320Z 20003KT 160V260 CAVOK 19/11 Q1017 NOSIG RMK RWY17L 23003G13KT 160V290 RWY34L 17003KT RWY16R 23004KT RWY36 VRB02KT RWY18 VRB04KT",
    "metar_obs_time": "2025-06-17 03:20:00",
    "taf": "TAF LTFM 162240Z 1700/1806 22005KT CAVOK BECMG 1704/1707 35012KT BECMG 1715/1718 VRB02KT",
    "taf_obs_time": "2025-06-16 22:40:00",
    "fetched_at": "2025-06-17T03:57:25.832905Z"
  },
  "LTFJ": {
    "icao": "LTFJ",
    "metar": "LTFJ 170320Z 09004KT 060V150 CAVOK 17/12 Q1016 NOSIG RMK RWY24R 12002KT RWY06R 08005KT RWY24L 06004KT",
    "metar_obs_time": "2025-06-17 03:20:00",
    "taf": "TAF LTFJ 162240Z 1700/1724 VRB02KT CAVOK BECMG 1709/1712 01012KT BECMG 1719/1722 VRB02KT",
    "taf_obs_time": "2025-06-16 22:40:00",
    "fetched_at": "2025-06-17T03:57:25.832905Z"
  },
  "LTBA": {
    "icao": "LTBA",
    "metar": "LTBA 170320Z VRB01KT CAVOK 19/12 Q1016 RMK RWY23 VRB01KT",
    "metar_obs_time": "2025-06-17 03:20:00",
    "taf": "TAF LTBA 162240Z 1700/1724 VRB02KT CAVOK BECMG 1705/1708 19012KT BECMG 1711/1714 03009KT",
    "taf_obs_time": "2025-06-16 22:40:00",
    "fetched_at": "2025-06-17T03:57:25.832905Z"
  },
  "LTBU": {
    "icao": "LTBU",
    "metar": "LTBU 170320Z 34007KT CAVOK 19/12 Q1016 RMK RWY22 33006KT",
    "metar_obs_time": "2025-06-17 03:20:00",
    "taf": "TAF LTBU 162240Z 1700/1724 VRB02KT CAVOK BECMG 1703/1706 35012KT BECMG 1709/1712 05009KT",
    "taf_obs_time": "2025-06-16 22:40:00",
    "fetched_at": "2025-06-17T03:57:25.832905Z"
  }
}