{
  "LTFM": {
    "icao": "LTFM",
    "metar": "LTFM 040950Z VRB04KT CAVOK 30/15 Q1019 NOSIG RMK RWY17L 03007G17KT 010V070 RWY34L VRB02KT RWY16R VRB06KT RWY36 03007KT 350V060 RWY18 03007KT",
    "metar_obs_time": "2025-06-04 09:50:00",
    "taf": "TAF LTFM 040440Z 0406/0512 20006KT CAVOK BECMG 0407/0410 05010KT BECMG 0417/0420 11010KT BECMG 0421/0424 31005KT FEW006 BECMG 0505/0507 05012KT CAVOK",
    "taf_obs_time": "2025-06-04 04:40:00",
    "fetched_at": "2025-06-04T10:19:56.797836Z"
  },
  "LTFJ": {
    "icao": "LTFJ",
    "metar": "LTFJ 040950Z 25008KT 220V280 CAVOK 28/13 Q1019 NOSIG RMK RWY24R 26008KT 220V280 RWY06R 23010KT RWY24L 22010KT",
    "metar_obs_time": "2025-06-04 09:50:00",
    "taf": "TAF LTFJ 040440Z 0406/0506 23007KT CAVOK BECMG 0410/0412 03010KT",
    "taf_obs_time": "2025-06-04 04:40:00",
    "fetched_at": "2025-06-04T10:19:56.797836Z"
  },
  "LTBA": {
    "icao": "LTBA",
    "metar": "LTBA 040950Z 21007KT CAVOK 24/16 Q1019 RMK RWY23 22007KT",
    "metar_obs_time": "2025-06-04 09:50:00",
    "taf": "TAF LTBA 040440Z 0406/0506 VRB02KT CAVOK BECMG 0407/0410 21012KT BECMG 0414/0417 01008KT",
    "taf_obs_time": "2025-06-04 04:40:00",
    "fetched_at": "2025-06-04T10:19:56.797836Z"
  },
  "LTBU": {
    "icao": "LTBU",
    "metar": "LTBU 040950Z 16007KT 110V200 9999 FEW035 29/15 Q1018 RMK RWY22 16007KT 100V220",
    "metar_obs_time": "2025-06-04 09:50:00",
    "taf": "TAF LTBU 040440Z 0406/0506 VRB02KT CAVOK BECMG 0407/0410 17012KT BECMG 0417/0420 01006KT",
    "taf_obs_time": "2025-06-04 04:40:00",
    "fetched_at": "2025-06-04T10:19:56.797836Z"
  }
}