{
  "LTFM": {
    "icao": "LTFM",
    "metar": "LTFM 161820Z 14006KT CAVOK 24/12 Q1016 NOSIG RMK RWY17L 13006KT RWY34L 12007KT RWY16R 11008KT RWY36 11006KT 020V130 RWY18 13004KT",
    "metar_obs_time": "2025-06-16 18:20:00",
    "taf": "TAF LTFM 161640Z 1618/1724 VRB02KT CAVOK BECMG 1705/1708 01012KT BECMG 1715/1718 VRB02KT",
    "taf_obs_time": "2025-06-16 16:40:00",
    "fetched_at": "2025-06-16T18:34:29.529225Z"
  },
  "LTFJ": {
    "icao": "LTFJ",
    "metar": "LTFJ 161820Z 07006KT CAVOK 22/11 Q1016 NOSIG RMK RWY24R 07003KT RWY06R 06005KT RWY24L 08004KT",
    "metar_obs_time": "2025-06-16 18:20:00",
    "taf": "TAF LTFJ 161640Z 1618/1718 05012KT CAVOK BECMG 1619/1622 VRB02KT BECMG 1710/1714 01012KT",
    "taf_obs_time": "2025-06-16 16:40:00",
    "fetched_at": "2025-06-16T18:34:29.529225Z"
  },
  "LTBA": {
    "icao": "LTBA",
    "metar": "LTBA 161820Z 09005KT CAVOK 24/11 Q1015 RMK RWY23 09005KT",
    "metar_obs_time": "2025-06-16 18:20:00",
    "taf": "TAF LTBA 161640Z 1618/1718 VRB02KT CAVOK BECMG 1705/1708 21012KT BECMG 1711/1714 03009KT",
    "taf_obs_time": "2025-06-16 16:40:00",
    "fetched_at": "2025-06-16T18:34:29.529225Z"
  },
  "LTBU": {
    "icao": "LTBU",
    "metar": "LTBU 161820Z VRB02KT CAVOK 22/11 Q1016 RMK RWY22 18004KT 150V210",
    "metar_obs_time": "2025-06-16 18:20:00",
    "taf": "TAF LTBU 161640Z 1618/1718 VRB02KT CAVOK BECMG 1621/1624 35012KT BECMG 1710/1713 13007KT",
    "taf_obs_time": "2025-06-16 16:40:00",
    "fetched_at": "2025-06-16T18:34:29.529225Z"
  }
}