{
  "LTFM": {
    "icao": "LTFM",
    "metar": "LTFM 040820Z 25006KT 190V280 CAVOK 28/14 Q1019 NOSIG RMK RWY17L 25006KT 200V300 RWY34L 24007KT 180V260 RWY16R 22006KT 160V250 RWY36 VRB05KT RWY18 22005KT 170V270",
    "metar_obs_time": "2025-06-04 08:20:00",
    "taf": "TAF LTFM 040440Z 0406/0512 20006KT CAVOK BECMG 0407/0410 05010KT BECMG 0417/0420 11010KT BECMG 0421/0424 31005KT FEW006 BECMG 0505/0507 05012KT CAVOK",
    "taf_obs_time": "2025-06-04 04:40:00",
    "fetched_at": "2025-06-04T08:51:27.156098Z"
  },
  "LTFJ": {
    "icao": "LTFJ",
    "metar": "LTFJ 040820Z 24007KT 200V260 CAVOK 26/12 Q1019 NOSIG RMK RWY24R 24007KT RWY06R 23007KT RWY24L 23007KT 200V270",
    "metar_obs_time": "2025-06-04 08:20:00",
    "taf": "TAF LTFJ 040440Z 0406/0506 23007KT CAVOK BECMG 0410/0412 03010KT",
    "taf_obs_time": "2025-06-04 04:40:00",
    "fetched_at": "2025-06-04T08:51:27.156098Z"
  },
  "LTBA": {
    "icao": "LTBA",
    "metar": "LTBA 040820Z 24007KT 210V270 CAVOK 23/16 Q1019 RMK RWY23 24009KT",
    "metar_obs_time": "2025-06-04 08:20:00",
    "taf": "TAF LTBA 040440Z 0406/0506 VRB02KT CAVOK BECMG 0407/0410 21012KT BECMG 0414/0417 01008KT",
    "taf_obs_time": "2025-06-04 04:40:00",
    "fetched_at": "2025-06-04T08:51:27.156098Z"
  },
  "LTBU": {
    "icao": "LTBU",
    "metar": "LTBU 040820Z 15003KT 050V210 CAVOK 29/14 Q1019 RMK RWY22 VRB04KT",
    "metar_obs_time": "2025-06-04 08:20:00",
    "taf": "TAF LTBU 040440Z 0406/0506 VRB02KT CAVOK BECMG 0407/0410 17012KT BECMG 0417/0420 01006KT",
    "taf_obs_time": "2025-06-04 04:40:00",
    "fetched_at": "2025-06-04T08:51:27.156098Z"
  }
}