{
  "LTFM": {
    "icao": "LTFM",
    "metar": "LTFM 151120Z 02011KT 330V040 9999 SCT027 22/13 Q1018 NOSIG RMK RWY17L 02011KT 340V040 RWY34L 36011KT RWY16R 36011KT 320V040 RWY36 36010KT RWY18 01011KT 320V040",
    "metar_obs_time": "2025-06-15 11:20:00",
    "taf": "TAF LTFM 151040Z 1512/1618 01012KT 9999 SCT028 BECMG 1512/1514 CAVOK BECMG 1518/1520 17007KT BECMG 1523/1601 25010KT TEMPO 1601/1605 FEW032 BECMG 1605/1607 01011KT",
    "taf_obs_time": "2025-06-15 10:40:00",
    "fetched_at": "2025-06-15T11:40:19.451912Z"
  },
  "LTFJ": {
    "icao": "LTFJ",
    "metar": "LTFJ 151120Z 36012KT 330V040 9999 SCT030 24/13 Q1017 NOSIG RMK RWY24R 05010KT 020V080 RWY06R 02009KT 340V070 RWY24L 02012KT 350V070",
    "metar_obs_time": "2025-06-15 11:20:00",
    "taf": "TAF LTFJ 151040Z 1512/1612 03012KT 9999 SCT035 BECMG 1514/1517 CAVOK BECMG 1520/1523 VRB02KT BECMG 1604/1607 24012KT SCT035 BECMG 1609/1612 03012KT",
    "taf_obs_time": "2025-06-15 10:40:00",
    "fetched_at": "2025-06-15T11:40:19.451912Z"
  },
  "LTBA": {
    "icao": "LTBA",
    "metar": "LTBA 151120Z 24007KT 210V270 9999 SCT040 24/15 Q1017 RMK RWY23 23005KT 170V310",
    "metar_obs_time": "2025-06-15 11:20:00",
    "taf": "TAF LTBA 151040Z 1512/1612 01015KT 9999 SCT032 BECMG 1512/1514 CAVOK BECMG 1516/1519 03005KT BECMG 1605/1608 18010KT SCT032",
    "taf_obs_time": "2025-06-15 10:40:00",
    "fetched_at": "2025-06-15T11:40:19.451912Z"
  },
  "LTBU": {
    "icao": "LTBU",
    "metar": "LTBU 151120Z 03010KT 350V070 9999 SCT035 26/10 Q1018 RMK RWY22 03009KT 320V070",
    "metar_obs_time": "2025-06-15 11:20:00",
    "taf": "TAF LTBU 151040Z 1512/1612 03015G25KT 9999 SCT032 BECMG 1512/1514 CAVOK BECMG 1516/1518 03007KT BECMG 1523/1601 33010KT BECMG 1606/1608 03008KT SCT032",
    "taf_obs_time": "2025-06-15 10:40:00",
    "fetched_at": "2025-06-15T11:40:19.451912Z"
  }
}