{
  "LTFM": {
    "icao": "LTFM",
    "metar": "LTFM 041620Z 09009KT 030V100 CAVOK 28/13 Q1017 NOSIG RMK RWY17L 08007KT RWY34L 05009KT RWY16R 08009KT RWY36 07007KT 020V100 RWY18 09008KT",
    "metar_obs_time": "2025-06-04 16:20:00",
    "taf": "TAF LTFM 041040Z 0412/0518 05012KT CAVOK BECMG 0416/0419 VRB02KT BECMG 0506/0509 05012KT",
    "taf_obs_time": "2025-06-04 10:40:00",
    "fetched_at": "2025-06-04T16:32:46.187968Z"
  },
  "LTFJ": {
    "icao": "LTFJ",
    "metar": "LTFJ 041620Z 04011KT CAVOK 28/13 Q1017 NOSIG RMK RWY24R 03008KT RWY06R 03011KT RWY24L 04010KT",
    "metar_obs_time": "2025-06-04 16:20:00",
    "taf": "TAF LTFJ 041040Z 0412/0512 25012KT CAVOK BECMG 0412/0414 03008KT",
    "taf_obs_time": "2025-06-04 10:40:00",
    "fetched_at": "2025-06-04T16:32:46.187968Z"
  },
  "LTBA": {
    "icao": "LTBA",
    "metar": "LTBA 041620Z 26004KT CAVOK 27/11 Q1017 RMK RWY23 25003KT",
    "metar_obs_time": "2025-06-04 16:20:00",
    "taf": "TAF LTBA 041040Z 0412/0512 21012KT CAVOK BECMG 0412/0415 VRB02KT BECMG 0416/0419 04012KT",
    "taf_obs_time": "2025-06-04 10:40:00",
    "fetched_at": "2025-06-04T16:32:46.187968Z"
  },
  "LTBU": {
    "icao": "LTBU",
    "metar": "LTBU 041620Z 14004KT 110V170 CAVOK 28/12 Q1017 RMK RWY22 17003KT 140V200",
    "metar_obs_time": "2025-06-04 16:20:00",
    "taf": "TAF LTBU 041040Z 0412/0512 17006KT CAVOK BECMG 0417/0420 01010KT",
    "taf_obs_time": "2025-06-04 10:40:00",
    "fetched_at": "2025-06-04T16:32:46.187968Z"
  }
}