{
  "LTFM": {
    "icao": "LTFM",
    "metar": "LTFM 161650Z 09006KT 060V120 CAVOK 25/10 Q1016 NOSIG RMK RWY17L 09006KT RWY34L 07006KT RWY16R 09006KT RWY36 09006KT 010V100 RWY18 10005KT",
    "metar_obs_time": "2025-06-16 16:50:00",
    "taf": "TAF LTFM 161640Z 1618/1724 VRB02KT CAVOK BECMG 1705/1708 01012KT BECMG 1715/1718 VRB02KT",
    "taf_obs_time": "2025-06-16 16:40:00",
    "fetched_at": "2025-06-16T17:16:22.431098Z"
  },
  "LTFJ": {
    "icao": "LTFJ",
    "metar": "LTFJ 161650Z 05007KT CAVOK 24/10 Q1016 NOSIG RMK RWY24R 05006KT 350V070 RWY06R 04007KT 010V070 RWY24L 07007KT",
    "metar_obs_time": "2025-06-16 16:50:00",
    "taf": "TAF LTFJ 161640Z 1618/1718 05012KT CAVOK BECMG 1619/1622 VRB02KT BECMG 1710/1714 01012KT",
    "taf_obs_time": "2025-06-16 16:40:00",
    "fetched_at": "2025-06-16T17:16:22.431098Z"
  },
  "LTBA": {
    "icao": "LTBA",
    "metar": "LTBA 161650Z 04005KT 020V110 CAVOK 26/09 Q1015 RMK RWY23 06007KT 020V100",
    "metar_obs_time": "2025-06-16 16:50:00",
    "taf": "TAF LTBA 161640Z 1618/1718 VRB02KT CAVOK BECMG 1705/1708 21012KT BECMG 1711/1714 03009KT",
    "taf_obs_time": "2025-06-16 16:40:00",
    "fetched_at": "2025-06-16T17:16:22.431098Z"
  },
  "LTBU": {
    "icao": "LTBU",
    "metar": "LTBU 161650Z 15006KT CAVOK 24/11 Q1016 RMK RWY22 17005KT",
    "metar_obs_time": "2025-06-16 16:50:00",
    "taf": "TAF LTBU 161640Z 1618/1718 VRB02KT CAVOK BECMG 1621/1624 35012KT BECMG 1710/1713 13007KT",
    "taf_obs_time": "2025-06-16 16:40:00",
    "fetched_at": "2025-06-16T17:16:22.431098Z"
  }
}