{
  "LTFM": {
    "icao": "LTFM",
    "metar": "LTFM 061420Z 05017KT 9999 FEW014 23/18 Q1018 NOSIG RMK RWY17L 05015KT RWY34L 04014KT RWY16R 04016KT RWY36 05015KT RWY18 05014KT",
    "metar_obs_time": "2025-06-06 14:20:00",
    "taf": "TAF LTFM 061040Z 0612/0718 05015G25KT 9999 SCT014 BECMG 0612/0615 CAVOK BECMG 0616/0619 05008KT BECMG 0620/0622 SCT006 BECMG 0622/0701 BKN006 PROB30 TEMPO 0700/0703 2500 BCFG BECMG 0703/0706 04017G27KT BECMG 0709/0712 SCT012",
    "taf_obs_time": "2025-06-06 10:40:00",
    "fetched_at": "2025-06-06T14:38:42.979184Z"
  },
  "LTFJ": {
    "icao": "LTFJ",
    "metar": "LTFJ 061420Z 05019KT CAVOK 26/15 Q1016 NOSIG RMK RWY24R 05015KT RWY06R 04020KT RWY24L 05015KT",
    "metar_obs_time": "2025-06-06 14:20:00",
    "taf": "TAF LTFJ 061040Z 0612/0712 04018KT CAVOK BECMG 0617/0620 04008KT SCT012 BECMG 0620/0624 BKN007 PROB30 TEMPO 0700/0703 3500 BCFG BKN004",
    "taf_obs_time": "2025-06-06 10:40:00",
    "fetched_at": "2025-06-06T14:38:42.979184Z"
  },
  "LTBA": {
    "icao": "LTBA",
    "metar": "LTBA 061420Z 05018KT CAVOK 27/14 Q1016 RMK RWY23 04015KT 010V070",
    "metar_obs_time": "2025-06-06 14:20:00",
    "taf": "TAF LTBA 061040Z 0612/0712 04018G28KT CAVOK BECMG 0616/0620 05009KT BECMG 0622/0701 BKN007 BECMG 0703/0706 02017G27KT SCT018",
    "taf_obs_time": "2025-06-06 10:40:00",
    "fetched_at": "2025-06-06T14:38:42.979184Z"
  },
  "LTBU": {
    "icao": "LTBU",
    "metar": "LTBU 061420Z 04018KT CAVOK 26/14 Q1016 RMK RWY22 05014KT",
    "metar_obs_time": "2025-06-06 14:20:00",
    "taf": "TAF LTBU 061040Z 0612/0712 04018G28KT CAVOK BECMG 0616/0620 03007KT BECMG 0622/0701 2500 BCFG BKN007 BECMG 0703/0706 03017G27KT 9999 NSW SCT018",
    "taf_obs_time": "2025-06-06 10:40:00",
    "fetched_at": "2025-06-06T14:38:42.979184Z"
  }
}