{
  "LTFM": {
    "icao": "LTFM",
    "metar": "LTFM 032150Z 20006KT CAVOK 19/13 Q1018 NOSIG RMK RWY17L 21006KT 180V240 RWY34L 20004KT RWY16R 23003KT 180V250 RWY36 18005KT RWY18 20008KT",
    "metar_obs_time": "2025-06-03 21:50:00",
    "taf": "TAF LTFM 031640Z 0318/0424 10010KT CAVOK BECMG 0318/0320 18006KT BECMG 0407/0410 07012KT BECMG 0418/0420 VRB02KT",
    "taf_obs_time": "2025-06-03 16:40:00",
    "fetched_at": "2025-06-03T22:18:24.014371Z"
  },
  "LTFJ": {
    "icao": "LTFJ",
    "metar": "LTFJ 032150Z 03004KT 350V060 CAVOK 21/11 Q1018 NOSIG RMK RWY24R 02004KT 360V060 RWY06R 05004KT RWY24L 05004KT",
    "metar_obs_time": "2025-06-03 21:50:00",
    "taf": "TAF LTFJ 031640Z 0318/0418 05006KT CAVOK BECMG 0405/0408 23010KT BECMG 0409/0412 03009KT SCT040 BECMG 0413/0416 CAVOK",
    "taf_obs_time": "2025-06-03 16:40:00",
    "fetched_at": "2025-06-03T22:18:24.014371Z"
  },
  "LTBA": {
    "icao": "LTBA",
    "metar": "LTBA 032150Z VRB01KT CAVOK 22/12 Q1017 RMK RWY23 VRB02KT",
    "metar_obs_time": "2025-06-03 21:50:00",
    "taf": "TAF LTBA 031640Z 0318/0418 05005KT CAVOK BECMG 0406/0409 22010KT BECMG 0416/0418 05007KT",
    "taf_obs_time": "2025-06-03 16:40:00",
    "fetched_at": "2025-06-03T22:18:24.014371Z"
  },
  "LTBU": {
    "icao": "LTBU",
    "metar": "LTBU 032150Z VRB01KT CAVOK 17/09 Q1018 RMK RWY22 25004KT",
    "metar_obs_time": "2025-06-03 21:50:00",
    "taf": "TAF LTBU 031640Z 0318/0418 VRB02KT CAVOK BECMG 0407/0410 17012KT FEW040 BECMG 0416/0418 VRB02KT CAVOK",
    "taf_obs_time": "2025-06-03 16:40:00",
    "fetched_at": "2025-06-03T22:18:24.014371Z"
  }
}