{
  "LTFM": {
    "icao": "LTFM",
    "metar": "LTFM 070850Z 04013KT 010V070 9999 FEW016 SCT022 22/17 Q1019 NOSIG RMK RWY17L 04012KT 360V060 RWY34L 03013KT RWY16R 03012KT 350V050 RWY36 05014KT RWY18 04011KT 010V070",
    "metar_obs_time": "2025-06-07 08:50:00",
    "taf": "TAF LTFM 070440Z 0706/0812 05009KT 9999 BKN011 BECMG 0706/0709 03017G27KT BECMG 0709/0712 SCT012 BECMG 0716/0719 04010KT CAVOK BECMG 0802/0805 BKN012",
    "taf_obs_time": "2025-06-07 04:40:00",
    "fetched_at": "2025-06-07T09:17:22.449095Z"
  },
  "LTFJ": {
    "icao": "LTFJ",
    "metar": "LTFJ 070850Z 03010KT 360V070 9999 SCT035 24/16 Q1017 NOSIG RMK RWY24R 03009KT 340V080 RWY06R 01011KT 350V050 RWY24L 02010KT 340V070",
    "metar_obs_time": "2025-06-07 08:50:00",
    "taf": "TAF AMD LTFJ 070637Z 0706/0806 05008KT 9999 BKN025 BECMG 0706/0709 05018KT SCT035 BECMG 0713/0716 CAVOK BECMG 0718/0721 05008KT SCT016 PROB40 TEMPO 0802/0806 BKN014",
    "taf_obs_time": "2025-06-07 06:37:00",
    "fetched_at": "2025-06-07T09:17:22.449095Z"
  },
  "LTBA": {
    "icao": "LTBA",
    "metar": "LTBA 070850Z 03014KT CAVOK 26/14 Q1017 RMK RWY23 04011KT 010V100",
    "metar_obs_time": "2025-06-07 08:50:00",
    "taf": "TAF LTBA 070440Z 0706/0806 05012KT 9999 BKN014 BECMG 0706/0709 02017G27KT SCT018 BECMG 0718/0721 03008KT",
    "taf_obs_time": "2025-06-07 04:40:00",
    "fetched_at": "2025-06-07T09:17:22.449095Z"
  },
  "LTBU": {
    "icao": "LTBU",
    "metar": "LTBU 070850Z 04011KT 010V090 CAVOK 26/11 Q1018 RMK RWY22 05011KT 020V080",
    "metar_obs_time": "2025-06-07 08:50:00",
    "taf": "TAF LTBU 070440Z 0706/0806 03015G25KT 9999 SCT018 BECMG 0708/0711 CAVOK BECMG 0716/0719 01008KT TEMPO 0800/0804 2500 BCFG BKN009",
    "taf_obs_time": "2025-06-07 04:40:00",
    "fetched_at": "2025-06-07T09:17:22.449095Z"
  }
}