{
  "LTFM": {
    "icao": "LTFM",
    "metar": "LTFM 101250Z 03023KT 9999 SCT014 BKN020 24/18 Q1018 NOSIG RMK RWY17L 03022KT RWY34L 01022KT RWY16R 02022KT RWY36 02023KT RWY18 03019KT",
    "metar_obs_time": "2025-06-10 12:50:00",
    "taf": "TAF LTFM 101040Z 1012/1118 03022G32KT 9999 FEW014 BKN022 BECMG 1012/1014 SCT028 BECMG 1016/1019 04012KT BECMG 1103/1106 03015G25KT",
    "taf_obs_time": "2025-06-10 10:40:00",
    "fetched_at": "2025-06-10T13:20:56.479061Z"
  },
  "LTFJ": {
    "icao": "LTFJ",
    "metar": "LTFJ 101250Z 05021KT 9999 SCT025 24/18 Q1017 NOSIG RMK RWY24R 05018KT RWY06R 03021KT RWY24L 03022KT",
    "metar_obs_time": "2025-06-10 12:50:00",
    "taf": "TAF LTFJ 101040Z 1012/1112 03018KT 9999 SCT025 TEMPO 1012/1016 03020G30KT BECMG 1016/1020 04008KT BECMG 1020/1023 BKN012 BECMG 1104/1108 FEW035 BECMG 1108/1111 04018KT",
    "taf_obs_time": "2025-06-10 10:40:00",
    "fetched_at": "2025-06-10T13:20:56.479061Z"
  },
  "LTBA": {
    "icao": "LTBA",
    "metar": "LTBA 101250Z 03021KT 9999 BKN024 25/18 Q1017 RMK RWY23 02021KT",
    "metar_obs_time": "2025-06-10 12:50:00",
    "taf": "TAF LTBA 101040Z 1012/1112 03022G32KT 9999 SCT025 BECMG 1017/1020 04014KT BECMG 1103/1106 03018G28KT",
    "taf_obs_time": "2025-06-10 10:40:00",
    "fetched_at": "2025-06-10T13:20:56.479061Z"
  },
  "LTBU": {
    "icao": "LTBU",
    "metar": "LTBU 101250Z 03027KT CAVOK 25/17 Q1017 RMK RWY22 04023G33KT",
    "metar_obs_time": "2025-06-10 12:50:00",
    "taf": "TAF LTBU 101040Z 1012/1112 04025G35KT 9999 SCT025 BECMG 1018/1021 04014KT BECMG 1106/1109 04018G28KT",
    "taf_obs_time": "2025-06-10 10:40:00",
    "fetched_at": "2025-06-10T13:20:56.479061Z"
  }
}