{
  "LTFM": {
    "icao": "LTFM",
    "metar": "LTFM 030820Z 03007KT 360V080 CAVOK 25/14 Q1020 NOSIG RMK RWY17L 04007KT RWY34L VRB06KT RWY16R 05007KT RWY36 03008KT RWY18 03006KT 010V070",
    "metar_obs_time": "2025-06-03 08:20:00",
    "taf": "TAF LTFM 030440Z 0306/0412 VRB02KT CAVOK BECMG 0306/0309 06012KT BECMG 0316/0319 18005KT BECMG 0407/0410 05010KT",
    "taf_obs_time": "2025-06-03 04:40:00",
    "fetched_at": "2025-06-03T08:54:45.797021Z"
  },
  "LTFJ": {
    "icao": "LTFJ",
    "metar": "LTFJ 030820Z 17006KT 130V220 CAVOK 25/13 Q1020 NOSIG RMK RWY24R VRB02KT RWY06R 22005KT 180V260 RWY24L 21004KT 130V250",
    "metar_obs_time": "2025-06-03 08:20:00",
    "taf": "TAF LTFJ 030440Z 0306/0406 24009KT CAVOK BECMG 0311/0315 03012KT BECMG 0316/0318 VRB02KT",
    "taf_obs_time": "2025-06-03 04:40:00",
    "fetched_at": "2025-06-03T08:54:45.797021Z"
  },
  "LTBA": {
    "icao": "LTBA",
    "metar": "LTBA 030820Z 22007KT CAVOK 21/16 Q1020 RMK RWY23 20006KT",
    "metar_obs_time": "2025-06-03 08:20:00",
    "taf": "TAF LTBA 030440Z 0306/0406 VRB02KT CAVOK BECMG 0307/0310 21012KT BECMG 0313/0316 VRB02KT",
    "taf_obs_time": "2025-06-03 04:40:00",
    "fetched_at": "2025-06-03T08:54:45.797021Z"
  },
  "LTBU": {
    "icao": "LTBU",
    "metar": "LTBU 030820Z 16005KT 070V220 CAVOK 25/10 Q1020 RMK RWY22 16005KT 090V260",
    "metar_obs_time": "2025-06-03 08:20:00",
    "taf": "TAF LTBU 030440Z 0306/0406 VRB02KT CAVOK BECMG 0307/0310 17012KT BECMG 0316/0319 VRB02KT",
    "taf_obs_time": "2025-06-03 04:40:00",
    "fetched_at": "2025-06-03T08:54:45.797021Z"
  }
}