{
  "LTFM": {
    "icao": "LTFM",
    "metar": "LTFM 211720Z 06019KT CAVOK 22/13 Q1019 NOSIG RMK RWY17L 06016KT RWY34L 05013KT RWY16R 05016KT RWY36 06015KT RWY18 06015KT",
    "metar_obs_time": "2025-06-21 17:20:00",
    "taf": "TAF LTFM 211640Z 2118/2224 06013KT CAVOK BECMG 2200/2203 SCT025 BECMG 2203/2206 03016G26KT BECMG 2215/2217 CAVOK BECMG 2217/2220 17008KT",
    "taf_obs_time": "2025-06-21 16:40:00",
    "fetched_at": "2025-06-21T17:45:40.259060Z"
  },
  "LTFJ": {
    "icao": "LTFJ",
    "metar": "LTFJ 211720Z 05017KT CAVOK 22/13 Q1018 NOSIG RMK RWY24R 06015KT RWY06R 04020KT RWY24L 05018KT",
    "metar_obs_time": "2025-06-21 17:20:00",
    "taf": "TAF LTFJ 211640Z 2118/2218 05018KT CAVOK BECMG 2118/2122 05007KT BECMG 2203/2207 SCT035 TEMPO 2208/2210 BKN030 BECMG 2210/2214 04017KT BECMG 2216/2218 05007KT",
    "taf_obs_time": "2025-06-21 16:40:00",
    "fetched_at": "2025-06-21T17:45:40.259060Z"
  },
  "LTBA": {
    "icao": "LTBA",
    "metar": "LTBA 211720Z 04020KT CAVOK 22/13 Q1018 RMK RWY23 05019KT",
    "metar_obs_time": "2025-06-21 17:20:00",
    "taf": "TAF LTBA 211640Z 2118/2218 04019KT CAVOK BECMG 2118/2120 05008KT BECMG 2203/2206 03016G26KT SCT030 PROB30 TEMPO 2206/2209 -SHRA SCT004 FEW020TCU BKN025 BECMG 2213/2216 CAVOK BECMG 2216/2218 06006KT",
    "taf_obs_time": "2025-06-21 16:40:00",
    "fetched_at": "2025-06-21T17:45:40.259060Z"
  },
  "LTBU": {
    "icao": "LTBU",
    "metar": "LTBU 211720Z 05017KT CAVOK 21/13 Q1019 RMK RWY22 06015KT",
    "metar_obs_time": "2025-06-21 17:20:00",
    "taf": "TAF LTBU 211640Z 2118/2218 04018KT CAVOK BECMG 2118/2120 03008KT BECMG 2203/2206 03016G26KT SCT035 BECMG 2212/2215 CAVOK BECMG 2215/2218 02006KT",
    "taf_obs_time": "2025-06-21 16:40:00",
    "fetched_at": "2025-06-21T17:45:40.259060Z"
  }
}