{
  "LTFM": {
    "icao": "LTFM",
    "metar": "LTFM 201320Z 01020KT 9999 BKN012 BKN025 23/18 Q1015 NOSIG RMK RWY17L 01016KT RWY34L 36020KT RWY16R 36017KT RWY36 01019KT RWY18 01017KT",
    "metar_obs_time": "2025-06-20 13:20:00",
    "taf": "TAF LTFM 201040Z 2012/2118 34020KT 9999 BKN012 BKN025 BECMG 2012/2015 04018KT PROB30 TEMPO 2015/2019 -SHRA FEW018TCU BKN022",
    "taf_obs_time": "2025-06-20 10:40:00",
    "fetched_at": "2025-06-20T13:49:02.357585Z"
  },
  "LTFJ": {
    "icao": "LTFJ",
    "metar": "LTFJ 201320Z 01016KT 9999 FEW035 SCT080 27/19 Q1013 NOSIG RMK RWY24R 03019KT RWY06R 36019KT RWY24L 35019KT",
    "metar_obs_time": "2025-06-20 13:20:00",
    "taf": "TAF LTFJ 201040Z 2012/2112 23009KT 9999 FEW035 BECMG 2012/2015 03012KT BECMG 2015/2019 BKN025 PROB30 TEMPO 2020/2024 -SHRA BECMG 2103/2106 SCT035 BECMG 2106/2109 CAVOK",
    "taf_obs_time": "2025-06-20 10:40:00",
    "fetched_at": "2025-06-20T13:49:02.357585Z"
  },
  "LTBA": {
    "icao": "LTBA",
    "metar": "LTBA 201320Z 01021KT 9999 SCT023 26/18 Q1013 RMK RWY23 36020KT",
    "metar_obs_time": "2025-06-20 13:20:00",
    "taf": "TAF LTBA 201040Z 2012/2112 35018KT CAVOK BECMG 2012/2015 SCT025 BECMG 2015/2018 05015KT BKN012 BECMG 2020/2023 FEW025",
    "taf_obs_time": "2025-06-20 10:40:00",
    "fetched_at": "2025-06-20T13:49:02.357585Z"
  },
  "LTBU": {
    "icao": "LTBU",
    "metar": "LTBU 201320Z 02018KT 9999 FEW045 26/17 Q1014 RMK RWY22 05015KT 010V070",
    "metar_obs_time": "2025-06-20 13:20:00",
    "taf": "TAF LTBU 201040Z 2012/2112 05018KT 9999 SCT045 TEMPO 2012/2016 03016G26KT -SHRA FEW018CB BKN022 BECMG 2018/2021 03008KT CAVOK BECMG 2102/2105 SCT045 BECMG 2106/2109 05018KT",
    "taf_obs_time": "2025-06-20 10:40:00",
    "fetched_at": "2025-06-20T13:49:02.357585Z"
  }
}