{
  "LTFM": {
    "icao": "LTFM",
    "metar": "LTFM 052250Z 07009KT 030V090 9999 BKN006 21/19 Q1017 NOSIG RMK RWY17L 07007KT RWY34L 05008KT 010V070 RWY16R 06008KT RWY36 06010KT 010V070 RWY18 07007KT",
    "metar_obs_time": "2025-06-05 22:50:00",
    "taf": "TAF LTFM 052240Z 0600/0706 05009KT 9999 BKN006 TEMPO 0600/0604 1200 BCFG BKN004 BECMG 0604/0607 04015G25KT SCT008 BECMG 0607/0610 CAVOK BECMG 0617/0620 04012KT SCT006",
    "taf_obs_time": "2025-06-05 22:40:00",
    "fetched_at": "2025-06-05T23:25:55.298650Z"
  },
  "LTFJ": {
    "icao": "LTFJ",
    "metar": "LTFJ 052250Z 04012KT CAVOK 19/17 Q1016 NOSIG RMK RWY24R 04009KT RWY06R 03012KT RWY24L 04009KT",
    "metar_obs_time": "2025-06-05 22:50:00",
    "taf": "TAF LTFJ 052240Z 0600/0624 03009KT CAVOK PROB30 0603/0606 2000 BCFG BKN004 BECMG 0606/0609 03019KT BECMG 0617/0620 03009KT BECMG 0620/0624 BKN006",
    "taf_obs_time": "2025-06-05 22:40:00",
    "fetched_at": "2025-06-05T23:25:55.298650Z"
  },
  "LTBA": {
    "icao": "LTBA",
    "metar": "LTBA 052250Z 04010KT CAVOK 21/17 Q1016 RMK RWY23 04007KT",
    "metar_obs_time": "2025-06-05 22:50:00",
    "taf": "TAF LTBA 052240Z 0600/0624 04012KT CAVOK BECMG 0605/0608 04017G28KT BECMG 0617/0620 03012KT SCT008 PROB30 TEMPO 0621/0624 4000 BR BKN006",
    "taf_obs_time": "2025-06-05 22:40:00",
    "fetched_at": "2025-06-05T23:25:55.298650Z"
  },
  "LTBU": {
    "icao": "LTBU",
    "metar": "LTBU 052250Z 04010KT CAVOK 18/16 Q1017 RMK RWY22 05008KT",
    "metar_obs_time": "2025-06-05 22:50:00",
    "taf": "TAF LTBU 052240Z 0600/0624 03009KT CAVOK BECMG 0605/0608 04015G25KT BECMG 0616/0619 03012KT SCT008 PROB30 0621/0624 4000 BR BKN006",
    "taf_obs_time": "2025-06-05 22:40:00",
    "fetched_at": "2025-06-05T23:25:55.298650Z"
  }
}