{
  "LTFM": {
    "icao": "LTFM",
    "metar": "LTFM 182250Z 07006KT 020V110 9999 SCT018 22/20 Q1019 NOSIG RMK RWY17L 07003KT RWY34L 07006KT RWY16R 07006KT RWY36 06005KT 010V080 RWY18 08004KT",
    "metar_obs_time": "2025-06-18 22:50:00",
    "taf": "TAF LTFM 182240Z 1900/2006 VRB02KT 9999 SCT018 BECMG 1900/1902 BKN004 TEMPO 1900/1903 1400 BCFG BECMG 1903/1905 SCT014 BECMG 1905/1907 05012KT CAVOK BECMG 1917/1920 VRB02KT",
    "taf_obs_time": "2025-06-18 22:40:00",
    "fetched_at": "2025-06-18T23:17:17.590616Z"
  },
  "LTFJ": {
    "icao": "LTFJ",
    "metar": "LTFJ 182250Z 05008KT CAVOK 21/18 Q1018 NOSIG RMK RWY24R 05005KT RWY06R 03010KT RWY24L 04006KT",
    "metar_obs_time": "2025-06-18 22:50:00",
    "taf": "TAF LTFJ 182240Z 1900/1924 04005KT CAVOK TEMPO 1901/1905 2500 BCFG SCT008 BECMG 1905/1909 04015KT BECMG 1917/1921 04005KT",
    "taf_obs_time": "2025-06-18 22:40:00",
    "fetched_at": "2025-06-18T23:17:17.590616Z"
  },
  "LTBA": {
    "icao": "LTBA",
    "metar": "LTBA 182250Z 06008KT CAVOK 22/18 Q1018 RMK RWY23 06007KT",
    "metar_obs_time": "2025-06-18 22:50:00",
    "taf": "TAF LTBA 182240Z 1900/1924 04005KT CAVOK BECMG 1900/1902 SCT022 BECMG 1905/1908 04015KT CAVOK BECMG 1917/1920 05005KT",
    "taf_obs_time": "2025-06-18 22:40:00",
    "fetched_at": "2025-06-18T23:17:17.590616Z"
  },
  "LTBU": {
    "icao": "LTBU",
    "metar": "LTBU 182250Z 03010KT CAVOK 20/19 Q1019 RMK RWY22 02007KT",
    "metar_obs_time": "2025-06-18 22:50:00",
    "taf": "TAF LTBU 182240Z 1900/1924 02005KT 9999 SCT022 TEMPO 1900/1904 2500 BCFG BKN006 BECMG 1906/1909 05015KT CAVOK BECMG 1916/1918 VRB02KT",
    "taf_obs_time": "2025-06-18 22:40:00",
    "fetched_at": "2025-06-18T23:17:17.590616Z"
  }
}