{
  "LTFM": {
    "icao": "LTFM",
    "metar": "LTFM 031450Z 10008KT 070V130 CAVOK 26/10 Q1018 NOSIG",
    "metar_obs_time": "2025-06-03 14:50:00",
    "taf": "TAF LTFM 031040Z 0312/0418 06012KT CAVOK BECMG 0316/0319 18005KT BECMG 0407/0410 05010KT",
    "taf_obs_time": "2025-06-03 10:40:00",
    "fetched_at": "2025-06-03T14:59:38.360863Z"
  },
  "LTFJ": {
    "icao": "LTFJ",
    "metar": "LTFJ 031450Z 04012KT CAVOK 27/12 Q1018 NOSIG",
    "metar_obs_time": "2025-06-03 14:50:00",
    "taf": "TAF LTFJ 031040Z 0312/0412 23010KT CAVOK BECMG 0312/0315 04009KT BECMG 0405/0408 23010KT BECMG 0409/0412 04009KT",
    "taf_obs_time": "2025-06-03 10:40:00",
    "fetched_at": "2025-06-03T14:59:38.360863Z"
  },
  "LTBA": {
    "icao": "LTBA",
    "metar": "LTBA 031450Z 23005KT CAVOK 27/12 Q1018",
    "metar_obs_time": "2025-06-03 14:50:00",
    "taf": "TAF LTBA 031040Z 0312/0412 21010KT CAVOK BECMG 0312/0315 05008KT BECMG 0406/0409 21010KT",
    "taf_obs_time": "2025-06-03 10:40:00",
    "fetched_at": "2025-06-03T14:59:38.360863Z"
  },
  "LTBU": {
    "icao": "LTBU",
    "metar": "LTBU 031450Z 14007KT 9999 FEW040 27/12 Q1018",
    "metar_obs_time": "2025-06-03 14:50:00",
    "taf": "TAF LTBU 031040Z 0312/0412 VRB02KT CAVOK BECMG 0407/0410 17012KT",
    "taf_obs_time": "2025-06-03 10:40:00",
    "fetched_at": "2025-06-03T14:59:38.360863Z"
  }
}