{
  "LTFM": {
    "icao": "LTFM",
    "metar": "LTFM 161450Z 06007KT 020V090 CAVOK 25/11 Q1016 NOSIG RMK RWY17L 07006KT RWY34L 04005KT 340V110 RWY16R 06006KT 010V100 RWY36 07007KT 030V090 RWY18 05006KT",
    "metar_obs_time": "2025-06-16 14:50:00",
    "taf": "TAF LTFM 161040Z 1612/1718 03012KT CAVOK BECMG 1615/1618 VRB02KT PROB30 1701/1705 4000 BR SCT008 BECMG 1705/1708 01012KT",
    "taf_obs_time": "2025-06-16 10:40:00",
    "fetched_at": "2025-06-16T15:20:32.903258Z"
  },
  "LTFJ": {
    "icao": "LTFJ",
    "metar": "LTFJ 161450Z 03011KT 360V070 CAVOK 26/09 Q1016 NOSIG RMK RWY24R 03011KT 010V070 RWY06R 03012KT 010V080 RWY24L 03011KT",
    "metar_obs_time": "2025-06-16 14:50:00",
    "taf": "TAF LTFJ 161040Z 1612/1712 27012KT 9999 SCT040 BECMG 1612/1615 02012KT CAVOK BECMG 1619/1622 VRB02KT BECMG 1709/1712 01012KT",
    "taf_obs_time": "2025-06-16 10:40:00",
    "fetched_at": "2025-06-16T15:20:32.903258Z"
  },
  "LTBA": {
    "icao": "LTBA",
    "metar": "LTBA 161450Z 21004KT 170V250 CAVOK 25/14 Q1016 RMK RWY23 05008KT 360V090",
    "metar_obs_time": "2025-06-16 14:50:00",
    "taf": "TAF LTBA 161040Z 1612/1712 21007KT CAVOK BECMG 1612/1615 04012KT BECMG 1618/1621 VRB02KT BECMG 1705/1708 21012KT",
    "taf_obs_time": "2025-06-16 10:40:00",
    "fetched_at": "2025-06-16T15:20:32.903258Z"
  },
  "LTBU": {
    "icao": "LTBU",
    "metar": "LTBU 161450Z 15008KT 120V190 CAVOK 26/11 Q1016 RMK RWY22 14007KT 090V190",
    "metar_obs_time": "2025-06-16 14:50:00",
    "taf": "TAF LTBU 161040Z 1612/1712 04010KT CAVOK BECMG 1616/1619 20007KT BECMG 1707/1710 01012KT",
    "taf_obs_time": "2025-06-16 10:40:00",
    "fetched_at": "2025-06-16T15:20:32.903258Z"
  }
}