{
  "LTFM": {
    "icao": "LTFM",
    "metar": "LTFM 151250Z 02013KT 340V040 CAVOK 23/13 Q1018 NOSIG RMK RWY17L 03012KT RWY34L 01012KT 330V030 RWY16R 01012KT RWY36 02012KT RWY18 01011KT",
    "metar_obs_time": "2025-06-15 12:50:00",
    "taf": "TAF LTFM 151040Z 1512/1618 01012KT 9999 SCT028 BECMG 1512/1514 CAVOK BECMG 1518/1520 17007KT BECMG 1523/1601 25010KT TEMPO 1601/1605 FEW032 BECMG 1605/1607 01011KT",
    "taf_obs_time": "2025-06-15 10:40:00",
    "fetched_at": "2025-06-15T13:06:13.957668Z"
  },
  "LTFJ": {
    "icao": "LTFJ",
    "metar": "LTFJ 151250Z 02013KT 340V050 9999 SCT035 25/10 Q1017 NOSIG RMK RWY24R 03013KT 360V070 RWY06R 36012KT 330V030 RWY24L 03014KT 360V060",
    "metar_obs_time": "2025-06-15 12:50:00",
    "taf": "TAF LTFJ 151040Z 1512/1612 03012KT 9999 SCT035 BECMG 1514/1517 CAVOK BECMG 1520/1523 VRB02KT BECMG 1604/1607 24012KT SCT035 BECMG 1609/1612 03012KT",
    "taf_obs_time": "2025-06-15 10:40:00",
    "fetched_at": "2025-06-15T13:06:13.957668Z"
  },
  "LTBA": {
    "icao": "LTBA",
    "metar": "LTBA 151250Z 02011KT 350V050 9999 FEW045 26/09 Q1017 RMK RWY23 36009KT",
    "metar_obs_time": "2025-06-15 12:50:00",
    "taf": "TAF LTBA 151040Z 1512/1612 01015KT 9999 SCT032 BECMG 1512/1514 CAVOK BECMG 1516/1519 03005KT BECMG 1605/1608 18010KT SCT032",
    "taf_obs_time": "2025-06-15 10:40:00",
    "fetched_at": "2025-06-15T13:06:13.957668Z"
  },
  "LTBU": {
    "icao": "LTBU",
    "metar": "LTBU 151250Z 05010KT 360V080 9999 FEW040 26/10 Q1017 RMK RWY22 05011KT 010V080",
    "metar_obs_time": "2025-06-15 12:50:00",
    "taf": "TAF LTBU 151040Z 1512/1612 03015G25KT 9999 SCT032 BECMG 1512/1514 CAVOK BECMG 1516/1518 03007KT BECMG 1523/1601 33010KT BECMG 1606/1608 03008KT SCT032",
    "taf_obs_time": "2025-06-15 10:40:00",
    "fetched_at": "2025-06-15T13:06:13.957668Z"
  }
}