{
  "LTFM": {
    "icao": "LTFM",
    "metar": "LTFM 171820Z 10007KT 060V120 CAVOK 25/10 Q1017 NOSIG RMK RWY17L 09004KT RWY34L 07006KT RWY16R 09004KT RWY36 08006KT 030V090 RWY18 08004KT",
    "metar_obs_time": "2025-06-17 18:20:00",
    "taf": "TAF LTFM 171640Z 1718/1824 07010KT CAVOK BECMG 1720/1723 30006KT SCT008 PROB30 TEMPO 1800/1803 2000 BCFG BKN004 BECMG 1804/1806 02012KT CAVOK BECMG 1816/1819 08007KT SCT008 BECMG 1819/1822 BKN004 PROB40 TEMPO 1822/1824 2000 BCFG",
    "taf_obs_time": "2025-06-17 16:40:00",
    "fetched_at": "2025-06-17T18:37:57.305515Z"
  },
  "LTFJ": {
    "icao": "LTFJ",
    "metar": "LTFJ 171820Z 04006KT CAVOK 24/13 Q1017 NOSIG RMK RWY24R 05003KT RWY06R 04006KT RWY24L 03004KT",
    "metar_obs_time": "2025-06-17 18:20:00",
    "taf": "TAF LTFJ 171640Z 1718/1818 06006KT CAVOK BECMG 1806/1810 04016KT TEMPO 1810/1814 04016G26KT TEMPO 1814/1818 04016G26KT",
    "taf_obs_time": "2025-06-17 16:40:00",
    "fetched_at": "2025-06-17T18:37:57.305515Z"
  },
  "LTBA": {
    "icao": "LTBA",
    "metar": "LTBA 171820Z 06006KT CAVOK 25/11 Q1016 RMK RWY23 07004KT",
    "metar_obs_time": "2025-06-17 18:20:00",
    "taf": "TAF LTBA 171640Z 1718/1818 03009KT CAVOK",
    "taf_obs_time": "2025-06-17 16:40:00",
    "fetched_at": "2025-06-17T18:37:57.305515Z"
  },
  "LTBU": {
    "icao": "LTBU",
    "metar": "LTBU 171820Z 04005KT CAVOK 23/10 Q1017 RMK RWY22 06004KT 040V100",
    "metar_obs_time": "2025-06-17 18:20:00",
    "taf": "TAF LTBU 171640Z 1718/1818 36007KT CAVOK BECMG 1804/1807 06012KT",
    "taf_obs_time": "2025-06-17 16:40:00",
    "fetched_at": "2025-06-17T18:37:57.305515Z"
  }
}