{
  "LTFM": {
    "icao": "LTFM",
    "metar": "LTFM 171120Z 01009KT 310V040 CAVOK 28/11 Q1017 NOSIG RMK RWY17L 03008KT 360V060 RWY34L 01008KT RWY16R 36008KT RWY36 02009KT RWY18 03008KT 350V060",
    "metar_obs_time": "2025-06-17 11:20:00",
    "taf": "TAF LTFM 171040Z 1712/1818 04012KT CAVOK BECMG 1715/1718 VRB02KT BECMG 1721/1724 SCT008 PROB30 TEMPO 1800/1803 2000 BCFG BKN004 BECMG 1804/1806 02012KT CAVOK BECMG 1815/1818 08007KT SCT008",
    "taf_obs_time": "2025-06-17 10:40:00",
    "fetched_at": "2025-06-17T11:31:40.096569Z"
  },
  "LTFJ": {
    "icao": "LTFJ",
    "metar": "LTFJ 171120Z 24008KT 210V270 9999 FEW040 28/08 Q1017 NOSIG RMK RWY24R 24006KT 210V270 RWY06R 24008KT 210V270 RWY24L 26006KT 220V300",
    "metar_obs_time": "2025-06-17 11:20:00",
    "taf": "TAF LTFJ 171040Z 1712/1812 24009KT CAVOK BECMG 1712/1714 04012KT BECMG 1718/1721 VRB02KT",
    "taf_obs_time": "2025-06-17 10:40:00",
    "fetched_at": "2025-06-17T11:31:40.096569Z"
  },
  "LTBA": {
    "icao": "LTBA",
    "metar": "LTBA 171120Z 24009KT CAVOK 26/15 Q1017 RMK RWY23 24010KT",
    "metar_obs_time": "2025-06-17 11:20:00",
    "taf": "TAF LTBA 171040Z 1712/1812 23007KT CAVOK BECMG 1713/1716 04012KT BECMG 1805/1808 18007KT",
    "taf_obs_time": "2025-06-17 10:40:00",
    "fetched_at": "2025-06-17T11:31:40.096569Z"
  },
  "LTBU": {
    "icao": "LTBU",
    "metar": "LTBU 171120Z 16008KT 110V190 9999 SCT040 29/12 Q1017 RMK RWY22 VRB05KT",
    "metar_obs_time": "2025-06-17 11:20:00",
    "taf": "TAF LTBU 171040Z 1712/1812 16007KT 9999 SCT040 BECMG 1712/1715 CAVOK BECMG 1715/1718 35010KT BECMG 1804/1807 05012KT",
    "taf_obs_time": "2025-06-17 10:40:00",
    "fetched_at": "2025-06-17T11:31:40.096569Z"
  }
}