{
  "LTFM": {
    "icao": "LTFM",
    "metar": "LTFM 170650Z 32008KT 280V350 CAVOK 26/11 Q1017 NOSIG RMK RWY17L 32006KT RWY34L 31007KT RWY16R 28006KT RWY36 32006KT 270V350 RWY18 34007KT 300V360",
    "metar_obs_time": "2025-06-17 06:50:00",
    "taf": "TAF LTFM 170440Z 1706/1812 VRB02KT CAVOK BECMG 1706/1709 02012KT BECMG 1715/1718 VRB02KT BECMG 1803/1806 02012KT",
    "taf_obs_time": "2025-06-17 04:40:00",
    "fetched_at": "2025-06-17T07:18:17.073386Z"
  },
  "LTFJ": {
    "icao": "LTFJ",
    "metar": "LTFJ 170650Z VRB03KT CAVOK 25/10 Q1017 NOSIG RMK RWY24R VRB02KT RWY06R 20003KT 140V250 RWY24L 30003KT 240V010",
    "metar_obs_time": "2025-06-17 06:50:00",
    "taf": "TAF LTFJ 170440Z 1706/1806 VRB02KT CAVOK BECMG 1708/1711 03012KT BECMG 1718/1721 VRB02KT",
    "taf_obs_time": "2025-06-17 04:40:00",
    "fetched_at": "2025-06-17T07:18:17.073386Z"
  },
  "LTBA": {
    "icao": "LTBA",
    "metar": "LTBA 170650Z 15006KT CAVOK 23/14 Q1017 RMK RWY23 14006KT",
    "metar_obs_time": "2025-06-17 06:50:00",
    "taf": "TAF LTBA 170440Z 1706/1806 18005KT CAVOK BECMG 1711/1714 03010KT",
    "taf_obs_time": "2025-06-17 04:40:00",
    "fetched_at": "2025-06-17T07:18:17.073386Z"
  },
  "LTBU": {
    "icao": "LTBU",
    "metar": "LTBU 170650Z 32007KT 290V350 CAVOK 27/10 Q1017 RMK RWY22 VRB05KT",
    "metar_obs_time": "2025-06-17 06:50:00",
    "taf": "TAF LTBU 170440Z 1706/1806 36005KT CAVOK BECMG 1710/1713 06012KT BECMG 1717/1720 34008KT",
    "taf_obs_time": "2025-06-17 04:40:00",
    "fetched_at": "2025-06-17T07:18:17.073386Z"
  }
}