{
  "LTFM": {
    "icao": "LTFM",
    "metar": "LTFM 040720Z 23009KT 190V250 CAVOK 28/14 Q1019 NOSIG RMK RWY17L 24008KT 190V290 RWY34L 21009KT RWY16R 22008KT RWY36 22007KT RWY18 24007KT 180V280",
    "metar_obs_time": "2025-06-04 07:20:00",
    "taf": "TAF LTFM 040440Z 0406/0512 20006KT CAVOK BECMG 0407/0410 05010KT BECMG 0417/0420 11010KT BECMG 0421/0424 31005KT FEW006 BECMG 0505/0507 05012KT CAVOK",
    "taf_obs_time": "2025-06-04 04:40:00",
    "fetched_at": "2025-06-04T07:35:05.810057Z"
  },
  "LTFJ": {
    "icao": "LTFJ",
    "metar": "LTFJ 040720Z 25005KT 220V290 CAVOK 26/13 Q1019 NOSIG RMK RWY24R 24004KT 200V280 RWY06R 23005KT RWY24L 24005KT 200V310",
    "metar_obs_time": "2025-06-04 07:20:00",
    "taf": "TAF LTFJ 040440Z 0406/0506 23007KT CAVOK BECMG 0410/0412 03010KT",
    "taf_obs_time": "2025-06-04 04:40:00",
    "fetched_at": "2025-06-04T07:35:05.810057Z"
  },
  "LTBA": {
    "icao": "LTBA",
    "metar": "LTBA 040720Z 22006KT 180V260 CAVOK 22/17 Q1019 RMK RWY23 23007KT",
    "metar_obs_time": "2025-06-04 07:20:00",
    "taf": "TAF LTBA 040440Z 0406/0506 VRB02KT CAVOK BECMG 0407/0410 21012KT BECMG 0414/0417 01008KT",
    "taf_obs_time": "2025-06-04 04:40:00",
    "fetched_at": "2025-06-04T07:35:05.810057Z"
  },
  "LTBU": {
    "icao": "LTBU",
    "metar": "LTBU 040720Z 23005KT 180V290 CAVOK 28/13 Q1019 RMK RWY22 19004KT 100V260",
    "metar_obs_time": "2025-06-04 07:20:00",
    "taf": "TAF LTBU 040440Z 0406/0506 VRB02KT CAVOK BECMG 0407/0410 17012KT BECMG 0417/0420 01006KT",
    "taf_obs_time": "2025-06-04 04:40:00",
    "fetched_at": "2025-06-04T07:35:05.810057Z"
  }
}