{
  "LTFM": {
    "icao": "LTFM",
    "metar": "LTFM 190920Z 07010KT 030V090 CAVOK 26/17 Q1019 NOSIG RMK RWY17L 05009KT RWY34L 06009KT 010V080 RWY16R 05010KT 020V080 RWY36 05010KT RWY18 06009KT 020V080",
    "metar_obs_time": "2025-06-19 09:20:00",
    "taf": "TAF LTFM 190440Z 1906/2012 05012KT 9999 SCT011 BECMG 1910/1913 CAVOK BECMG 1917/1920 VRB02KT BECMG 2006/2009 36012KT SCT016",
    "taf_obs_time": "2025-06-19 04:40:00",
    "fetched_at": "2025-06-19T09:31:58.948221Z"
  },
  "LTFJ": {
    "icao": "LTFJ",
    "metar": "LTFJ 190920Z 03012KT 360V080 CAVOK 28/13 Q1017 NOSIG RMK RWY24R 06010KT RWY06R 03012KT 350V070 RWY24L 05010KT 360V110",
    "metar_obs_time": "2025-06-19 09:20:00",
    "taf": "TAF LTFJ 190440Z 1906/2006 04009KT 9999 SCT005 BECMG 1906/1908 CAVOK TEMPO 1911/1915 05015G25KT",
    "taf_obs_time": "2025-06-19 04:40:00",
    "fetched_at": "2025-06-19T09:31:58.948221Z"
  },
  "LTBA": {
    "icao": "LTBA",
    "metar": "LTBA 190920Z 04010KT 360V090 CAVOK 29/13 Q1017 RMK RWY23 05010KT 360V110",
    "metar_obs_time": "2025-06-19 09:20:00",
    "taf": "TAF LTBA 190440Z 1906/2006 04012KT CAVOK BECMG 1919/1922 VRB02KT",
    "taf_obs_time": "2025-06-19 04:40:00",
    "fetched_at": "2025-06-19T09:31:58.948221Z"
  },
  "LTBU": {
    "icao": "LTBU",
    "metar": "LTBU 190920Z 07008KT 350V140 CAVOK 29/14 Q1018 RMK RWY22 08008KT 010V160",
    "metar_obs_time": "2025-06-19 09:20:00",
    "taf": "TAF LTBU 190440Z 1906/2006 06013KT CAVOK BECMG 1919/1922 VRB02KT",
    "taf_obs_time": "2025-06-19 04:40:00",
    "fetched_at": "2025-06-19T09:31:58.948221Z"
  }
}