{
  "LTFM": {
    "icao": "LTFM",
    "metar": "LTFM 030650Z 20005KT 110V250 CAVOK 24/12 Q1020 NOSIG RMK RWY17L 02004KT 340V060 RWY34L 19005KT 140V250 RWY16R VRB03KT RWY36 18006KT 100V200 RWY18 05005KT 010V070",
    "metar_obs_time": "2025-06-03 06:50:00",
    "taf": "TAF LTFM 030440Z 0306/0412 VRB02KT CAVOK BECMG 0306/0309 06012KT BECMG 0316/0319 18005KT BECMG 0407/0410 05010KT",
    "taf_obs_time": "2025-06-03 04:40:00",
    "fetched_at": "2025-06-03T07:18:36.033904Z"
  },
  "LTFJ": {
    "icao": "LTFJ",
    "metar": "LTFJ 030650Z VRB02KT CAVOK 23/11 Q1020 NOSIG RMK RWY24R VRB02KT RWY06R 22004KT RWY24L 27004KT 200V320",
    "metar_obs_time": "2025-06-03 06:50:00",
    "taf": "TAF LTFJ 030440Z 0306/0406 24009KT CAVOK BECMG 0311/0315 03012KT BECMG 0316/0318 VRB02KT",
    "taf_obs_time": "2025-06-03 04:40:00",
    "fetched_at": "2025-06-03T07:18:36.033904Z"
  },
  "LTBA": {
    "icao": "LTBA",
    "metar": "LTBA 030650Z 18005KT 150V210 CAVOK 21/15 Q1020 RMK RWY23 20004KT 130V240",
    "metar_obs_time": "2025-06-03 06:50:00",
    "taf": "TAF LTBA 030440Z 0306/0406 VRB02KT CAVOK BECMG 0307/0310 21012KT BECMG 0313/0316 VRB02KT",
    "taf_obs_time": "2025-06-03 04:40:00",
    "fetched_at": "2025-06-03T07:18:36.033904Z"
  },
  "LTBU": {
    "icao": "LTBU",
    "metar": "LTBU 030650Z 18004KT 100V260 CAVOK 24/08 Q1020 RMK RWY22 17004KT 110V270",
    "metar_obs_time": "2025-06-03 06:50:00",
    "taf": "TAF LTBU 030440Z 0306/0406 VRB02KT CAVOK BECMG 0307/0310 17012KT BECMG 0316/0319 VRB02KT",
    "taf_obs_time": "2025-06-03 04:40:00",
    "fetched_at": "2025-06-03T07:18:36.033904Z"
  }
}