{
  "LTFM": {
    "icao": "LTFM",
    "metar": "LTFM 170250Z 22003KT 130V260 CAVOK 20/10 Q1017 NOSIG RMK RWY17L 26003KT RWY34L VRB02KT RWY16R 25003KT RWY36 17004KT 110V190 RWY18 21004KT",
    "metar_obs_time": "2025-06-17 02:50:00",
    "taf": "TAF LTFM 162240Z 1700/1806 22005KT CAVOK BECMG 1704/1707 35012KT BECMG 1715/1718 VRB02KT",
    "taf_obs_time": "2025-06-16 22:40:00",
    "fetched_at": "2025-06-17T03:10:47.050617Z"
  },
  "LTFJ": {
    "icao": "LTFJ",
    "metar": "LTFJ 170250Z VRB02KT CAVOK 18/11 Q1016 NOSIG RMK RWY24R 03006KT RWY06R 05004KT 010V070 RWY24L 05004KT",
    "metar_obs_time": "2025-06-17 02:50:00",
    "taf": "TAF LTFJ 162240Z 1700/1724 VRB02KT CAVOK BECMG 1709/1712 01012KT BECMG 1719/1722 VRB02KT",
    "taf_obs_time": "2025-06-16 22:40:00",
    "fetched_at": "2025-06-17T03:10:47.050617Z"
  },
  "LTBA": {
    "icao": "LTBA",
    "metar": "LTBA 170250Z 35005KT CAVOK 19/11 Q1016 RMK RWY23 35004KT",
    "metar_obs_time": "2025-06-17 02:50:00",
    "taf": "TAF LTBA 162240Z 1700/1724 VRB02KT CAVOK BECMG 1705/1708 19012KT BECMG 1711/1714 03009KT",
    "taf_obs_time": "2025-06-16 22:40:00",
    "fetched_at": "2025-06-17T03:10:47.050617Z"
  },
  "LTBU": {
    "icao": "LTBU",
    "metar": "LTBU 170250Z 35004KT CAVOK 18/12 Q1016 RMK RWY22 34006KT",
    "metar_obs_time": "2025-06-17 02:50:00",
    "taf": "TAF LTBU 162240Z 1700/1724 VRB02KT CAVOK BECMG 1703/1706 35012KT BECMG 1709/1712 05009KT",
    "taf_obs_time": "2025-06-16 22:40:00",
    "fetched_at": "2025-06-17T03:10:47.050617Z"
  }
}