{
  "LTFM": {
    "icao": "LTFM",
    "metar": "LTFM 040350Z 20008KT 170V240 CAVOK 20/12 Q1018 NOSIG RMK RWY17L 19005KT RWY34L 17003KT 140V210 RWY16R VRB01KT RWY36 17006KT 110V210 RWY18 20009KT 170V240",
    "metar_obs_time": "2025-06-04 03:50:00",
    "taf": "TAF LTFM 032240Z 0400/0506 19007KT CAVOK BECMG 0407/0410 07012KT BECMG 0418/0420 VRB02KT",
    "taf_obs_time": "2025-06-03 22:40:00",
    "fetched_at": "2025-06-04T04:25:30.741188Z"
  },
  "LTFJ": {
    "icao": "LTFJ",
    "metar": "LTFJ 040350Z 00000KT CAVOK 19/13 Q1018 NOSIG RMK RWY24R 00000KT RWY06R VRB01KT RWY24L 00000KT",
    "metar_obs_time": "2025-06-04 03:50:00",
    "taf": "TAF LTFJ 032240Z 0400/0424 05006KT CAVOK BECMG 0405/0408 24010KT BECMG 0411/0414 03009KT",
    "taf_obs_time": "2025-06-03 22:40:00",
    "fetched_at": "2025-06-04T04:25:30.741188Z"
  },
  "LTBA": {
    "icao": "LTBA",
    "metar": "LTBA 040350Z 10004KT CAVOK 20/14 Q1018 RMK RWY23 11004KT 080V150",
    "metar_obs_time": "2025-06-04 03:50:00",
    "taf": "TAF LTBA 032240Z 0400/0424 VRB02KT CAVOK BECMG 0406/0409 22012KT BECMG 0416/0418 05007KT",
    "taf_obs_time": "2025-06-03 22:40:00",
    "fetched_at": "2025-06-04T04:25:30.741188Z"
  },
  "LTBU": {
    "icao": "LTBU",
    "metar": "LTBU 040350Z 00000KT CAVOK 20/11 Q1018 RMK RWY22 22003KT",
    "metar_obs_time": "2025-06-04 03:50:00",
    "taf": "TAF LTBU 032240Z 0400/0424 VRB02KT CAVOK BECMG 0407/0410 17012KT FEW040 BECMG 0416/0418 04006KT CAVOK",
    "taf_obs_time": "2025-06-03 22:40:00",
    "fetched_at": "2025-06-04T04:25:30.741188Z"
  }
}