{
  "LTFM": {
    "icao": "LTFM",
    "metar": "LTFM 120120Z 35009KT 9999 BKN006 20/19 Q1014 NOSIG RMK RWY17L 34006KT RWY34L 33008KT RWY16R 32005KT RWY36 35008KT RWY18 36007KT",
    "metar_obs_time": "2025-06-12 01:20:00",
    "taf": "TAF LTFM 112240Z 1200/1306 35006KT 9999 BKN006 TEMPO 1200/1204 2000 BCFG BKN004 BECMG 1204/1206 SCT012 BECMG 1206/1209 05013KT CAVOK BECMG 1213/1215 SCT008",
    "taf_obs_time": "2025-06-11 22:40:00",
    "fetched_at": "2025-06-12T01:50:25.548301Z"
  },
  "LTFJ": {
    "icao": "LTFJ",
    "metar": "LTFJ 120120Z 05008KT 9999 BKN009 20/18 Q1014 NOSIG RMK RWY24R 06006KT RWY06R 06007KT RWY24L 06006KT",
    "metar_obs_time": "2025-06-12 01:20:00",
    "taf": "TAF LTFJ 112240Z 1200/1224 04007KT 9999 BKN003 TEMPO 1200/1204 2500 BCFG BECMG 1205/1207 SCT012 BECMG 1207/1211 04017KT CAVOK BECMG 1217/1220 04007KT SCT004",
    "taf_obs_time": "2025-06-11 22:40:00",
    "fetched_at": "2025-06-12T01:50:25.548301Z"
  },
  "LTBA": {
    "icao": "LTBA",
    "metar": "LTBA 120120Z 02008KT CAVOK 20/18 Q1014 RMK RWY23 02007KT",
    "metar_obs_time": "2025-06-12 01:20:00",
    "taf": "TAF LTBA 112240Z 1200/1224 03007KT CAVOK BECMG 1200/1202 SCT012 TEMPO 1200/1204 2800 BR BECMG 1208/1211 03017KT CAVOK BECMG 1217/1220 05007KT",
    "taf_obs_time": "2025-06-11 22:40:00",
    "fetched_at": "2025-06-12T01:50:25.548301Z"
  },
  "LTBU": {
    "icao": "LTBU",
    "metar": "LTBU 120120Z 36005KT CAVOK 19/11 Q1014 RMK RWY22 35008KT",
    "metar_obs_time": "2025-06-12 01:20:00",
    "taf": "TAF LTBU 112240Z 1200/1224 03007KT CAVOK BECMG 1200/1202 SCT012 TEMPO 1200/1204 2500 BR BKN008 BECMG 1204/1207 CAVOK BECMG 1209/1211 03017KT BECMG 1216/1219 03007KT",
    "taf_obs_time": "2025-06-11 22:40:00",
    "fetched_at": "2025-06-12T01:50:25.548301Z"
  }
}