{
  "LTFM": {
    "icao": "LTFM",
    "metar": "LTFM 210950Z 05018KT 9999 FEW028 23/13 Q1019 NOSIG RMK RWY17L 04017KT RWY34L 04015KT RWY16R 04017KT RWY36 05019KT RWY18 05016KT",
    "metar_obs_time": "2025-06-21 09:50:00",
    "taf": "TAF LTFM 210440Z 2106/2212 04018KT 9999 SCT025 BECMG 2115/2118 CAVOK BECMG 2122/2201 SCT025",
    "taf_obs_time": "2025-06-21 04:40:00",
    "fetched_at": "2025-06-21T10:17:30.305025Z"
  },
  "LTFJ": {
    "icao": "LTFJ",
    "metar": "LTFJ 210950Z 05016KT 9999 FEW035 26/11 Q1017 NOSIG RMK RWY24R 08015KT 020V100 RWY06R 04017G27KT 010V070 RWY24L 05018KT 020V080",
    "metar_obs_time": "2025-06-21 09:50:00",
    "taf": "TAF LTFJ 210440Z 2106/2206 04019KT 9999 SCT035 BKN100 PROB40 TEMPO 2112/2116 04020G30KT BECMG 2116/2118 CAVOK BECMG 2118/2121 04009KT BECMG 2202/2205 SCT035",
    "taf_obs_time": "2025-06-21 04:40:00",
    "fetched_at": "2025-06-21T10:17:30.305025Z"
  },
  "LTBA": {
    "icao": "LTBA",
    "metar": "LTBA 210950Z 04017KT 020V090 CAVOK 27/10 Q1018 RMK RWY23 04015KT 350V070",
    "metar_obs_time": "2025-06-21 09:50:00",
    "taf": "TAF LTBA 210440Z 2106/2206 04018KT CAVOK BECMG 2116/2119 03008KT",
    "taf_obs_time": "2025-06-21 04:40:00",
    "fetched_at": "2025-06-21T10:17:30.305025Z"
  },
  "LTBU": {
    "icao": "LTBU",
    "metar": "LTBU 211004Z 06014G24KT 030V090 9999 SCT035 25/10 Q1018 RMK RWY22 06015KT 030V090",
    "metar_obs_time": "2025-06-21 10:04:00",
    "taf": "TAF LTBU 210440Z 2106/2206 04007KT 9999 FEW035 BKN080 BECMG 2106/2109 05018KT BECMG 2109/2112 CAVOK BECMG 2115/2118 02008KT BECMG 2200/2203 SCT035 BKN100",
    "taf_obs_time": "2025-06-21 04:40:00",
    "fetched_at": "2025-06-21T10:17:30.305025Z"
  }
}