{
  "LTFM": {
    "icao": "LTFM",
    "metar": "LTFM 111720Z 03010KT 9999 SCT008 21/19 Q1013 NOSIG RMK RWY17L 02009KT RWY34L 01009KT RWY16R 36008KT RWY36 03011KT RWY18 02008KT",
    "metar_obs_time": "2025-06-11 17:20:00",
    "taf": "TAF LTFM 111640Z 1118/1224 35006KT 9999 SCT008 BECMG 1121/1123 BKN006 PROB40 1123/1203 2000 BCFG BKN004 BECMG 1204/1206 SCT012 BECMG 1206/1209 05013KT CAVOK BECMG 1213/1215 SCT008",
    "taf_obs_time": "2025-06-11 16:40:00",
    "fetched_at": "2025-06-11T17:44:46.407506Z"
  },
  "LTFJ": {
    "icao": "LTFJ",
    "metar": "LTFJ 111720Z 04013KT 9999 FEW035 22/18 Q1012 NOSIG RMK RWY24R 04010KT RWY06R 03012KT RWY24L 02011KT",
    "metar_obs_time": "2025-06-11 17:20:00",
    "taf": "TAF LTFJ 111640Z 1118/1218 05007KT 9999 SCT025 BECMG 1119/1122 BKN012 PROB30 TEMPO 1201/1205 3500 BR BKN006 BECMG 1206/1209 SCT018 BECMG 1209/1212 04017KT CAVOK",
    "taf_obs_time": "2025-06-11 16:40:00",
    "fetched_at": "2025-06-11T17:44:46.407506Z"
  },
  "LTBA": {
    "icao": "LTBA",
    "metar": "LTBA 111720Z 03011KT CAVOK 23/17 Q1012 RMK RWY23 03008KT",
    "metar_obs_time": "2025-06-11 17:20:00",
    "taf": "TAF LTBA 111640Z 1118/1218 02006KT CAVOK BECMG 1118/1121 SCT012 BECMG 1121/1123 BKN006 PROB30 1123/1203 2800 BR BECMG 1208/1211 03017KT CAVOK",
    "taf_obs_time": "2025-06-11 16:40:00",
    "fetched_at": "2025-06-11T17:44:46.407506Z"
  },
  "LTBU": {
    "icao": "LTBU",
    "metar": "LTBU 111720Z 04012KT CAVOK 23/10 Q1013 RMK RWY22 06010KT",
    "metar_obs_time": "2025-06-11 17:20:00",
    "taf": "TAF LTBU 111640Z 1118/1218 03007KT CAVOK BECMG 1118/1121 SCT012 PROB30 1122/1202 2500 BR BKN008 BECMG 1204/1207 CAVOK BECMG 1209/1211 03017KT",
    "taf_obs_time": "2025-06-11 16:40:00",
    "fetched_at": "2025-06-11T17:44:46.407506Z"
  }
}