{
  "LTFM": {
    "icao": "LTFM",
    "metar": "LTFM 021020Z 03007KT 340V080 CAVOK 24/07 Q1020 NOSIG RMK RWY17L 03007KT 360V060 RWY34L 02007KT 310V060 RWY16R 03006KT 340V080 RWY36 03008KT 360V060 RWY18 03006KT 360V060",
    "metar_obs_time": "2025-06-02 10:20:00",
    "taf": "TAF LTFM 020440Z 0206/0312 02010KT CAVOK BECMG 0217/0220 15005KT BECMG 0305/0308 05010KT",
    "taf_obs_time": "2025-06-02 04:40:00",
    "fetched_at": "2025-06-02T10:45:31.168802Z"
  },
  "LTFJ": {
    "icao": "LTFJ",
    "metar": "LTFJ 021020Z 22010KT 190V260 9999 SCT030 23/15 Q1020 NOSIG RMK RWY24R 25010KT RWY06R 22010KT 200V260 RWY24L 22011KT",
    "metar_obs_time": "2025-06-02 10:20:00",
    "taf": "TAF LTFJ 020440Z 0206/0306 VRB02KT 9999 SCT017 BECMG 0208/0212 02015KT CAVOK BECMG 0217/0220 03005KT",
    "taf_obs_time": "2025-06-02 04:40:00",
    "fetched_at": "2025-06-02T10:45:31.168802Z"
  },
  "LTBA": {
    "icao": "LTBA",
    "metar": "LTBA 021020Z 24010KT CAVOK 21/16 Q1020 RMK RWY23 24012KT",
    "metar_obs_time": "2025-06-02 10:20:00",
    "taf": "TAF LTBA 020440Z 0206/0306 22008KT CAVOK BECMG 0211/0213 02010KT",
    "taf_obs_time": "2025-06-02 04:40:00",
    "fetched_at": "2025-06-02T10:45:31.168802Z"
  },
  "LTBU": {
    "icao": "LTBU",
    "metar": "LTBU 021020Z 14007KT 110V180 9999 SCT040 24/11 Q1020 RMK RWY22 19005KT 120V270",
    "metar_obs_time": "2025-06-02 10:20:00",
    "taf": "TAF LTBU 020440Z 0206/0306 VRB02KT CAVOK TEMPO 0209/0213 17012KT SCT040 BECMG 0213/0215 04012KT BECMG 0217/0220 VRB02KT",
    "taf_obs_time": "2025-06-02 04:40:00",
    "fetched_at": "2025-06-02T10:45:31.168802Z"
  }
}