{
  "LTFM": {
    "icao": "LTFM",
    "metar": "LTFM 200950Z 35020KT 9999 FEW016 BKN080 25/20 Q1015 NOSIG",
    "metar_obs_time": "2025-06-20 09:50:00",
    "taf": "TAF LTFM 200440Z 2006/2112 23006KT CAVOK BECMG 2006/2009 34013KT SCT016 BECMG 2013/2016 04015KT BKN008 BECMG 2018/2021 SCT016",
    "taf_obs_time": "2025-06-20 04:40:00",
    "fetched_at": "2025-06-20T09:59:45.183452Z"
  },
  "LTFJ": {
    "icao": "LTFJ",
    "metar": "LTFJ 200950Z 22009KT 9999 FEW035 29/12 Q1013 NOSIG",
    "metar_obs_time": "2025-06-20 09:50:00",
    "taf": "TAF LTFJ 200440Z 2006/2106 24007KT 9999 FEW035 BECMG 2009/2013 03012KT BECMG 2018/2022 BKN035 TEMPO 2023/2102 -SHRA",
    "taf_obs_time": "2025-06-20 04:40:00",
    "fetched_at": "2025-06-20T09:59:45.183452Z"
  },
  "LTBA": {
    "icao": "LTBA",
    "metar": "LTBA 200950Z 23010KT CAVOK 26/20 Q1013",
    "metar_obs_time": "2025-06-20 09:50:00",
    "taf": "TAF LTBA 200440Z 2006/2106 20006KT CAVOK BECMG 2009/2012 02015KT SCT016 BECMG 2015/2018 BKN009 BECMG 2022/2101 SCT016",
    "taf_obs_time": "2025-06-20 04:40:00",
    "fetched_at": "2025-06-20T09:59:45.183452Z"
  },
  "LTBU": {
    "icao": "LTBU",
    "metar": "LTBU 200950Z 05012KT 9999 SCT045 30/17 Q1014",
    "metar_obs_time": "2025-06-20 09:50:00",
    "taf": "TAF LTBU 200440Z 2006/2106 VRB02KT CAVOK BECMG 2008/2011 03015KT SCT022 TEMPO 2011/2015 03016G26KT -SHRA FEW018CB BKN022 BECMG 2020/2023 03005KT",
    "taf_obs_time": "2025-06-20 04:40:00",
    "fetched_at": "2025-06-20T09:59:45.183452Z"
  }
}