{
  "LTFM": {
    "icao": "LTFM",
    "metar": "LTFM 160950Z 02010KT 330V060 CAVOK 24/13 Q1017 NOSIG RMK RWY17L 36011KT RWY34L 35010KT 310V010 RWY16R 35010KT RWY36 02010KT 330V040 RWY18 35010KT 320V020",
    "metar_obs_time": "2025-06-16 09:50:00",
    "taf": "TAF LTFM 160440Z 1606/1712 28005KT CAVOK BECMG 1606/1609 36010KT BECMG 1614/1616 07010KT BECMG 1618/1621 18007KT BECMG 1705/1708 36012KT",
    "taf_obs_time": "2025-06-16 04:40:00",
    "fetched_at": "2025-06-16T10:20:33.131298Z"
  },
  "LTFJ": {
    "icao": "LTFJ",
    "metar": "LTFJ 160950Z 23007KT 200V260 9999 FEW035 25/13 Q1016 NOSIG RMK RWY24R 26006KT 230V360 RWY06R 21008KT RWY24L 22008KT 200V260",
    "metar_obs_time": "2025-06-16 09:50:00",
    "taf": "TAF AMD LTFJ 160821Z 1608/1706 24009KT 9999 FEW035 BECMG 1609/1612 03012KT CAVOK BECMG 1619/1623 VRB02KT",
    "taf_obs_time": "2025-06-16 08:21:00",
    "fetched_at": "2025-06-16T10:20:33.131298Z"
  },
  "LTBA": {
    "icao": "LTBA",
    "metar": "LTBA 160950Z 23008KT 9999 FEW035 23/14 Q1016 RMK RWY23 24008KT 200V260",
    "metar_obs_time": "2025-06-16 09:50:00",
    "taf": "TAF LTBA 160440Z 1606/1706 VRB02KT CAVOK BECMG 1609/1612 03012KT BECMG 1700/1703 VRB02KT",
    "taf_obs_time": "2025-06-16 04:40:00",
    "fetched_at": "2025-06-16T10:20:33.131298Z"
  },
  "LTBU": {
    "icao": "LTBU",
    "metar": "LTBU 160950Z 04006KT 330V090 CAVOK 27/08 Q1016 RMK RWY22 06008KT 020V110",
    "metar_obs_time": "2025-06-16 09:50:00",
    "taf": "TAF LTBU 160440Z 1606/1706 32007KT CAVOK BECMG 1606/1608 04012KT BECMG 1616/1617 VRB02KT",
    "taf_obs_time": "2025-06-16 04:40:00",
    "fetched_at": "2025-06-16T10:20:33.131298Z"
  }
}