{
  "LTFM": {
    "icao": "LTFM",
    "metar": "LTFM 180520Z 03009KT 350V060 9999 FEW008 23/18 Q1019 NOSIG RMK RWY17L 03007KT 360V060 RWY34L 02009KT RWY16R 03008KT RWY36 03010KT RWY18 03007KT 360V070",
    "metar_obs_time": "2025-06-18 05:20:00",
    "taf": "TAF LTFM 180440Z 1806/1912 03010KT CAVOK BECMG 1818/1821 09006KT SCT008 PROB30 TEMPO 1823/1903 2000 BCFG BKN004 BECMG 1905/1908 03010KT CAVOK",
    "taf_obs_time": "2025-06-18 04:40:00",
    "fetched_at": "2025-06-18T05:51:51.881941Z"
  },
  "LTFJ": {
    "icao": "LTFJ",
    "metar": "LTFJ 180520Z 03007KT CAVOK 22/18 Q1019 NOSIG RMK RWY24R 02005KT 350V060 RWY06R 04009KT RWY24L 03006KT 360V060",
    "metar_obs_time": "2025-06-18 05:20:00",
    "taf": "TAF LTFJ 180440Z 1806/1906 04008KT CAVOK BECMG 1806/1808 24010KT BECMG 1810/1813 03016KT BECMG 1818/1821 04006KT PROB30 TEMPO 1901/1904 3500 PRFG",
    "taf_obs_time": "2025-06-18 04:40:00",
    "fetched_at": "2025-06-18T05:51:51.881941Z"
  },
  "LTBA": {
    "icao": "LTBA",
    "metar": "LTBA 180520Z 04009KT CAVOK 24/17 Q1018 RMK RWY23 05007KT 010V080",
    "metar_obs_time": "2025-06-18 05:20:00",
    "taf": "TAF LTBA 180440Z 1806/1906 04010KT CAVOK BECMG 1806/1808 19007KT BECMG 1808/1811 04013KT",
    "taf_obs_time": "2025-06-18 04:40:00",
    "fetched_at": "2025-06-18T05:51:51.881941Z"
  },
  "LTBU": {
    "icao": "LTBU",
    "metar": "LTBU 180520Z 06006KT 030V090 CAVOK 25/11 Q1019 RMK RWY22 06005KT 030V090",
    "metar_obs_time": "2025-06-18 05:20:00",
    "taf": "TAF LTBU 180440Z 1806/1906 04005KT CAVOK BECMG 1806/1808 04015KT BECMG 1816/1819 03005KT",
    "taf_obs_time": "2025-06-18 04:40:00",
    "fetched_at": "2025-06-18T05:51:51.881941Z"
  }
}