{
  "LTFM": {
    "icao": "LTFM",
    "metar": "LTFM 071450Z 04018KT 9999 FEW014 SCT022 22/16 Q1017 NOSIG RMK RWY17L 04015KT RWY34L 03016KT RWY16R 03015KT RWY36 04017KT RWY18 05014KT",
    "metar_obs_time": "2025-06-07 14:50:00",
    "taf": "TAF LTFM 071040Z 0712/0818 04017KT 9999 FEW016 SCT022 BECMG 0716/0719 04007KT CAVOK BECMG 0803/0806 BKN012 BECMG 0806/0809 04017KT BECMG 0812/0814 SCT012",
    "taf_obs_time": "2025-06-07 10:40:00",
    "fetched_at": "2025-06-07T15:17:48.384260Z"
  },
  "LTFJ": {
    "icao": "LTFJ",
    "metar": "LTFJ 071450Z 02017KT 350V050 CAVOK 22/16 Q1015 NOSIG RMK RWY24R 02016KT RWY06R 02017KT RWY24L 01014KT",
    "metar_obs_time": "2025-06-07 14:50:00",
    "taf": "TAF LTFJ 071040Z 0712/0812 04017KT 9999 FEW035 BECMG 0712/0715 CAVOK BECMG 0718/0721 05007KT SCT016 PROB40 TEMPO 0802/0806 BKN014 BECMG 0806/0809 CAVOK BECMG 0809/0812 04017KT",
    "taf_obs_time": "2025-06-07 10:40:00",
    "fetched_at": "2025-06-07T15:17:48.384260Z"
  },
  "LTBA": {
    "icao": "LTBA",
    "metar": "LTBA 071450Z 04016KT 9999 FEW026 23/16 Q1015 RMK RWY23 03015KT",
    "metar_obs_time": "2025-06-07 14:50:00",
    "taf": "TAF LTBA 071040Z 0712/0812 03017KT CAVOK BECMG 0718/0721 03007KT BECMG 0803/0805 SCT022 TEMPO 0805/0808 FEW012 BKN022 BECMG 0806/0809 03017KT",
    "taf_obs_time": "2025-06-07 10:40:00",
    "fetched_at": "2025-06-07T15:17:48.384260Z"
  },
  "LTBU": {
    "icao": "LTBU",
    "metar": "LTBU 071450Z 05015KT CAVOK 24/13 Q1016 RMK RWY22 06014KT",
    "metar_obs_time": "2025-06-07 14:50:00",
    "taf": "TAF LTBU 071040Z 0712/0812 03016KT CAVOK BECMG 0717/0720 01006KT BECMG 0800/0803 SCT012 TEMPO 0801/0805 4000 BR BKN009 BECMG 0806/0809 03016KT CAVOK",
    "taf_obs_time": "2025-06-07 10:40:00",
    "fetched_at": "2025-06-07T15:17:48.384260Z"
  }
}