{
  "LTFM": {
    "icao": "LTFM",
    "metar": "LTFM 210720Z 06018KT 9999 FEW025 23/13 Q1018 NOSIG RMK RWY17L 05017KT RWY34L 05015KT 020V080 RWY16R 05018KT RWY36 05019KT RWY18 06016KT",
    "metar_obs_time": "2025-06-21 07:20:00",
    "taf": "TAF LTFM 210440Z 2106/2212 04018KT 9999 SCT025 BECMG 2115/2118 CAVOK BECMG 2122/2201 SCT025",
    "taf_obs_time": "2025-06-21 04:40:00",
    "fetched_at": "2025-06-21T07:38:03.497311Z"
  },
  "LTFJ": {
    "icao": "LTFJ",
    "metar": "LTFJ 210720Z 07016KT 9999 SCT035 BKN100 24/11 Q1017 NOSIG RMK RWY24R 08014KT 050V110 RWY06R 05016KT RWY24L 06015KT",
    "metar_obs_time": "2025-06-21 07:20:00",
    "taf": "TAF LTFJ 210440Z 2106/2206 04019KT 9999 SCT035 BKN100 PROB40 TEMPO 2112/2116 04020G30KT BECMG 2116/2118 CAVOK BECMG 2118/2121 04009KT BECMG 2202/2205 SCT035",
    "taf_obs_time": "2025-06-21 04:40:00",
    "fetched_at": "2025-06-21T07:38:03.497311Z"
  },
  "LTBA": {
    "icao": "LTBA",
    "metar": "LTBA 210720Z 04015KT CAVOK 26/12 Q1017 RMK RWY23 06014KT 020V090",
    "metar_obs_time": "2025-06-21 07:20:00",
    "taf": "TAF LTBA 210440Z 2106/2206 04018KT CAVOK BECMG 2116/2119 03008KT",
    "taf_obs_time": "2025-06-21 04:40:00",
    "fetched_at": "2025-06-21T07:38:03.497311Z"
  },
  "LTBU": {
    "icao": "LTBU",
    "metar": "LTBU 210720Z 06016KT 9999 FEW035 24/11 Q1018 RMK RWY22 07013KT 030V110",
    "metar_obs_time": "2025-06-21 07:20:00",
    "taf": "TAF LTBU 210440Z 2106/2206 04007KT 9999 FEW035 BKN080 BECMG 2106/2109 05018KT BECMG 2109/2112 CAVOK BECMG 2115/2118 02008KT BECMG 2200/2203 SCT035 BKN100",
    "taf_obs_time": "2025-06-21 04:40:00",
    "fetched_at": "2025-06-21T07:38:03.497311Z"
  }
}