{
  "LTFM": {
    "icao": "LTFM",
    "metar": "LTFM 171350Z 04008KT 360V070 CAVOK 27/14 Q1017 NOSIG RMK RWY17L 03008KT RWY34L 01008KT 330V040 RWY16R 03008KT 360V060 RWY36 03009KT RWY18 05008KT",
    "metar_obs_time": "2025-06-17 13:50:00",
    "taf": "TAF LTFM 171040Z 1712/1818 04012KT CAVOK BECMG 1715/1718 VRB02KT BECMG 1721/1724 SCT008 PROB30 TEMPO 1800/1803 2000 BCFG BKN004 BECMG 1804/1806 02012KT CAVOK BECMG 1815/1818 08007KT SCT008",
    "taf_obs_time": "2025-06-17 10:40:00",
    "fetched_at": "2025-06-17T14:28:28.235544Z"
  },
  "LTFJ": {
    "icao": "LTFJ",
    "metar": "LTFJ 171350Z 06010KT 030V090 CAVOK 29/11 Q1017 NOSIG RMK RWY24R 03009KT 360V060 RWY06R 36006KT 240V050 RWY24L 01009KT 330V050",
    "metar_obs_time": "2025-06-17 13:50:00",
    "taf": "TAF LTFJ 171040Z 1712/1812 24009KT CAVOK BECMG 1712/1714 04012KT BECMG 1718/1721 VRB02KT",
    "taf_obs_time": "2025-06-17 10:40:00",
    "fetched_at": "2025-06-17T14:28:28.235544Z"
  },
  "LTBA": {
    "icao": "LTBA",
    "metar": "LTBA 171350Z 23008KT 200V260 CAVOK 26/16 Q1017 RMK RWY23 24008KT",
    "metar_obs_time": "2025-06-17 13:50:00",
    "taf": "TAF LTBA 171040Z 1712/1812 23007KT CAVOK BECMG 1713/1716 04012KT BECMG 1805/1808 18007KT",
    "taf_obs_time": "2025-06-17 10:40:00",
    "fetched_at": "2025-06-17T14:28:28.235544Z"
  },
  "LTBU": {
    "icao": "LTBU",
    "metar": "LTBU 171350Z VRB05KT 9999 FEW040 29/11 Q1017 RMK RWY22 12006KT 070V170",
    "metar_obs_time": "2025-06-17 13:50:00",
    "taf": "TAF LTBU 171040Z 1712/1812 16007KT 9999 SCT040 BECMG 1712/1715 CAVOK BECMG 1715/1718 35010KT BECMG 1804/1807 05012KT",
    "taf_obs_time": "2025-06-17 10:40:00",
    "fetched_at": "2025-06-17T14:28:28.235544Z"
  }
}