{
  "LTFM": {
    "icao": "LTFM",
    "metar": "LTFM 021320Z 04008KT 360V070 CAVOK 23/09 Q1020 NOSIG RMK RWY17L 03007KT RWY34L 03008KT 350V050 RWY16R 02007KT 340V060 RWY36 03009KT RWY18 03007KT",
    "metar_obs_time": "2025-06-02 13:20:00",
    "taf": "TAF LTFM 021040Z 0212/0318 04010KT CAVOK BECMG 0216/0219 15005KT BECMG 0305/0308 05010KT",
    "taf_obs_time": "2025-06-02 10:40:00",
    "fetched_at": "2025-06-02T13:56:25.365048Z"
  },
  "LTFJ": {
    "icao": "LTFJ",
    "metar": "LTFJ 021320Z 20006KT 130V240 9999 FEW040 24/13 Q1019 BECMG 02012KT RMK RWY24R 05006KT 350V120 RWY06R 21010KT RWY24L 34006KT 290V050",
    "metar_obs_time": "2025-06-02 13:20:00",
    "taf": "TAF LTFJ 021040Z 0212/0312 24009KT 9999 SCT030 BECMG 0212/0215 02012KT CAVOK BECMG 0308/0311 24009KT",
    "taf_obs_time": "2025-06-02 10:40:00",
    "fetched_at": "2025-06-02T13:56:25.365048Z"
  },
  "LTBA": {
    "icao": "LTBA",
    "metar": "LTBA 021320Z 23007KT 200V260 CAVOK 22/13 Q1019 RMK RWY23 24007KT 200V260",
    "metar_obs_time": "2025-06-02 13:20:00",
    "taf": "TAF LTBA 021040Z 0212/0312 26007KT 9999 FEW035 BECMG 0212/0215 03010KT CAVOK BECMG 0305/0308 19008KT",
    "taf_obs_time": "2025-06-02 10:40:00",
    "fetched_at": "2025-06-02T13:56:25.365048Z"
  },
  "LTBU": {
    "icao": "LTBU",
    "metar": "LTBU 021320Z 02009KT 340V050 9999 FEW040 27/09 Q1019 RMK RWY22 06008KT 350V120",
    "metar_obs_time": "2025-06-02 13:20:00",
    "taf": "TAF LTBU 021040Z 0212/0312 17012KT 9999 SCT040 BECMG 0212/0215 04012KT CAVOK BECMG 0217/0220 VRB02KT BECMG 0308/0311 18012KT",
    "taf_obs_time": "2025-06-02 10:40:00",
    "fetched_at": "2025-06-02T13:56:25.365048Z"
  }
}