{
  "LTFM": {
    "icao": "LTFM",
    "metar": "LTFM 041350Z 05008KT 010V090 CAVOK 30/12 Q1017 NOSIG RMK RWY17L 07008KT RWY34L 05008KT 010V080 RWY16R 05008KT RWY36 06009KT 020V080 RWY18 06007KT",
    "metar_obs_time": "2025-06-04 13:50:00",
    "taf": "TAF LTFM 041040Z 0412/0518 05012KT CAVOK BECMG 0416/0419 VRB02KT BECMG 0506/0509 05012KT",
    "taf_obs_time": "2025-06-04 10:40:00",
    "fetched_at": "2025-06-04T14:15:17.842656Z"
  },
  "LTFJ": {
    "icao": "LTFJ",
    "metar": "LTFJ 041350Z 21008KT CAVOK 29/12 Q1017 NOSIG RMK RWY24R 23009KT RWY06R 22008KT RWY24L 23009KT",
    "metar_obs_time": "2025-06-04 13:50:00",
    "taf": "TAF LTFJ 041040Z 0412/0512 25012KT CAVOK BECMG 0412/0414 03008KT",
    "taf_obs_time": "2025-06-04 10:40:00",
    "fetched_at": "2025-06-04T14:15:17.842656Z"
  },
  "LTBA": {
    "icao": "LTBA",
    "metar": "LTBA 041350Z 24006KT CAVOK 27/13 Q1017 RMK RWY23 24007KT",
    "metar_obs_time": "2025-06-04 13:50:00",
    "taf": "TAF LTBA 041040Z 0412/0512 21012KT CAVOK BECMG 0412/0415 VRB02KT BECMG 0416/0419 04012KT",
    "taf_obs_time": "2025-06-04 10:40:00",
    "fetched_at": "2025-06-04T14:15:17.842656Z"
  },
  "LTBU": {
    "icao": "LTBU",
    "metar": "LTBU 041350Z 15009KT 120V180 9999 FEW035 29/13 Q1017 RMK RWY22 16008KT 120V230",
    "metar_obs_time": "2025-06-04 13:50:00",
    "taf": "TAF LTBU 041040Z 0412/0512 17006KT CAVOK BECMG 0417/0420 01010KT",
    "taf_obs_time": "2025-06-04 10:40:00",
    "fetched_at": "2025-06-04T14:15:17.842656Z"
  }
}