{
  "LTFM": {
    "icao": "LTFM",
    "metar": "LTFM 041520Z 07009KT 020V090 CAVOK 29/13 Q1017 NOSIG RMK RWY17L 08008KT RWY34L 06009KT RWY16R 08009KT RWY36 07010KT RWY18 09008KT",
    "metar_obs_time": "2025-06-04 15:20:00",
    "taf": "TAF LTFM 041040Z 0412/0518 05012KT CAVOK BECMG 0416/0419 VRB02KT BECMG 0506/0509 05012KT",
    "taf_obs_time": "2025-06-04 10:40:00",
    "fetched_at": "2025-06-04T15:41:30.231572Z"
  },
  "LTFJ": {
    "icao": "LTFJ",
    "metar": "LTFJ 041520Z 04010KT 010V080 CAVOK 30/14 Q1017 NOSIG RMK RWY24R 06009KT RWY06R 03011KT RWY24L 05009KT",
    "metar_obs_time": "2025-06-04 15:20:00",
    "taf": "TAF LTFJ 041040Z 0412/0512 25012KT CAVOK BECMG 0412/0414 03008KT",
    "taf_obs_time": "2025-06-04 10:40:00",
    "fetched_at": "2025-06-04T15:41:30.231572Z"
  },
  "LTBA": {
    "icao": "LTBA",
    "metar": "LTBA 041520Z 24006KT CAVOK 26/13 Q1016 RMK RWY23 24006KT",
    "metar_obs_time": "2025-06-04 15:20:00",
    "taf": "TAF LTBA 041040Z 0412/0512 21012KT CAVOK BECMG 0412/0415 VRB02KT BECMG 0416/0419 04012KT",
    "taf_obs_time": "2025-06-04 10:40:00",
    "fetched_at": "2025-06-04T15:41:30.231572Z"
  },
  "LTBU": {
    "icao": "LTBU",
    "metar": "LTBU 041520Z 14006KT CAVOK 29/12 Q1017 RMK RWY22 17006KT 130V200",
    "metar_obs_time": "2025-06-04 15:20:00",
    "taf": "TAF LTBU 041040Z 0412/0512 17006KT CAVOK BECMG 0417/0420 01010KT",
    "taf_obs_time": "2025-06-04 10:40:00",
    "fetched_at": "2025-06-04T15:41:30.231572Z"
  }
}