{
  "LTFM": {
    "icao": "LTFM",
    "metar": "LTFM 140650Z 05014KT 9999 BKN022 22/15 Q1019 NOSIG RMK RWY17L 05012KT RWY34L 05011KT RWY16R 03013KT RWY36 04012KT RWY18 05012KT",
    "metar_obs_time": "2025-06-14 06:50:00",
    "taf": "TAF LTFM 140440Z 1406/1512 04014KT 9999 BKN020 BECMG 1410/1413 SCT022 BECMG 1415/1418 VRB02KT CAVOK BECMG 1504/1507 01012KT SCT025 PROB40 TEMPO 1507/1511 -SHRA FEW022TCU BKN028",
    "taf_obs_time": "2025-06-14 04:40:00",
    "fetched_at": "2025-06-14T07:18:42.435807Z"
  },
  "LTFJ": {
    "icao": "LTFJ",
    "metar": "LTFJ 140650Z 04013KT 010V070 9999 SCT035 23/13 Q1018 NOSIG RMK RWY24R 07012KT 040V100 RWY06R 04013KT RWY24L 03013KT",
    "metar_obs_time": "2025-06-14 06:50:00",
    "taf": "TAF LTFJ 140440Z 1406/1506 04006KT CAVOK BECMG 1406/1409 04016KT SCT035 BECMG 1414/1418 04005KT CAVOK BECMG 1503/1506 SCT035",
    "taf_obs_time": "2025-06-14 04:40:00",
    "fetched_at": "2025-06-14T07:18:42.435807Z"
  },
  "LTBA": {
    "icao": "LTBA",
    "metar": "LTBA 140650Z 05014KT 9999 SCT035 24/12 Q1018 RMK RWY23 03011KT 360V070",
    "metar_obs_time": "2025-06-14 06:50:00",
    "taf": "TAF LTBA 140440Z 1406/1506 04009KT CAVOK BECMG 1406/1409 03015G25KT SCT035 BECMG 1413/1415 CAVOK BECMG 1415/1418 03007KT",
    "taf_obs_time": "2025-06-14 04:40:00",
    "fetched_at": "2025-06-14T07:18:42.435807Z"
  },
  "LTBU": {
    "icao": "LTBU",
    "metar": "LTBU 140650Z 03013KT 360V060 9999 SCT026 BKN100 23/14 Q1019 RMK RWY22 05013KT",
    "metar_obs_time": "2025-06-14 06:50:00",
    "taf": "TAF LTBU 140440Z 1406/1506 03010KT CAVOK BECMG 1406/1408 04015G25KT SCT035 PROB30 TEMPO 1409/1412 -SHRA FEW025TCU BKN030 BECMG 1412/1415 CAVOK BECMG 1416/1419 35007KT",
    "taf_obs_time": "2025-06-14 04:40:00",
    "fetched_at": "2025-06-14T07:18:42.435807Z"
  }
}