{
  "LTFM": {
    "icao": "LTFM",
    "metar": "LTFM 160920Z 02010KT CAVOK 24/12 Q1017 NOSIG RMK RWY17L 36011KT RWY34L 36011KT 330V030 RWY16R 36010KT 320V020 RWY36 02010KT RWY18 35010G20KT 310V040",
    "metar_obs_time": "2025-06-16 09:20:00",
    "taf": "TAF LTFM 160440Z 1606/1712 28005KT CAVOK BECMG 1606/1609 36010KT BECMG 1614/1616 07010KT BECMG 1618/1621 18007KT BECMG 1705/1708 36012KT",
    "taf_obs_time": "2025-06-16 04:40:00",
    "fetched_at": "2025-06-16T09:44:30.799498Z"
  },
  "LTFJ": {
    "icao": "LTFJ",
    "metar": "LTFJ 160920Z 24010KT 9999 FEW035 24/13 Q1016 NOSIG RMK RWY24R 25008KT 210V280 RWY06R 23010KT 200V260 RWY24L 22008KT",
    "metar_obs_time": "2025-06-16 09:20:00",
    "taf": "TAF AMD LTFJ 160821Z 1608/1706 24009KT 9999 FEW035 BECMG 1609/1612 03012KT CAVOK BECMG 1619/1623 VRB02KT",
    "taf_obs_time": "2025-06-16 08:21:00",
    "fetched_at": "2025-06-16T09:44:30.799498Z"
  },
  "LTBA": {
    "icao": "LTBA",
    "metar": "LTBA 160920Z 21008KT 180V250 9999 FEW035 23/15 Q1016 RMK RWY23 21007KT",
    "metar_obs_time": "2025-06-16 09:20:00",
    "taf": "TAF LTBA 160440Z 1606/1706 VRB02KT CAVOK BECMG 1609/1612 03012KT BECMG 1700/1703 VRB02KT",
    "taf_obs_time": "2025-06-16 04:40:00",
    "fetched_at": "2025-06-16T09:44:30.799498Z"
  },
  "LTBU": {
    "icao": "LTBU",
    "metar": "LTBU 160920Z 07010KT 040V120 9999 SCT045 27/09 Q1016 RMK RWY22 05008KT 010V100",
    "metar_obs_time": "2025-06-16 09:20:00",
    "taf": "TAF LTBU 160440Z 1606/1706 32007KT CAVOK BECMG 1606/1608 04012KT BECMG 1616/1617 VRB02KT",
    "taf_obs_time": "2025-06-16 04:40:00",
    "fetched_at": "2025-06-16T09:44:30.799498Z"
  }
}