{
  "LTFM": {
    "icao": "LTFM",
    "metar": "LTFM 022150Z 20003KT 160V230 CAVOK 19/10 Q1020 NOSIG RMK RWY17L 00000KT RWY34L 20003KT RWY16R 00000KT RWY36 16005KT RWY18 17005KT",
    "metar_obs_time": "2025-06-02 21:50:00",
    "taf": "TAF LTFM 021640Z 0218/0324 VRB02KT CAVOK BECMG 0305/0308 06012KT BECMG 0316/0319 19007KT",
    "taf_obs_time": "2025-06-02 16:40:00",
    "fetched_at": "2025-06-02T22:21:24.854057Z"
  },
  "LTFJ": {
    "icao": "LTFJ",
    "metar": "LTFJ 022150Z 04005KT 010V070 CAVOK 18/12 Q1020 NOSIG RMK RWY24R 03007KT RWY06R 01005KT RWY24L 03006KT",
    "metar_obs_time": "2025-06-02 21:50:00",
    "taf": "TAF LTFJ 021640Z 0218/0318 03007KT CAVOK BECMG 0304/0307 24010KT BECMG 0309/0312 02010KT",
    "taf_obs_time": "2025-06-02 16:40:00",
    "fetched_at": "2025-06-02T22:21:24.854057Z"
  },
  "LTBA": {
    "icao": "LTBA",
    "metar": "LTBA 022150Z 06004KT CAVOK 19/11 Q1019 RMK RWY23 06003KT",
    "metar_obs_time": "2025-06-02 21:50:00",
    "taf": "TAF LTBA 021640Z 0218/0318 04008KT CAVOK BECMG 0306/0309 21010KT BECMG 0313/0316 05007KT",
    "taf_obs_time": "2025-06-02 16:40:00",
    "fetched_at": "2025-06-02T22:21:24.854057Z"
  },
  "LTBU": {
    "icao": "LTBU",
    "metar": "LTBU 022150Z 00000KT CAVOK 16/09 Q1020 RMK RWY22 05004KT",
    "metar_obs_time": "2025-06-02 21:50:00",
    "taf": "TAF LTBU 021640Z 0218/0318 VRB02KT CAVOK BECMG 0308/0311 17012KT BECMG 0315/0318 VRB02KT",
    "taf_obs_time": "2025-06-02 16:40:00",
    "fetched_at": "2025-06-02T22:21:24.854057Z"
  }
}