{
  "LTFM": {
    "icao": "LTFM",
    "metar": "LTFM 160350Z 27004KT 220V310 CAVOK 18/12 Q1017 NOSIG RMK RWY17L 26004KT RWY34L 28004KT RWY16R 24004KT RWY36 26003KT 200V290 RWY18 26005G19KT 180V340",
    "metar_obs_time": "2025-06-16 03:50:00",
    "taf": "TAF LTFM 152240Z 1600/1706 27007KT CAVOK TEMPO 1601/1605 FEW032 BECMG 1605/1607 01012KT BECMG 1616/1618 11007KT",
    "taf_obs_time": "2025-06-15 22:40:00",
    "fetched_at": "2025-06-16T04:07:43.768299Z"
  },
  "LTFJ": {
    "icao": "LTFJ",
    "metar": "LTFJ 160350Z 06004KT CAVOK 16/13 Q1017 NOSIG RMK RWY24R 03002KT RWY06R 05004KT RWY24L 05003KT",
    "metar_obs_time": "2025-06-16 03:50:00",
    "taf": "TAF LTFJ 152240Z 1600/1624 VRB02KT CAVOK BECMG 1609/1612 03012KT SCT035 BECMG 1612/1615 CAVOK BECMG 1615/1618 VRB02KT",
    "taf_obs_time": "2025-06-15 22:40:00",
    "fetched_at": "2025-06-16T04:07:43.768299Z"
  },
  "LTBA": {
    "icao": "LTBA",
    "metar": "LTBA 160350Z 33002KT CAVOK 19/13 Q1017 RMK RWY23 00000KT",
    "metar_obs_time": "2025-06-16 03:50:00",
    "taf": "TAF LTBA 152240Z 1600/1624 03005KT CAVOK BECMG 1605/1607 19010KT FEW032 BECMG 1610/1612 02008KT CAVOK",
    "taf_obs_time": "2025-06-15 22:40:00",
    "fetched_at": "2025-06-16T04:07:43.768299Z"
  },
  "LTBU": {
    "icao": "LTBU",
    "metar": "LTBU 160350Z 32010KT CAVOK 17/09 Q1017 RMK RWY22 33008KT",
    "metar_obs_time": "2025-06-16 03:50:00",
    "taf": "TAF LTBU 152240Z 1600/1624 33007KT CAVOK BECMG 1606/1608 03012KT FEW032 BECMG 1615/1618 VRB02KT CAVOK",
    "taf_obs_time": "2025-06-15 22:40:00",
    "fetched_at": "2025-06-16T04:07:43.768299Z"
  }
}