{
  "LTFM": {
    "icao": "LTFM",
    "metar": "LTFM 030520Z 22006KT 160V240 CAVOK 23/08 Q1020 NOSIG RMK RWY17L 27003KT 180V310 RWY34L 16004KT RWY16R 33003KT 290V350 RWY36 VRB04KT RWY18 21005KT 150V240",
    "metar_obs_time": "2025-06-03 05:20:00",
    "taf": "TAF LTFM 030440Z 0306/0412 VRB02KT CAVOK BECMG 0306/0309 06012KT BECMG 0316/0319 18005KT BECMG 0407/0410 05010KT",
    "taf_obs_time": "2025-06-03 04:40:00",
    "fetched_at": "2025-06-03T05:54:59.454354Z"
  },
  "LTFJ": {
    "icao": "LTFJ",
    "metar": "LTFJ 030520Z 09003KT CAVOK 20/11 Q1020 NOSIG RMK RWY24R VRB01KT RWY06R VRB02KT RWY24L VRB02KT",
    "metar_obs_time": "2025-06-03 05:20:00",
    "taf": "TAF LTFJ 030440Z 0306/0406 24009KT CAVOK BECMG 0311/0315 03012KT BECMG 0316/0318 VRB02KT",
    "taf_obs_time": "2025-06-03 04:40:00",
    "fetched_at": "2025-06-03T05:54:59.454354Z"
  },
  "LTBA": {
    "icao": "LTBA",
    "metar": "LTBA 030520Z VRB02KT CAVOK 21/12 Q1020 RMK RWY23 13004KT 120V180",
    "metar_obs_time": "2025-06-03 05:20:00",
    "taf": "TAF LTBA 030440Z 0306/0406 VRB02KT CAVOK BECMG 0307/0310 21012KT BECMG 0313/0316 VRB02KT",
    "taf_obs_time": "2025-06-03 04:40:00",
    "fetched_at": "2025-06-03T05:54:59.454354Z"
  },
  "LTBU": {
    "icao": "LTBU",
    "metar": "LTBU 030520Z 06003KT 020V090 CAVOK 22/09 Q1020 RMK RWY22 VRB02KT",
    "metar_obs_time": "2025-06-03 05:20:00",
    "taf": "TAF LTBU 030440Z 0306/0406 VRB02KT CAVOK BECMG 0307/0310 17012KT BECMG 0316/0319 VRB02KT",
    "taf_obs_time": "2025-06-03 04:40:00",
    "fetched_at": "2025-06-03T05:54:59.454354Z"
  }
}