{
  "LTFM": {
    "icao": "LTFM",
    "metar": "LTFM 162250Z 25004KT 210V290 CAVOK 20/11 Q1016 NOSIG RMK RWY17L VRB05KT RWY34L 25004KT RWY16R 24005KT RWY36 20003KT 150V260 RWY18 VRB06G16KT",
    "metar_obs_time": "2025-06-16 22:50:00",
    "taf": "TAF LTFM 162240Z 1700/1806 22005KT CAVOK BECMG 1704/1707 35012KT BECMG 1715/1718 VRB02KT",
    "taf_obs_time": "2025-06-16 22:40:00",
    "fetched_at": "2025-06-16T23:17:06.303535Z"
  },
  "LTFJ": {
    "icao": "LTFJ",
    "metar": "LTFJ 162250Z 05004KT 010V080 CAVOK 19/12 Q1016 NOSIG RMK RWY24R VRB02KT RWY06R 04006KT RWY24L 04005KT",
    "metar_obs_time": "2025-06-16 22:50:00",
    "taf": "TAF LTFJ 162240Z 1700/1724 VRB02KT CAVOK BECMG 1709/1712 01012KT BECMG 1719/1722 VRB02KT",
    "taf_obs_time": "2025-06-16 22:40:00",
    "fetched_at": "2025-06-16T23:17:06.303535Z"
  },
  "LTBA": {
    "icao": "LTBA",
    "metar": "LTBA 162250Z VRB02KT CAVOK 21/13 Q1016 RMK RWY23 VRB02KT",
    "metar_obs_time": "2025-06-16 22:50:00",
    "taf": "TAF LTBA 162240Z 1700/1724 VRB02KT CAVOK BECMG 1705/1708 19012KT BECMG 1711/1714 03009KT",
    "taf_obs_time": "2025-06-16 22:40:00",
    "fetched_at": "2025-06-16T23:17:06.303535Z"
  },
  "LTBU": {
    "icao": "LTBU",
    "metar": "LTBU 162250Z 00000KT CAVOK 16/12 Q1017 RMK RWY22 24002KT",
    "metar_obs_time": "2025-06-16 22:50:00",
    "taf": "TAF LTBU 162240Z 1700/1724 VRB02KT CAVOK BECMG 1703/1706 35012KT BECMG 1709/1712 05009KT",
    "taf_obs_time": "2025-06-16 22:40:00",
    "fetched_at": "2025-06-16T23:17:06.303535Z"
  }
}