{
  "LTFM": {
    "icao": "LTFM",
    "metar": "LTFM 050250Z 32006KT CAVOK 19/18 Q1018 NOSIG RMK RWY17L 28006KT RWY34L 31008KT RWY16R 27004KT RWY36 32005KT RWY18 29005KT",
    "metar_obs_time": "2025-06-05 02:50:00",
    "taf": "TAF LTFM 042240Z 0500/0606 VRB02KT CAVOK BECMG 0504/0507 06012KT BECMG 0517/0520 SCT020 PROB30 TEMPO 0520/0524 3200 BR BKN004",
    "taf_obs_time": "2025-06-04 22:40:00",
    "fetched_at": "2025-06-05T03:20:50.281879Z"
  },
  "LTFJ": {
    "icao": "LTFJ",
    "metar": "LTFJ 050250Z 05006KT CAVOK 19/08 Q1017 NOSIG RMK RWY24R 03004KT RWY06R 03008KT RWY24L 03007KT",
    "metar_obs_time": "2025-06-05 02:50:00",
    "taf": "TAF LTFJ 042240Z 0500/0524 04006KT CAVOK BECMG 0506/0509 03016KT",
    "taf_obs_time": "2025-06-04 22:40:00",
    "fetched_at": "2025-06-05T03:20:50.281879Z"
  },
  "LTBA": {
    "icao": "LTBA",
    "metar": "LTBA 050250Z 03005KT CAVOK 22/05 Q1017 RMK RWY23 02004KT",
    "metar_obs_time": "2025-06-05 02:50:00",
    "taf": "TAF LTBA 042240Z 0500/0524 03008KT CAVOK BECMG 0506/0509 04015G25KT",
    "taf_obs_time": "2025-06-04 22:40:00",
    "fetched_at": "2025-06-05T03:20:50.281879Z"
  },
  "LTBU": {
    "icao": "LTBU",
    "metar": "LTBU 050250Z 03011KT CAVOK 20/08 Q1018 RMK RWY22 03007KT",
    "metar_obs_time": "2025-06-05 02:50:00",
    "taf": "TAF LTBU 042240Z 0500/0524 02008KT CAVOK BECMG 0507/0510 05015G25KT BECMG 0515/0518 03008KT SCT035",
    "taf_obs_time": "2025-06-04 22:40:00",
    "fetched_at": "2025-06-05T03:20:50.281879Z"
  }
}