{
  "LTFM": {
    "icao": "LTFM",
    "metar": "LTFM 160650Z VRB05KT CAVOK 24/11 Q1017 NOSIG RMK RWY17L 34006KT 300V020 RWY34L 33006KT 280V360 RWY16R 33004KT 270V020 RWY36 36006KT 320V020 RWY18 35006KT",
    "metar_obs_time": "2025-06-16 06:50:00",
    "taf": "TAF LTFM 160440Z 1606/1712 28005KT CAVOK BECMG 1606/1609 36010KT BECMG 1614/1616 07010KT BECMG 1618/1621 18007KT BECMG 1705/1708 36012KT",
    "taf_obs_time": "2025-06-16 04:40:00",
    "fetched_at": "2025-06-16T07:28:21.095553Z"
  },
  "LTFJ": {
    "icao": "LTFJ",
    "metar": "LTFJ 160650Z 24007KT 220V280 CAVOK 21/14 Q1017 NOSIG RMK RWY24R 18003KT 120V240 RWY06R 24007KT RWY24L VRB03KT",
    "metar_obs_time": "2025-06-16 06:50:00",
    "taf": "TAF LTFJ 160440Z 1606/1706 VRB02KT CAVOK BECMG 1608/1612 03012KT BECMG 1622/1702 VRB02KT",
    "taf_obs_time": "2025-06-16 04:40:00",
    "fetched_at": "2025-06-16T07:28:21.095553Z"
  },
  "LTBA": {
    "icao": "LTBA",
    "metar": "LTBA 160650Z 18007KT 140V210 CAVOK 22/15 Q1017 RMK RWY23 17006KT 130V210",
    "metar_obs_time": "2025-06-16 06:50:00",
    "taf": "TAF LTBA 160440Z 1606/1706 VRB02KT CAVOK BECMG 1609/1612 03012KT BECMG 1700/1703 VRB02KT",
    "taf_obs_time": "2025-06-16 04:40:00",
    "fetched_at": "2025-06-16T07:28:21.095553Z"
  },
  "LTBU": {
    "icao": "LTBU",
    "metar": "LTBU 160650Z 36009KT 340V040 CAVOK 25/09 Q1017 RMK RWY22 02008KT 360V060",
    "metar_obs_time": "2025-06-16 06:50:00",
    "taf": "TAF LTBU 160440Z 1606/1706 32007KT CAVOK BECMG 1606/1608 04012KT BECMG 1616/1617 VRB02KT",
    "taf_obs_time": "2025-06-16 04:40:00",
    "fetched_at": "2025-06-16T07:28:21.095553Z"
  }
}