{
  "LTFM": {
    "icao": "LTFM",
    "metar": "LTFM 152220Z 26003KT 130V290 CAVOK 18/12 Q1017 NOSIG RMK RWY17L 30005KT 240V310 RWY34L 23003KT RWY16R 29003KT RWY36 10003KT 020V140 RWY18 VRB03KT",
    "metar_obs_time": "2025-06-15 22:20:00",
    "taf": "TAF LTFM 151640Z 1518/1624 04012KT CAVOK BECMG 1518/1520 17007KT BECMG 1523/1601 25010KT TEMPO 1601/1605 FEW032 BECMG 1605/1607 01011KT BECMG 1617/1620 17007KT",
    "taf_obs_time": "2025-06-15 16:40:00",
    "fetched_at": "2025-06-15T22:49:24.785853Z"
  },
  "LTFJ": {
    "icao": "LTFJ",
    "metar": "LTFJ 152220Z 13004KT CAVOK 17/13 Q1017 NOSIG RMK RWY24R VRB02KT RWY06R 07004KT RWY24L 08003KT 030V110",
    "metar_obs_time": "2025-06-15 22:20:00",
    "taf": "TAF AMD LTFJ 151911Z 1519/1618 06012KT CAVOK BECMG 1521/1524 VRB02KT BECMG 1609/1612 03012KT",
    "taf_obs_time": "2025-06-15 19:11:00",
    "fetched_at": "2025-06-15T22:49:24.785853Z"
  },
  "LTBA": {
    "icao": "LTBA",
    "metar": "LTBA 152220Z 04005KT CAVOK 19/12 Q1017 RMK RWY23 05004KT",
    "metar_obs_time": "2025-06-15 22:20:00",
    "taf": "TAF LTBA 151640Z 1518/1618 01015KT CAVOK BECMG 1518/1520 03005KT BECMG 1605/1608 18010KT SCT032 BECMG 1610/1612 01012KT CAVOK",
    "taf_obs_time": "2025-06-15 16:40:00",
    "fetched_at": "2025-06-15T22:49:24.785853Z"
  },
  "LTBU": {
    "icao": "LTBU",
    "metar": "LTBU 152220Z 34004KT CAVOK 13/08 Q1017 RMK RWY22 35004KT",
    "metar_obs_time": "2025-06-15 22:20:00",
    "taf": "TAF LTBU 151640Z 1518/1618 05015G25KT CAVOK BECMG 1518/1520 03007KT BECMG 1523/1601 33010KT BECMG 1606/1608 03012KT SCT032 BECMG 1615/1618 VRB02KT",
    "taf_obs_time": "2025-06-15 16:40:00",
    "fetched_at": "2025-06-15T22:49:24.785853Z"
  }
}