{
  "LTFM": {
    "icao": "LTFM",
    "metar": "LTFM 150850Z 02011KT 330V050 9999 SCT028 22/15 Q1019 NOSIG RMK RWY17L 36012KT 320V020 RWY34L 01011KT RWY16R 36012KT 310V040 RWY36 01010KT RWY18 36010KT 330V040",
    "metar_obs_time": "2025-06-15 08:50:00",
    "taf": "TAF LTFM 150440Z 1506/1612 01014KT 9999 SCT028 BECMG 1512/1515 CAVOK BECMG 1516/1519 VRB02KT BECMG 1605/1608 01012KT",
    "taf_obs_time": "2025-06-15 04:40:00",
    "fetched_at": "2025-06-15T09:20:07.472826Z"
  },
  "LTFJ": {
    "icao": "LTFJ",
    "metar": "LTFJ 150850Z VRB05KT 9999 SCT030 23/15 Q1018 NOSIG RMK RWY24R VRB06KT RWY06R VRB06KT RWY24L VRB05KT",
    "metar_obs_time": "2025-06-15 08:50:00",
    "taf": "TAF LTFJ 150440Z 1506/1606 04005KT 9999 SCT035 BECMG 1509/1512 04015KT PROB30 TEMPO 1509/1512 -SHRA BKN030 BECMG 1512/1514 CAVOK BECMG 1517/1520 04005KT",
    "taf_obs_time": "2025-06-15 04:40:00",
    "fetched_at": "2025-06-15T09:20:07.472826Z"
  },
  "LTBA": {
    "icao": "LTBA",
    "metar": "LTBA 150850Z 23006KT 180V270 9999 BKN033 21/15 Q1018 RMK RWY23 22008KT 180V250",
    "metar_obs_time": "2025-06-15 08:50:00",
    "taf": "TAF LTBA 150440Z 1506/1606 01015KT 9999 SCT032 BECMG 1511/1514 CAVOK BECMG 1516/1519 VRB02KT",
    "taf_obs_time": "2025-06-15 04:40:00",
    "fetched_at": "2025-06-15T09:20:07.472826Z"
  },
  "LTBU": {
    "icao": "LTBU",
    "metar": "LTBU 150850Z 01007KT 320V080 9999 SCT035 25/10 Q1018 RMK RWY22 06010KT 020V120",
    "metar_obs_time": "2025-06-15 08:50:00",
    "taf": "TAF LTBU 150440Z 1506/1606 04015KT 9999 SCT032 BECMG 1511/1514 CAVOK BECMG 1516/1519 VRB02KT",
    "taf_obs_time": "2025-06-15 04:40:00",
    "fetched_at": "2025-06-15T09:20:07.472826Z"
  }
}