{
  "LTFM": {
    "icao": "LTFM",
    "metar": "LTFM 120950Z 02011KT CAVOK 24/17 Q1017 NOSIG RMK RWY17L 36010KT RWY34L 01011KT RWY16R 36010KT RWY36 01011KT 340V040 RWY18 36011KT",
    "metar_obs_time": "2025-06-12 09:50:00",
    "taf": "TAF LTFM 120440Z 1206/1312 35006KT 9999 BKN009 BECMG 1206/1209 05013KT SCT014 BECMG 1209/1212 CAVOK BECMG 1215/1218 SCT008 BECMG 1220/1223 BKN006 PROB30 1223/1303 4000 BR BKN004 BECMG 1304/1307 SCT012 BECMG 1307/1310 CAVOK",
    "taf_obs_time": "2025-06-12 04:40:00",
    "fetched_at": "2025-06-12T10:20:05.208323Z"
  },
  "LTFJ": {
    "icao": "LTFJ",
    "metar": "LTFJ 120950Z 03011KT 340V060 9999 FEW040 29/18 Q1015 NOSIG RMK RWY24R 03013KT 350V060 RWY06R 01011KT 320V030 RWY24L 36013KT 340V040",
    "metar_obs_time": "2025-06-12 09:50:00",
    "taf": "TAF LTFJ 120440Z 1206/1306 04017KT CAVOK BECMG 1218/1221 04007KT SCT009 PROB30 TEMPO 1300/1304 3500 BCFG BKN004",
    "taf_obs_time": "2025-06-12 04:40:00",
    "fetched_at": "2025-06-12T10:20:05.208323Z"
  },
  "LTBA": {
    "icao": "LTBA",
    "metar": "LTBA 120950Z 36012KT 330V040 CAVOK 29/14 Q1015 RMK RWY23 02011KT 340V070",
    "metar_obs_time": "2025-06-12 09:50:00",
    "taf": "TAF LTBA 120440Z 1206/1306 03007KT 9999 SCT012 BECMG 1208/1211 03017KT CAVOK BECMG 1217/1220 05007KT SCT012 BECMG 1220/1223 BKN006 BECMG 1304/1306 SCT012",
    "taf_obs_time": "2025-06-12 04:40:00",
    "fetched_at": "2025-06-12T10:20:05.208323Z"
  },
  "LTBU": {
    "icao": "LTBU",
    "metar": "LTBU 120950Z 03011KT 360V060 CAVOK 29/15 Q1016 RMK RWY22 05012KT 020V090",
    "metar_obs_time": "2025-06-12 09:50:00",
    "taf": "TAF LTBU 120440Z 1206/1306 34006KT CAVOK BECMG 1207/1210 04017KT BECMG 1216/1219 03007KT SCT012 PROB30 1300/1304 2200 BCFG BKN008",
    "taf_obs_time": "2025-06-12 04:40:00",
    "fetched_at": "2025-06-12T10:20:05.208323Z"
  }
}