{
  "LTFM": {
    "icao": "LTFM",
    "metar": "LTFM 041220Z 04008KT 010V070 CAVOK 30/13 Q1018 NOSIG RMK RWY17L 06006KT 010V090 RWY34L 03007KT 350V060 RWY16R 04006KT 010V070 RWY36 05008KT 010V070 RWY18 05007KT",
    "metar_obs_time": "2025-06-04 12:20:00",
    "taf": "TAF LTFM 041040Z 0412/0518 05012KT CAVOK BECMG 0416/0419 VRB02KT BECMG 0506/0509 05012KT",
    "taf_obs_time": "2025-06-04 10:40:00",
    "fetched_at": "2025-06-04T12:38:44.942146Z"
  },
  "LTFJ": {
    "icao": "LTFJ",
    "metar": "LTFJ 041220Z 25009KT 220V280 CAVOK 29/13 Q1017 NOSIG RMK RWY24R 25008KT RWY06R 23009KT RWY24L 22010KT",
    "metar_obs_time": "2025-06-04 12:20:00",
    "taf": "TAF LTFJ 041040Z 0412/0512 25012KT CAVOK BECMG 0412/0414 03008KT",
    "taf_obs_time": "2025-06-04 10:40:00",
    "fetched_at": "2025-06-04T12:38:44.942146Z"
  },
  "LTBA": {
    "icao": "LTBA",
    "metar": "LTBA 041220Z 24007KT 210V270 CAVOK 27/13 Q1018 RMK RWY23 25007KT",
    "metar_obs_time": "2025-06-04 12:20:00",
    "taf": "TAF LTBA 041040Z 0412/0512 21012KT CAVOK BECMG 0412/0415 VRB02KT BECMG 0416/0419 04012KT",
    "taf_obs_time": "2025-06-04 10:40:00",
    "fetched_at": "2025-06-04T12:38:44.942146Z"
  },
  "LTBU": {
    "icao": "LTBU",
    "metar": "LTBU 041220Z 15010KT 9999 FEW035 29/15 Q1018 RMK RWY22 15009KT 100V180",
    "metar_obs_time": "2025-06-04 12:20:00",
    "taf": "TAF LTBU 041040Z 0412/0512 17006KT CAVOK BECMG 0417/0420 01010KT",
    "taf_obs_time": "2025-06-04 10:40:00",
    "fetched_at": "2025-06-04T12:38:44.942146Z"
  }
}