{
  "LTFM": {
    "icao": "LTFM",
    "metar": "LTFM 130820Z 06015KT 020V080 CAVOK 24/14 Q1018 NOSIG RMK RWY17L 06015KT RWY34L 05014KT 010V070 RWY16R 05015KT RWY36 06015KT RWY18 07015KT",
    "metar_obs_time": "2025-06-13 08:20:00",
    "taf": "TAF LTFM 130440Z 1306/1412 05018KT 9999 SCT012 BECMG 1307/1310 CAVOK BECMG 1315/1318 06008KT",
    "taf_obs_time": "2025-06-13 04:40:00",
    "fetched_at": "2025-06-13T08:49:03.219012Z"
  },
  "LTFJ": {
    "icao": "LTFJ",
    "metar": "LTFJ 130820Z 06014KT 9999 SCT030 25/16 Q1017 NOSIG RMK RWY24R 08012KT 030V100 RWY06R 06014KT 020V080 RWY24L 05015KT 020V080",
    "metar_obs_time": "2025-06-13 08:20:00",
    "taf": "TAF LTFJ 130440Z 1306/1406 04009KT 9999 SCT015 BECMG 1306/1309 03019KT CAVOK BECMG 1318/1321 04009KT",
    "taf_obs_time": "2025-06-13 04:40:00",
    "fetched_at": "2025-06-13T08:49:03.219012Z"
  },
  "LTBA": {
    "icao": "LTBA",
    "metar": "LTBA 130820Z 06013KT 9999 FEW040 26/15 Q1017 RMK RWY23 06011KT 030V100",
    "metar_obs_time": "2025-06-13 08:20:00",
    "taf": "TAF LTBA 130440Z 1306/1406 04019KT 9999 FEW035 BECMG 1306/1309 CAVOK BECMG 1317/1320 04009KT",
    "taf_obs_time": "2025-06-13 04:40:00",
    "fetched_at": "2025-06-13T08:49:03.219012Z"
  },
  "LTBU": {
    "icao": "LTBU",
    "metar": "LTBU 130820Z 04015KT 010V070 9999 FEW025 25/13 Q1018 RMK RWY22 07011KT 050V120",
    "metar_obs_time": "2025-06-13 08:20:00",
    "taf": "TAF LTBU 130440Z 1306/1406 04016KT 9999 FEW012 BECMG 1306/1309 CAVOK BECMG 1317/1320 05006KT BECMG 1403/1406 SCT035",
    "taf_obs_time": "2025-06-13 04:40:00",
    "fetched_at": "2025-06-13T08:49:03.219012Z"
  }
}