{
  "LTFM": {
    "icao": "LTFM",
    "metar": "LTFM 081020Z 02011KT 9999 SCT018 23/15 Q1016 NOSIG RMK RWY17L 35010KT 320V030 RWY34L 35012KT RWY16R 02010KT 320V040 RWY36 01011KT 340V040 RWY18 01010KT 320V040",
    "metar_obs_time": "2025-06-08 10:20:00",
    "taf": "TAF LTFM 080440Z 0806/0912 02016KT 9999 BKN016 BECMG 0807/0810 SCT018 BECMG 0817/0819 03006KT BECMG 0821/0824 BKN012 PROB30 0901/0905 2500 BCFG BKN006 BECMG 0906/0909 SCT016",
    "taf_obs_time": "2025-06-08 04:40:00",
    "fetched_at": "2025-06-08T10:50:04.270378Z"
  },
  "LTFJ": {
    "icao": "LTFJ",
    "metar": "LTFJ 081020Z 24007KT 210V280 CAVOK 24/16 Q1015 NOSIG RMK RWY24R 04005KT 010V080 RWY06R 23008KT RWY24L VRB04KT",
    "metar_obs_time": "2025-06-08 10:20:00",
    "taf": "TAF LTFJ 080440Z 0806/0906 04012KT 9999 SCT025 BECMG 0807/0810 CAVOK BECMG 0820/0824 SCT015 PROB30 TEMPO 0902/0905 3500 BCFG BKN012",
    "taf_obs_time": "2025-06-08 04:40:00",
    "fetched_at": "2025-06-08T10:50:04.270378Z"
  },
  "LTBA": {
    "icao": "LTBA",
    "metar": "LTBA 081020Z 22008KT CAVOK 24/16 Q1015 RMK RWY23 22007KT 190V260",
    "metar_obs_time": "2025-06-08 10:20:00",
    "taf": "TAF LTBA 080440Z 0806/0906 04006KT 9999 BKN020 BECMG 0806/0809 03016KT SCT022 BECMG 0818/0820 04006KT BECMG 0820/0822 BKN012 PROB40 0823/0903 2800 BCFG BKN004",
    "taf_obs_time": "2025-06-08 04:40:00",
    "fetched_at": "2025-06-08T10:50:04.270378Z"
  },
  "LTBU": {
    "icao": "LTBU",
    "metar": "LTBU 081020Z 03008KT 010V070 CAVOK 27/15 Q1015 RMK RWY22 06008KT 360V120",
    "metar_obs_time": "2025-06-08 10:20:00",
    "taf": "TAF LTBU 080440Z 0806/0906 33005KT 9999 SCT012 BECMG 0806/0809 03015KT CAVOK BECMG 0819/0822 01005KT SCT016 BECMG 0822/0824 BKN012 PROB40 0901/0905 2200 BCFG BKN006",
    "taf_obs_time": "2025-06-08 04:40:00",
    "fetched_at": "2025-06-08T10:50:04.270378Z"
  }
}