{
  "LTFM": {
    "icao": "LTFM",
    "metar": "LTFM 081850Z 03011KT 9999 BKN016 20/16 Q1015 NOSIG RMK RWY17L 05008KT RWY34L 02009KT RWY16R 03008KT RWY36 04009KT RWY18 05008KT",
    "metar_obs_time": "2025-06-08 18:50:00",
    "taf": "TAF LTFM 081640Z 0818/0924 03012KT 9999 BKN016 BECMG 0818/0821 BKN006 PROB30 0901/0905 2500 BCFG BKN004 BECMG 0906/0909 SCT016 BECMG 0912/0915 CAVOK",
    "taf_obs_time": "2025-06-08 16:40:00",
    "fetched_at": "2025-06-08T19:27:44.964375Z"
  },
  "LTFJ": {
    "icao": "LTFJ",
    "metar": "LTFJ 081850Z 03010KT CAVOK 20/16 Q1014 NOSIG RMK RWY24R 03009KT 010V080 RWY06R 01011KT RWY24L 01007KT",
    "metar_obs_time": "2025-06-08 18:50:00",
    "taf": "TAF LTFJ 081640Z 0818/0918 03009KT CAVOK BECMG 0819/0822 SCT016 BECMG 0822/0901 BKN012 PROB30 0901/0904 2500 BCFG BKN005 BECMG 0905/0908 CAVOK BECMG 0908/0910 24010KT BECMG 0912/0914 03015KT",
    "taf_obs_time": "2025-06-08 16:40:00",
    "fetched_at": "2025-06-08T19:27:44.964375Z"
  },
  "LTBA": {
    "icao": "LTBA",
    "metar": "LTBA 081850Z 01010KT 9999 SCT020 20/16 Q1014 RMK RWY23 02008KT 350V050",
    "metar_obs_time": "2025-06-08 18:50:00",
    "taf": "TAF LTBA 081640Z 0818/0918 02012KT 9999 SCT016 BECMG 0820/0823 BKN012 PROB40 0823/0903 2200 BCFG BKN004 BECMG 0906/0909 CAVOK BECMG 0915/0918 SCT018",
    "taf_obs_time": "2025-06-08 16:40:00",
    "fetched_at": "2025-06-08T19:27:44.964375Z"
  },
  "LTBU": {
    "icao": "LTBU",
    "metar": "LTBU 081850Z 02004KT CAVOK 18/15 Q1015 RMK RWY22 03006KT",
    "metar_obs_time": "2025-06-08 18:50:00",
    "taf": "TAF LTBU 081640Z 0818/0918 05015KT CAVOK BECMG 0818/0821 03005KT SCT016 BECMG 0822/0824 BKN008 PROB40 0901/0905 2200 BCFG BKN004 BECMG 0905/0908 CAVOK BECMG 0912/0915 03015KT",
    "taf_obs_time": "2025-06-08 16:40:00",
    "fetched_at": "2025-06-08T19:27:44.964375Z"
  }
}