{
  "LTFM": {
    "icao": "LTFM",
    "metar": "LTFM 110550Z 03015KT CAVOK 22/16 Q1015 NOSIG RMK RWY17L 03013KT RWY34L 01014KT RWY16R 01013KT RWY36 03015KT RWY18 03012KT",
    "metar_obs_time": "2025-06-11 05:50:00",
    "taf": "TAF LTFM 110440Z 1106/1212 04016KT CAVOK BECMG 1117/1120 VRB02KT SCT007 BECMG 1120/1122 4000 BR BKN006 PROB30 TEMPO 1123/1203 1100 BCFG BKN004 BECMG 1204/1207 03012KT 9999 NSW SCT016",
    "taf_obs_time": "2025-06-11 04:40:00",
    "fetched_at": "2025-06-11T06:27:13.144907Z"
  },
  "LTFJ": {
    "icao": "LTFJ",
    "metar": "LTFJ 110550Z 04009KT 9999 BKN015 21/18 Q1014 NOSIG RMK RWY24R 05008KT RWY06R 03010KT RWY24L 02008KT",
    "metar_obs_time": "2025-06-11 05:50:00",
    "taf": "TAF LTFJ 110440Z 1106/1206 05012KT 9999 BKN015 BECMG 1106/1110 SCT025 BECMG 1110/1113 CAVOK TEMPO 1111/1115 05020G30KT BECMG 1121/1124 SCT012 TEMPO 1202/1206 3200 BR BKN014",
    "taf_obs_time": "2025-06-11 04:40:00",
    "fetched_at": "2025-06-11T06:27:13.144907Z"
  },
  "LTBA": {
    "icao": "LTBA",
    "metar": "LTBA 110550Z 04011KT 9999 FEW021 23/17 Q1014 RMK RWY23 03011KT 360V060",
    "metar_obs_time": "2025-06-11 05:50:00",
    "taf": "TAF LTBA 110440Z 1106/1206 04014KT 9999 SCT028 BECMG 1107/1110 03018G28KT CAVOK BECMG 1116/1119 02007KT SCT010 BECMG 1120/1122 BKN006 PROB30 TEMPO 1123/1203 3200 BR",
    "taf_obs_time": "2025-06-11 04:40:00",
    "fetched_at": "2025-06-11T06:27:13.144907Z"
  },
  "LTBU": {
    "icao": "LTBU",
    "metar": "LTBU 110550Z 03012KT CAVOK 23/15 Q1015 RMK RWY22 04012KT",
    "metar_obs_time": "2025-06-11 05:50:00",
    "taf": "TAF LTBU 110440Z 1106/1206 03014KT CAVOK BECMG 1107/1110 04018G28KT BECMG 1116/1119 01007KT SCT014 PROB30 TEMPO 1122/1202 2500 BR BKN008",
    "taf_obs_time": "2025-06-11 04:40:00",
    "fetched_at": "2025-06-11T06:27:13.144907Z"
  }
}