{
  "LTFM": {
    "icao": "LTFM",
    "metar": "LTFM 032120Z 19006KT CAVOK 20/12 Q1018 NOSIG RMK RWY17L 18007KT RWY34L 19003KT RWY16R 17006KT RWY36 17006KT 130V190 RWY18 18006KT",
    "metar_obs_time": "2025-06-03 21:20:00",
    "taf": "TAF LTFM 031640Z 0318/0424 10010KT CAVOK BECMG 0318/0320 18006KT BECMG 0407/0410 07012KT BECMG 0418/0420 VRB02KT",
    "taf_obs_time": "2025-06-03 16:40:00",
    "fetched_at": "2025-06-03T21:55:25.137809Z"
  },
  "LTFJ": {
    "icao": "LTFJ",
    "metar": "LTFJ 032120Z 07004KT CAVOK 20/12 Q1018 NOSIG RMK RWY24R 03004KT 340V080 RWY06R 04005KT RWY24L 03004KT",
    "metar_obs_time": "2025-06-03 21:20:00",
    "taf": "TAF LTFJ 031640Z 0318/0418 05006KT CAVOK BECMG 0405/0408 23010KT BECMG 0409/0412 03009KT SCT040 BECMG 0413/0416 CAVOK",
    "taf_obs_time": "2025-06-03 16:40:00",
    "fetched_at": "2025-06-03T21:55:25.137809Z"
  },
  "LTBA": {
    "icao": "LTBA",
    "metar": "LTBA 032120Z 06003KT CAVOK 22/12 Q1018 RMK RWY23 VRB01KT",
    "metar_obs_time": "2025-06-03 21:20:00",
    "taf": "TAF LTBA 031640Z 0318/0418 05005KT CAVOK BECMG 0406/0409 22010KT BECMG 0416/0418 05007KT",
    "taf_obs_time": "2025-06-03 16:40:00",
    "fetched_at": "2025-06-03T21:55:25.137809Z"
  },
  "LTBU": {
    "icao": "LTBU",
    "metar": "LTBU 032120Z 28002KT CAVOK 18/10 Q1018 RMK RWY22 25004KT",
    "metar_obs_time": "2025-06-03 21:20:00",
    "taf": "TAF LTBU 031640Z 0318/0418 VRB02KT CAVOK BECMG 0407/0410 17012KT FEW040 BECMG 0416/0418 VRB02KT CAVOK",
    "taf_obs_time": "2025-06-03 16:40:00",
    "fetched_at": "2025-06-03T21:55:25.137809Z"
  }
}