{
  "LTFM": {
    "icao": "LTFM",
    "metar": "LTFM 151650Z 05008KT 010V080 CAVOK 21/12 Q1017 NOSIG RMK RWY17L 06007KT RWY34L 03008KT RWY16R 05007KT RWY36 06008KT RWY18 06007KT",
    "metar_obs_time": "2025-06-15 16:50:00",
    "taf": "TAF LTFM 151640Z 1518/1624 04012KT CAVOK BECMG 1518/1520 17007KT BECMG 1523/1601 25010KT TEMPO 1601/1605 FEW032 BECMG 1605/1607 01011KT BECMG 1617/1620 17007KT",
    "taf_obs_time": "2025-06-15 16:40:00",
    "fetched_at": "2025-06-15T17:18:55.357498Z"
  },
  "LTFJ": {
    "icao": "LTFJ",
    "metar": "LTFJ 151650Z 03011KT 350V060 CAVOK 21/12 Q1017 NOSIG RMK RWY24R 03011KT RWY06R 02011KT RWY24L 03012KT",
    "metar_obs_time": "2025-06-15 16:50:00",
    "taf": "TAF LTFJ 151640Z 1518/1618 03012KT CAVOK BECMG 1519/1522 VRB02KT BECMG 1604/1607 24012KT SCT035 BECMG 1609/1612 03012KT BECMG 1615/1618 VRB02KT",
    "taf_obs_time": "2025-06-15 16:40:00",
    "fetched_at": "2025-06-15T17:18:55.357498Z"
  },
  "LTBA": {
    "icao": "LTBA",
    "metar": "LTBA 151650Z 04010KT CAVOK 23/10 Q1017 RMK RWY23 06011KT",
    "metar_obs_time": "2025-06-15 16:50:00",
    "taf": "TAF LTBA 151640Z 1518/1618 01015KT CAVOK BECMG 1518/1520 03005KT BECMG 1605/1608 18010KT SCT032 BECMG 1610/1612 01012KT CAVOK",
    "taf_obs_time": "2025-06-15 16:40:00",
    "fetched_at": "2025-06-15T17:18:55.357498Z"
  },
  "LTBU": {
    "icao": "LTBU",
    "metar": "LTBU 151650Z 05009KT CAVOK 22/09 Q1017 RMK RWY22 05008KT",
    "metar_obs_time": "2025-06-15 16:50:00",
    "taf": "TAF LTBU 151640Z 1518/1618 05015G25KT CAVOK BECMG 1518/1520 03007KT BECMG 1523/1601 33010KT BECMG 1606/1608 03012KT SCT032 BECMG 1615/1618 VRB02KT",
    "taf_obs_time": "2025-06-15 16:40:00",
    "fetched_at": "2025-06-15T17:18:55.357498Z"
  }
}