{
  "LTFM": {
    "icao": "LTFM",
    "metar": "LTFM 211250Z 04020KT 9999 FEW035 24/14 Q1019 NOSIG RMK RWY17L 04018KT RWY34L 03016KT RWY16R 04018KT RWY36 05019KT RWY18 05017KT",
    "metar_obs_time": "2025-06-21 12:50:00",
    "taf": "TAF LTFM 211040Z 2112/2218 05018G28KT 9999 FEW035 BECMG 2112/2114 CAVOK BECMG 2117/2120 06012KT BECMG 2201/2204 SCT025 BECMG 2204/2207 03017G27KT BECMG 2212/2215 CAVOK BECMG 2215/2218 17007KT",
    "taf_obs_time": "2025-06-21 10:40:00",
    "fetched_at": "2025-06-21T13:06:11.932257Z"
  },
  "LTFJ": {
    "icao": "LTFJ",
    "metar": "LTFJ 211250Z 06019KT CAVOK 26/10 Q1017 NOSIG RMK RWY24R 06018KT RWY06R 04022KT RWY24L 03021KT",
    "metar_obs_time": "2025-06-21 12:50:00",
    "taf": "TAF LTFJ 211040Z 2112/2212 05018KT CAVOK TEMPO 2112/2116 05020G30KT BECMG 2117/2121 04008KT BECMG 2203/2207 SCT035 TEMPO 2208/2212 BKN030",
    "taf_obs_time": "2025-06-21 10:40:00",
    "fetched_at": "2025-06-21T13:06:11.932257Z"
  },
  "LTBA": {
    "icao": "LTBA",
    "metar": "LTBA 211250Z 03019KT 360V060 CAVOK 26/11 Q1017 RMK RWY23 03019KT",
    "metar_obs_time": "2025-06-21 12:50:00",
    "taf": "TAF LTBA 211040Z 2112/2212 05019KT CAVOK BECMG 2116/2119 04009KT BECMG 2203/2205 03016G26KT SCT030 BKN100 PROB30 TEMPO 2205/2208 -SHRA FEW020TCU BKN025 BKN070",
    "taf_obs_time": "2025-06-21 10:40:00",
    "fetched_at": "2025-06-21T13:06:11.932257Z"
  },
  "LTBU": {
    "icao": "LTBU",
    "metar": "LTBU 211250Z 03017KT 9999 FEW035 26/09 Q1018 RMK RWY22 05016KT 010V090",
    "metar_obs_time": "2025-06-21 12:50:00",
    "taf": "TAF LTBU 211040Z 2112/2212 05018KT 9999 FEW035 BECMG 2112/2114 CAVOK BECMG 2116/2119 02007KT BECMG 2203/2206 03018G28KT SCT035 BKN100",
    "taf_obs_time": "2025-06-21 10:40:00",
    "fetched_at": "2025-06-21T13:06:11.932257Z"
  }
}