{
  "LTFM": {
    "icao": "LTFM",
    "metar": "LTFM 160850Z 02009KT 340V040 CAVOK 24/12 Q1017 NOSIG RMK RWY17L 35010KT RWY34L 36009KT 310V030 RWY16R 01010KT RWY36 02010KT 340V050 RWY18 35009KT",
    "metar_obs_time": "2025-06-16 08:50:00",
    "taf": "TAF LTFM 160440Z 1606/1712 28005KT CAVOK BECMG 1606/1609 36010KT BECMG 1614/1616 07010KT BECMG 1618/1621 18007KT BECMG 1705/1708 36012KT",
    "taf_obs_time": "2025-06-16 04:40:00",
    "fetched_at": "2025-06-16T09:21:31.206605Z"
  },
  "LTFJ": {
    "icao": "LTFJ",
    "metar": "LTFJ 160850Z 23008KT 9999 FEW035 23/12 Q1016 NOSIG RMK RWY24R 24008KT 180V260 RWY06R 23008KT 200V280 RWY24L 22008KT 190V270",
    "metar_obs_time": "2025-06-16 08:50:00",
    "taf": "TAF AMD LTFJ 160821Z 1608/1706 24009KT 9999 FEW035 BECMG 1609/1612 03012KT CAVOK BECMG 1619/1623 VRB02KT",
    "taf_obs_time": "2025-06-16 08:21:00",
    "fetched_at": "2025-06-16T09:21:31.206605Z"
  },
  "LTBA": {
    "icao": "LTBA",
    "metar": "LTBA 160850Z 21007KT 160V230 9999 FEW035 22/14 Q1016 RMK RWY23 20006KT 170V230",
    "metar_obs_time": "2025-06-16 08:50:00",
    "taf": "TAF LTBA 160440Z 1606/1706 VRB02KT CAVOK BECMG 1609/1612 03012KT BECMG 1700/1703 VRB02KT",
    "taf_obs_time": "2025-06-16 04:40:00",
    "fetched_at": "2025-06-16T09:21:31.206605Z"
  },
  "LTBU": {
    "icao": "LTBU",
    "metar": "LTBU 160850Z 05009KT 360V110 9999 FEW040 27/08 Q1016 RMK RWY22 05008KT 340V120",
    "metar_obs_time": "2025-06-16 08:50:00",
    "taf": "TAF LTBU 160440Z 1606/1706 32007KT CAVOK BECMG 1606/1608 04012KT BECMG 1616/1617 VRB02KT",
    "taf_obs_time": "2025-06-16 04:40:00",
    "fetched_at": "2025-06-16T09:21:31.206605Z"
  }
}