{
  "LTFM": {
    "icao": "LTFM",
    "metar": "LTFM 170820Z 30005KT 240V330 CAVOK 28/10 Q1017 NOSIG RMK RWY17L 03007KT RWY34L 01005KT 250V050 RWY16R 35005KT 280V080 RWY36 VRB04KT RWY18 36006KT 310V070",
    "metar_obs_time": "2025-06-17 08:20:00",
    "taf": "TAF LTFM 170440Z 1706/1812 VRB02KT CAVOK BECMG 1706/1709 02012KT BECMG 1715/1718 VRB02KT BECMG 1803/1806 02012KT",
    "taf_obs_time": "2025-06-17 04:40:00",
    "fetched_at": "2025-06-17T08:55:37.366170Z"
  },
  "LTFJ": {
    "icao": "LTFJ",
    "metar": "LTFJ 170820Z 24008KT 210V280 CAVOK 26/10 Q1017 NOSIG RMK RWY24R 24007KT 200V260 RWY06R 23008KT RWY24L 21006KT 160V250",
    "metar_obs_time": "2025-06-17 08:20:00",
    "taf": "TAF LTFJ 170440Z 1706/1806 VRB02KT CAVOK BECMG 1708/1711 03012KT BECMG 1718/1721 VRB02KT",
    "taf_obs_time": "2025-06-17 04:40:00",
    "fetched_at": "2025-06-17T08:55:37.366170Z"
  },
  "LTBA": {
    "icao": "LTBA",
    "metar": "LTBA 170820Z 19006KT 150V210 CAVOK 24/12 Q1017 RMK RWY23 21006KT",
    "metar_obs_time": "2025-06-17 08:20:00",
    "taf": "TAF LTBA 170440Z 1706/1806 18005KT CAVOK BECMG 1711/1714 03010KT",
    "taf_obs_time": "2025-06-17 04:40:00",
    "fetched_at": "2025-06-17T08:55:37.366170Z"
  },
  "LTBU": {
    "icao": "LTBU",
    "metar": "LTBU 170820Z VRB05KT CAVOK 28/09 Q1017 RMK RWY22 VRB05KT",
    "metar_obs_time": "2025-06-17 08:20:00",
    "taf": "TAF LTBU 170440Z 1706/1806 36005KT CAVOK BECMG 1710/1713 06012KT BECMG 1717/1720 34008KT",
    "taf_obs_time": "2025-06-17 04:40:00",
    "fetched_at": "2025-06-17T08:55:37.366170Z"
  }
}