{
  "LTFM": {
    "icao": "LTFM",
    "metar": "LTFM 162120Z 18006KT CAVOK 21/12 Q1016 NOSIG RMK RWY17L 21006KT RWY34L 19004KT RWY16R 27004KT 210V280 RWY36 18008KT RWY18 19009KT",
    "metar_obs_time": "2025-06-16 21:20:00",
    "taf": "TAF LTFM 161640Z 1618/1724 VRB02KT CAVOK BECMG 1705/1708 01012KT BECMG 1715/1718 VRB02KT",
    "taf_obs_time": "2025-06-16 16:40:00",
    "fetched_at": "2025-06-16T21:34:16.395681Z"
  },
  "LTFJ": {
    "icao": "LTFJ",
    "metar": "LTFJ 162120Z VRB01KT CAVOK 21/11 Q1016 NOSIG RMK RWY24R 00000KT RWY06R 03002KT RWY24L VRB02KT",
    "metar_obs_time": "2025-06-16 21:20:00",
    "taf": "TAF LTFJ 161640Z 1618/1718 05012KT CAVOK BECMG 1619/1622 VRB02KT BECMG 1710/1714 01012KT",
    "taf_obs_time": "2025-06-16 16:40:00",
    "fetched_at": "2025-06-16T21:34:16.395681Z"
  },
  "LTBA": {
    "icao": "LTBA",
    "metar": "LTBA 162120Z 12003KT 090V170 CAVOK 22/12 Q1016 RMK RWY23 VRB02KT",
    "metar_obs_time": "2025-06-16 21:20:00",
    "taf": "TAF LTBA 161640Z 1618/1718 VRB02KT CAVOK BECMG 1705/1708 21012KT BECMG 1711/1714 03009KT",
    "taf_obs_time": "2025-06-16 16:40:00",
    "fetched_at": "2025-06-16T21:34:16.395681Z"
  },
  "LTBU": {
    "icao": "LTBU",
    "metar": "LTBU 162120Z 00000KT CAVOK 16/12 Q1016 RMK RWY22 24003KT",
    "metar_obs_time": "2025-06-16 21:20:00",
    "taf": "TAF LTBU 161640Z 1618/1718 VRB02KT CAVOK BECMG 1621/1624 35012KT BECMG 1710/1713 13007KT",
    "taf_obs_time": "2025-06-16 16:40:00",
    "fetched_at": "2025-06-16T21:34:16.395681Z"
  }
}