{
  "LTFM": {
    "icao": "LTFM",
    "metar": "LTFM 191820Z 11005KT 060V130 CAVOK 23/14 Q1016 NOSIG RMK RWY17L 11004KT RWY34L 11005KT RWY16R 10006KT RWY36 11004KT 040V140 RWY18 11004KT",
    "metar_obs_time": "2025-06-19 18:20:00",
    "taf": "TAF LTFM 191640Z 1918/2024 07012KT CAVOK BECMG 1918/1920 13006KT BECMG 1923/2001 21010KT BECMG 2006/2009 02015KT SCT016 BECMG 2012/2015 BKN008",
    "taf_obs_time": "2025-06-19 16:40:00",
    "fetched_at": "2025-06-19T18:48:26.599556Z"
  },
  "LTFJ": {
    "icao": "LTFJ",
    "metar": "LTFJ 191820Z 03010KT CAVOK 23/12 Q1015 NOSIG RMK RWY24R 02007KT RWY06R 02011KT RWY24L 02007KT",
    "metar_obs_time": "2025-06-19 18:20:00",
    "taf": "TAF LTFJ 191640Z 1918/2018 05007KT CAVOK BECMG 2004/2007 24010KT SCT035 BECMG 2009/2013 02014KT CAVOK BECMG 2015/2018 SCT012 BKN030",
    "taf_obs_time": "2025-06-19 16:40:00",
    "fetched_at": "2025-06-19T18:48:26.599556Z"
  },
  "LTBA": {
    "icao": "LTBA",
    "metar": "LTBA 191820Z 05008KT CAVOK 24/08 Q1015 RMK RWY23 06008KT",
    "metar_obs_time": "2025-06-19 18:20:00",
    "taf": "TAF LTBA 191640Z 1918/2018 04015KT CAVOK BECMG 1918/1920 04005KT BECMG 2003/2006 20010KT BECMG 2010/2012 02015KT",
    "taf_obs_time": "2025-06-19 16:40:00",
    "fetched_at": "2025-06-19T18:48:26.599556Z"
  },
  "LTBU": {
    "icao": "LTBU",
    "metar": "LTBU 191820Z 06006KT CAVOK 22/12 Q1015 RMK RWY22 07004KT",
    "metar_obs_time": "2025-06-19 18:20:00",
    "taf": "TAF LTBU 191640Z 1918/2018 06012KT CAVOK BECMG 1918/1920 36006KT BECMG 2006/2009 06012KT SCT022 TEMPO 2009/2012 -SHRA FEW018CB BKN022",
    "taf_obs_time": "2025-06-19 16:40:00",
    "fetched_at": "2025-06-19T18:48:26.599556Z"
  }
}