{
  "LTFM": {
    "icao": "LTFM",
    "metar": "LTFM 040420Z 20009KT 170V240 CAVOK 22/12 Q1018 NOSIG RMK RWY17L 21006KT RWY34L 20005KT 120V260 RWY16R VRB02KT RWY36 19007KT RWY18 20008KT 180V240",
    "metar_obs_time": "2025-06-04 04:20:00",
    "taf": "TAF LTFM 032240Z 0400/0506 19007KT CAVOK BECMG 0407/0410 07012KT BECMG 0418/0420 VRB02KT",
    "taf_obs_time": "2025-06-03 22:40:00",
    "fetched_at": "2025-06-04T04:58:44.103257Z"
  },
  "LTFJ": {
    "icao": "LTFJ",
    "metar": "LTFJ 040420Z 00000KT CAVOK 21/12 Q1019 NOSIG RMK RWY24R VRB01KT RWY06R 00000KT RWY24L VRB01KT",
    "metar_obs_time": "2025-06-04 04:20:00",
    "taf": "TAF LTFJ 032240Z 0400/0424 05006KT CAVOK BECMG 0405/0408 24010KT BECMG 0411/0414 03009KT",
    "taf_obs_time": "2025-06-03 22:40:00",
    "fetched_at": "2025-06-04T04:58:44.103257Z"
  },
  "LTBA": {
    "icao": "LTBA",
    "metar": "LTBA 040420Z 11004KT 050V140 CAVOK 21/15 Q1018 RMK RWY23 12004KT 090V160",
    "metar_obs_time": "2025-06-04 04:20:00",
    "taf": "TAF LTBA 032240Z 0400/0424 VRB02KT CAVOK BECMG 0406/0409 22012KT BECMG 0416/0418 05007KT",
    "taf_obs_time": "2025-06-03 22:40:00",
    "fetched_at": "2025-06-04T04:58:44.103257Z"
  },
  "LTBU": {
    "icao": "LTBU",
    "metar": "LTBU 040420Z 00000KT CAVOK 22/13 Q1018 RMK RWY22 VRB02KT",
    "metar_obs_time": "2025-06-04 04:20:00",
    "taf": "TAF LTBU 032240Z 0400/0424 VRB02KT CAVOK BECMG 0407/0410 17012KT FEW040 BECMG 0416/0418 04006KT CAVOK",
    "taf_obs_time": "2025-06-03 22:40:00",
    "fetched_at": "2025-06-04T04:58:44.103257Z"
  }
}