{
  "LTFM": {
    "icao": "LTFM",
    "metar": "LTFM 172320Z 04004KT 360V090 9999 FEW004 22/20 Q1018 NOSIG RMK RWY17L 32004KT 270V040 RWY34L 32002KT RWY16R 25004KT 240V300 RWY36 04004KT 360V100 RWY18 00000KT",
    "metar_obs_time": "2025-06-17 23:20:00",
    "taf": "TAF LTFM 172240Z 1800/1906 32006KT 9999 FEW008 TEMPO 1800/1804 2000 BCFG BKN004 BECMG 1804/1807 02012KT CAVOK BECMG 1816/1819 08006KT SCT008 PROB40 TEMPO 1900/1904 2000 BCFG BKN004",
    "taf_obs_time": "2025-06-17 22:40:00",
    "fetched_at": "2025-06-17T23:55:55.619479Z"
  },
  "LTFJ": {
    "icao": "LTFJ",
    "metar": "LTFJ 172320Z 07005KT CAVOK 19/15 Q1017 NOSIG RMK RWY24R VRB02KT RWY06R 05006KT RWY24L 05003KT 010V100",
    "metar_obs_time": "2025-06-17 23:20:00",
    "taf": "TAF LTFJ 172240Z 1800/1824 03007KT CAVOK BECMG 1805/1808 24010KT BECMG 1811/1814 03015KT BECMG 1817/1820 03005KT",
    "taf_obs_time": "2025-06-17 22:40:00",
    "fetched_at": "2025-06-17T23:55:55.619479Z"
  },
  "LTBA": {
    "icao": "LTBA",
    "metar": "LTBA 172320Z 02006KT CAVOK 22/16 Q1017 RMK RWY23 35004KT",
    "metar_obs_time": "2025-06-17 23:20:00",
    "taf": "TAF LTBA 172240Z 1800/1824 03010KT CAVOK TEMPO 1800/1804 SCT010",
    "taf_obs_time": "2025-06-17 22:40:00",
    "fetched_at": "2025-06-17T23:55:55.619479Z"
  },
  "LTBU": {
    "icao": "LTBU",
    "metar": "LTBU 172320Z 02004KT CAVOK 18/10 Q1018 RMK RWY22 01006KT",
    "metar_obs_time": "2025-06-17 23:20:00",
    "taf": "TAF LTBU 172240Z 1800/1824 36007KT CAVOK BECMG 1804/1807 06012KT",
    "taf_obs_time": "2025-06-17 22:40:00",
    "fetched_at": "2025-06-17T23:55:55.619479Z"
  }
}