{
  "LTFM": {
    "icao": "LTFM",
    "metar": "LTFM 162220Z 24004KT 210V290 CAVOK 21/11 Q1016 NOSIG RMK RWY17L 27004KT RWY34L 24003KT RWY16R 28003KT 250V310 RWY36 20003KT RWY18 27004KT 200V330",
    "metar_obs_time": "2025-06-16 22:20:00",
    "taf": "TAF LTFM 161640Z 1618/1724 VRB02KT CAVOK BECMG 1705/1708 01012KT BECMG 1715/1718 VRB02KT",
    "taf_obs_time": "2025-06-16 16:40:00",
    "fetched_at": "2025-06-16T22:50:38.265714Z"
  },
  "LTFJ": {
    "icao": "LTFJ",
    "metar": "LTFJ 162220Z 05003KT 020V080 CAVOK 21/11 Q1016 NOSIG RMK RWY24R VRB02KT RWY06R 04006KT RWY24L 05005KT",
    "metar_obs_time": "2025-06-16 22:20:00",
    "taf": "TAF LTFJ 161640Z 1618/1718 05012KT CAVOK BECMG 1619/1622 VRB02KT BECMG 1710/1714 01012KT",
    "taf_obs_time": "2025-06-16 16:40:00",
    "fetched_at": "2025-06-16T22:50:38.265714Z"
  },
  "LTBA": {
    "icao": "LTBA",
    "metar": "LTBA 162220Z 14001KT CAVOK 21/13 Q1016 RMK RWY23 VRB02KT",
    "metar_obs_time": "2025-06-16 22:20:00",
    "taf": "TAF LTBA 161640Z 1618/1718 VRB02KT CAVOK BECMG 1705/1708 21012KT BECMG 1711/1714 03009KT",
    "taf_obs_time": "2025-06-16 16:40:00",
    "fetched_at": "2025-06-16T22:50:38.265714Z"
  },
  "LTBU": {
    "icao": "LTBU",
    "metar": "LTBU 162220Z 00000KT CAVOK 16/12 Q1016 RMK RWY22 24002KT",
    "metar_obs_time": "2025-06-16 22:20:00",
    "taf": "TAF LTBU 161640Z 1618/1718 VRB02KT CAVOK BECMG 1621/1624 35012KT BECMG 1710/1713 13007KT",
    "taf_obs_time": "2025-06-16 16:40:00",
    "fetched_at": "2025-06-16T22:50:38.265714Z"
  }
}