{
  "LTFM": {
    "icao": "LTFM",
    "metar": "LTFM 040250Z 17007KT 150V250 CAVOK 19/12 Q1018 NOSIG RMK RWY17L 18006KT RWY34L 18005KT RWY16R 18004KT RWY36 17006KT RWY18 19010KT",
    "metar_obs_time": "2025-06-04 02:50:00",
    "taf": "TAF LTFM 032240Z 0400/0506 19007KT CAVOK BECMG 0407/0410 07012KT BECMG 0418/0420 VRB02KT",
    "taf_obs_time": "2025-06-03 22:40:00",
    "fetched_at": "2025-06-04T03:08:34.338334Z"
  },
  "LTFJ": {
    "icao": "LTFJ",
    "metar": "LTFJ 040250Z VRB01KT CAVOK 17/12 Q1018 NOSIG RMK RWY24R 00000KT RWY06R 03003KT RWY24L 07003KT",
    "metar_obs_time": "2025-06-04 02:50:00",
    "taf": "TAF LTFJ 032240Z 0400/0424 05006KT CAVOK BECMG 0405/0408 24010KT BECMG 0411/0414 03009KT",
    "taf_obs_time": "2025-06-03 22:40:00",
    "fetched_at": "2025-06-04T03:08:34.338334Z"
  },
  "LTBA": {
    "icao": "LTBA",
    "metar": "LTBA 040250Z VRB01KT CAVOK 19/14 Q1018 RMK RWY23 24002KT",
    "metar_obs_time": "2025-06-04 02:50:00",
    "taf": "TAF LTBA 032240Z 0400/0424 VRB02KT CAVOK BECMG 0406/0409 22012KT BECMG 0416/0418 05007KT",
    "taf_obs_time": "2025-06-03 22:40:00",
    "fetched_at": "2025-06-04T03:08:34.338334Z"
  },
  "LTBU": {
    "icao": "LTBU",
    "metar": "LTBU 040250Z 28002KT CAVOK 18/08 Q1018 RMK RWY22 25005KT",
    "metar_obs_time": "2025-06-04 02:50:00",
    "taf": "TAF LTBU 032240Z 0400/0424 VRB02KT CAVOK BECMG 0407/0410 17012KT FEW040 BECMG 0416/0418 04006KT CAVOK",
    "taf_obs_time": "2025-06-03 22:40:00",
    "fetched_at": "2025-06-04T03:08:34.338334Z"
  }
}