{
  "LTFM": {
    "icao": "LTFM",
    "metar": "LTFM 070450Z 06012KT 9999 BKN011 20/17 Q1018 NOSIG RMK RWY17L 05010KT RWY34L 04011KT 010V070 RWY16R 05011KT RWY36 05012KT RWY18 06010KT",
    "metar_obs_time": "2025-06-07 04:50:00",
    "taf": "TAF LTFM 070440Z 0706/0812 05009KT 9999 BKN011 BECMG 0706/0709 03017G27KT BECMG 0709/0712 SCT012 BECMG 0716/0719 04010KT CAVOK BECMG 0802/0805 BKN012",
    "taf_obs_time": "2025-06-07 04:40:00",
    "fetched_at": "2025-06-07T05:20:19.345362Z"
  },
  "LTFJ": {
    "icao": "LTFJ",
    "metar": "LTFJ 070450Z 06010KT CAVOK 20/16 Q1017 NOSIG RMK RWY24R 05006KT 020V080 RWY06R 04010KT RWY24L 03007KT",
    "metar_obs_time": "2025-06-07 04:50:00",
    "taf": "TAF LTFJ 070440Z 0706/0806 04009KT CAVOK BECMG 0708/0712 05019KT BECMG 0716/0719 05009KT TEMPO 0802/0806 SCT015",
    "taf_obs_time": "2025-06-07 04:40:00",
    "fetched_at": "2025-06-07T05:20:19.345362Z"
  },
  "LTBA": {
    "icao": "LTBA",
    "metar": "LTBA 070450Z 05010KT 9999 SCT017 21/17 Q1017 RMK RWY23 05009KT 020V080",
    "metar_obs_time": "2025-06-07 04:50:00",
    "taf": "TAF LTBA 070440Z 0706/0806 05012KT 9999 BKN014 BECMG 0706/0709 02017G27KT SCT018 BECMG 0718/0721 03008KT",
    "taf_obs_time": "2025-06-07 04:40:00",
    "fetched_at": "2025-06-07T05:20:19.345362Z"
  },
  "LTBU": {
    "icao": "LTBU",
    "metar": "LTBU 070450Z 02010KT CAVOK 19/17 Q1018 RMK RWY22 02009KT",
    "metar_obs_time": "2025-06-07 04:50:00",
    "taf": "TAF LTBU 070440Z 0706/0806 03015G25KT 9999 SCT018 BECMG 0708/0711 CAVOK BECMG 0716/0719 01008KT TEMPO 0800/0804 2500 BCFG BKN009",
    "taf_obs_time": "2025-06-07 04:40:00",
    "fetched_at": "2025-06-07T05:20:19.345362Z"
  }
}