{
  "LTFM": {
    "icao": "LTFM",
    "metar": "LTFM 150820Z 36011KT 310V030 9999 SCT028 22/14 Q1019 NOSIG RMK RWY17L 36010KT 330V030 RWY34L 35011KT 310V020 RWY16R 34010KT 300V020 RWY36 36011KT 320V030 RWY18 36009KT 330V040",
    "metar_obs_time": "2025-06-15 08:20:00",
    "taf": "TAF LTFM 150440Z 1506/1612 01014KT 9999 SCT028 BECMG 1512/1515 CAVOK BECMG 1516/1519 VRB02KT BECMG 1605/1608 01012KT",
    "taf_obs_time": "2025-06-15 04:40:00",
    "fetched_at": "2025-06-15T08:46:24.842208Z"
  },
  "LTFJ": {
    "icao": "LTFJ",
    "metar": "LTFJ 150820Z 25006KT 210V290 9999 SCT030 22/15 Q1018 NOSIG RMK RWY24R 04006KT 320V080 RWY06R 22008KT RWY24L VRB05KT",
    "metar_obs_time": "2025-06-15 08:20:00",
    "taf": "TAF LTFJ 150440Z 1506/1606 04005KT 9999 SCT035 BECMG 1509/1512 04015KT PROB30 TEMPO 1509/1512 -SHRA BKN030 BECMG 1512/1514 CAVOK BECMG 1517/1520 04005KT",
    "taf_obs_time": "2025-06-15 04:40:00",
    "fetched_at": "2025-06-15T08:46:24.842208Z"
  },
  "LTBA": {
    "icao": "LTBA",
    "metar": "LTBA 150820Z 20008KT 170V230 9999 BKN035 21/16 Q1018 RMK RWY23 18006KT 150V210",
    "metar_obs_time": "2025-06-15 08:20:00",
    "taf": "TAF LTBA 150440Z 1506/1606 01015KT 9999 SCT032 BECMG 1511/1514 CAVOK BECMG 1516/1519 VRB02KT",
    "taf_obs_time": "2025-06-15 04:40:00",
    "fetched_at": "2025-06-15T08:46:24.842208Z"
  },
  "LTBU": {
    "icao": "LTBU",
    "metar": "LTBU 150820Z 02008KT 310V060 9999 SCT035 25/11 Q1019 RMK RWY22 02007KT 350V090",
    "metar_obs_time": "2025-06-15 08:20:00",
    "taf": "TAF LTBU 150440Z 1506/1606 04015KT 9999 SCT032 BECMG 1511/1514 CAVOK BECMG 1516/1519 VRB02KT",
    "taf_obs_time": "2025-06-15 04:40:00",
    "fetched_at": "2025-06-15T08:46:24.842208Z"
  }
}