{
  "LTFM": {
    "icao": "LTFM",
    "metar": "LTFM 091020Z 02011KT 350V050 9999 FEW016 23/17 Q1016 NOSIG RMK RWY17L 02009KT RWY34L 02011KT 330V050 RWY16R 01010KT 330V040 RWY36 03011KT 350V050 RWY18 04009KT 360V060",
    "metar_obs_time": "2025-06-09 10:20:00",
    "taf": "TAF LTFM 090440Z 0906/1012 04005KT 9999 BKN015 BECMG 0906/0909 02015KT SCT016 BECMG 0912/0915 CAVOK BECMG 0918/0921 03005KT SCT015 PROB30 TEMPO 0922/1002 4000 BR BKN006 BECMG 1006/1009 03016KT",
    "taf_obs_time": "2025-06-09 04:40:00",
    "fetched_at": "2025-06-09T10:46:00.339338Z"
  },
  "LTFJ": {
    "icao": "LTFJ",
    "metar": "LTFJ 091020Z 23006KT 170V270 CAVOK 25/16 Q1014 NOSIG RMK RWY24R VRB05G15KT RWY06R 23006KT 160V280 RWY24L 28006KT 210V020",
    "metar_obs_time": "2025-06-09 10:20:00",
    "taf": "TAF LTFJ 090440Z 0906/1006 04006KT 9999 BKN016 BECMG 0906/0909 03016KT CAVOK BECMG 0919/0922 04006KT SCT008 BECMG 0922/1001 BKN006 PROB30 TEMPO 1001/1005 4000 BR",
    "taf_obs_time": "2025-06-09 04:40:00",
    "fetched_at": "2025-06-09T10:46:00.339338Z"
  },
  "LTBA": {
    "icao": "LTBA",
    "metar": "LTBA 091020Z 24009KT CAVOK 24/17 Q1015 RMK RWY23 24008KT",
    "metar_obs_time": "2025-06-09 10:20:00",
    "taf": "TAF LTBA 090440Z 0906/1006 03005KT 9999 SCT012 BECMG 0906/0909 03015G25KT CAVOK BECMG 0915/0918 03008KT SCT018 PROB30 0922/1002 2200 BCFG BKN004 BECMG 1003/1006 03018KT",
    "taf_obs_time": "2025-06-09 04:40:00",
    "fetched_at": "2025-06-09T10:46:00.339338Z"
  },
  "LTBU": {
    "icao": "LTBU",
    "metar": "LTBU 091020Z VRB08KT CAVOK 29/13 Q1015 RMK RWY22 04008KT 340V080",
    "metar_obs_time": "2025-06-09 10:20:00",
    "taf": "TAF LTBU 090440Z 0906/1006 03005KT 3200 BR BKN010 BECMG 0906/0909 03015KT CAVOK BECMG 0917/0920 04005KT BECMG 1003/1006 03018KT",
    "taf_obs_time": "2025-06-09 04:40:00",
    "fetched_at": "2025-06-09T10:46:00.339338Z"
  }
}