{
  "LTFM": {
    "icao": "LTFM",
    "metar": "LTFM 040320Z 19006KT 160V220 CAVOK 19/12 Q1018 NOSIG RMK RWY17L 19007KT RWY34L 18005KT RWY16R VRB01KT RWY36 18006KT RWY18 19009KT",
    "metar_obs_time": "2025-06-04 03:20:00",
    "taf": "TAF LTFM 032240Z 0400/0506 19007KT CAVOK BECMG 0407/0410 07012KT BECMG 0418/0420 VRB02KT",
    "taf_obs_time": "2025-06-03 22:40:00",
    "fetched_at": "2025-06-04T03:53:48.978860Z"
  },
  "LTFJ": {
    "icao": "LTFJ",
    "metar": "LTFJ 040320Z 07003KT 040V120 CAVOK 16/12 Q1018 NOSIG RMK RWY24R 10002KT RWY06R 06004KT RWY24L 08004KT",
    "metar_obs_time": "2025-06-04 03:20:00",
    "taf": "TAF LTFJ 032240Z 0400/0424 05006KT CAVOK BECMG 0405/0408 24010KT BECMG 0411/0414 03009KT",
    "taf_obs_time": "2025-06-03 22:40:00",
    "fetched_at": "2025-06-04T03:53:48.978860Z"
  },
  "LTBA": {
    "icao": "LTBA",
    "metar": "LTBA 040320Z 12003KT CAVOK 19/14 Q1018 RMK RWY23 13003KT 110V170",
    "metar_obs_time": "2025-06-04 03:20:00",
    "taf": "TAF LTBA 032240Z 0400/0424 VRB02KT CAVOK BECMG 0406/0409 22012KT BECMG 0416/0418 05007KT",
    "taf_obs_time": "2025-06-03 22:40:00",
    "fetched_at": "2025-06-04T03:53:48.978860Z"
  },
  "LTBU": {
    "icao": "LTBU",
    "metar": "LTBU 040320Z 27003KT CAVOK 16/10 Q1018 RMK RWY22 24004KT",
    "metar_obs_time": "2025-06-04 03:20:00",
    "taf": "TAF LTBU 032240Z 0400/0424 VRB02KT CAVOK BECMG 0407/0410 17012KT FEW040 BECMG 0416/0418 04006KT CAVOK",
    "taf_obs_time": "2025-06-03 22:40:00",
    "fetched_at": "2025-06-04T03:53:48.978860Z"
  }
}