{
  "LTFM": {
    "icao": "LTFM",
    "metar": "LTFM 161620Z 08005KT 020V120 CAVOK 25/10 Q1016 NOSIG RMK RWY17L 08005KT RWY34L 05004KT 360V100 RWY16R 07005KT 020V100 RWY36 08004KT 020V120 RWY18 10004KT 060V130",
    "metar_obs_time": "2025-06-16 16:20:00",
    "taf": "TAF LTFM 161040Z 1612/1718 03012KT CAVOK BECMG 1615/1618 VRB02KT PROB30 1701/1705 4000 BR SCT008 BECMG 1705/1708 01012KT",
    "taf_obs_time": "2025-06-16 10:40:00",
    "fetched_at": "2025-06-16T16:50:59.575431Z"
  },
  "LTFJ": {
    "icao": "LTFJ",
    "metar": "LTFJ 161620Z 04008KT CAVOK 25/10 Q1016 NOSIG RMK RWY24R 06007KT 030V130 RWY06R 05008KT 020V080 RWY24L 02007KT",
    "metar_obs_time": "2025-06-16 16:20:00",
    "taf": "TAF LTFJ 161040Z 1612/1712 27012KT 9999 SCT040 BECMG 1612/1615 02012KT CAVOK BECMG 1619/1622 VRB02KT BECMG 1709/1712 01012KT",
    "taf_obs_time": "2025-06-16 10:40:00",
    "fetched_at": "2025-06-16T16:50:59.575431Z"
  },
  "LTBA": {
    "icao": "LTBA",
    "metar": "LTBA 161620Z 26005KT CAVOK 25/15 Q1016 RMK RWY23 06007KT 020V080",
    "metar_obs_time": "2025-06-16 16:20:00",
    "taf": "TAF LTBA 161040Z 1612/1712 21007KT CAVOK BECMG 1612/1615 04012KT BECMG 1618/1621 VRB02KT BECMG 1705/1708 21012KT",
    "taf_obs_time": "2025-06-16 10:40:00",
    "fetched_at": "2025-06-16T16:50:59.575431Z"
  },
  "LTBU": {
    "icao": "LTBU",
    "metar": "LTBU 161620Z 14007KT CAVOK 25/11 Q1016 RMK RWY22 15007KT",
    "metar_obs_time": "2025-06-16 16:20:00",
    "taf": "TAF LTBU 161040Z 1612/1712 04010KT CAVOK BECMG 1616/1619 20007KT BECMG 1707/1710 01012KT",
    "taf_obs_time": "2025-06-16 10:40:00",
    "fetched_at": "2025-06-16T16:50:59.575431Z"
  }
}