{
  "LTFM": {
    "icao": "LTFM",
    "metar": "LTFM 010120Z 35008KT 9999 FEW008 16/14 Q1017 NOSIG RMK RWY17L 35006KT RWY34L 33004KT RWY16R 35004KT RWY36 36007KT RWY18 36007KT",
    "metar_obs_time": "2025-06-01 01:20:00",
    "taf": "TAF LTFM 312240Z 0100/0206 01009KT CAVOK BECMG 0100/0102 SCT008 BKN025 PROB30 TEMPO 0104/0108 -SHRA BECMG 0109/0112 SCT028 BECMG 0112/0114 CAVOK BECMG 0118/0121 SCT006 BKN025",
    "taf_obs_time": "2025-05-31 22:40:00",
    "fetched_at": "2025-06-01T01:41:02.296903Z"
  },
  "LTFJ": {
    "icao": "LTFJ",
    "metar": "LTFJ 010120Z 04006KT 6000 BKN009 15/13 Q1017 NOSIG RMK RWY24R 04004KT 010V070 RWY06R 03006KT RWY24L 03006KT",
    "metar_obs_time": "2025-06-01 01:20:00",
    "taf": "TAF AMD LTFJ 312334Z 0100/0124 04005KT 4000 BR BKN006 TEMPO 0100/0104 1600 BCFG BKN004 BECMG 0106/0108 03015KT BKN030 TEMPO 0108/0112 -SHRA FEW020CB BKN030 BECMG 0113/0116 CAVOK BECMG 0118/0121 04005KT SCT006 BECMG 0121/0124 BKN006",
    "taf_obs_time": "2025-05-31 23:34:00",
    "fetched_at": "2025-06-01T01:41:02.296903Z"
  },
  "LTBA": {
    "icao": "LTBA",
    "metar": "LTBA 010120Z 35006KT 9999 SCT035 16/14 Q1017 RMK RWY23 36006KT",
    "metar_obs_time": "2025-06-01 01:20:00",
    "taf": "TAF LTBA 312240Z 0100/0124 03007KT CAVOK BECMG 0100/0103 SCT035 BECMG 0106/0109 01017KT PROB30 TEMPO 0107/0111 -SHRA BKN025 BECMG 0111/0114 CAVOK BECMG 0115/0118 SCT006 BKN025",
    "taf_obs_time": "2025-05-31 22:40:00",
    "fetched_at": "2025-06-01T01:41:02.296903Z"
  },
  "LTBU": {
    "icao": "LTBU",
    "metar": "LTBU 010120Z 33007KT CAVOK 12/08 Q1017 RMK RWY22 32005KT",
    "metar_obs_time": "2025-06-01 01:20:00",
    "taf": "TAF LTBU 312240Z 0100/0124 36007KT CAVOK BECMG 0103/0105 SCT035 BECMG 0105/0108 02017KT BECMG 0115/0118 35007KT",
    "taf_obs_time": "2025-05-31 22:40:00",
    "fetched_at": "2025-06-01T01:41:02.296903Z"
  }
}