{
  "LTFM": {
    "icao": "LTFM",
    "metar": "LTFM 022320Z 32007G18KT 280V350 CAVOK 18/12 Q1020 NOSIG RMK RWY17L 30003KT 270V330 RWY34L VRB01KT RWY16R 31004KT RWY36 34004KT 270V010 RWY18 31006KT 260V330",
    "metar_obs_time": "2025-06-02 23:20:00",
    "taf": "TAF LTFM 022240Z 0300/0406 VRB02KT CAVOK BECMG 0305/0308 06012KT BECMG 0316/0319 19007KT",
    "taf_obs_time": "2025-06-02 22:40:00",
    "fetched_at": "2025-06-02T23:47:25.295537Z"
  },
  "LTFJ": {
    "icao": "LTFJ",
    "metar": "LTFJ 022320Z 06007KT CAVOK 15/13 Q1019 NOSIG RMK RWY24R 08005KT RWY06R 06007KT RWY24L 05006KT",
    "metar_obs_time": "2025-06-02 23:20:00",
    "taf": "TAF LTFJ 022240Z 0300/0324 03007KT CAVOK BECMG 0304/0307 24010KT BECMG 0309/0312 02010KT",
    "taf_obs_time": "2025-06-02 22:40:00",
    "fetched_at": "2025-06-02T23:47:25.295537Z"
  },
  "LTBA": {
    "icao": "LTBA",
    "metar": "LTBA 022320Z 35004KT CAVOK 18/10 Q1019 RMK RWY23 34003KT",
    "metar_obs_time": "2025-06-02 23:20:00",
    "taf": "TAF LTBA 022240Z 0300/0324 VRB02KT CAVOK BECMG 0306/0309 21012KT BECMG 0313/0316 05007KT",
    "taf_obs_time": "2025-06-02 22:40:00",
    "fetched_at": "2025-06-02T23:47:25.295537Z"
  },
  "LTBU": {
    "icao": "LTBU",
    "metar": "LTBU 022320Z 35004KT CAVOK 13/10 Q1020 RMK RWY22 36005KT",
    "metar_obs_time": "2025-06-02 23:20:00",
    "taf": "TAF LTBU 022240Z 0300/0324 VRB02KT CAVOK BECMG 0308/0310 17012KT BECMG 0316/0319 VRB02KT",
    "taf_obs_time": "2025-06-02 22:40:00",
    "fetched_at": "2025-06-02T23:47:25.295537Z"
  }
}