{
  "LTFM": {
    "icao": "LTFM",
    "metar": "LTFM 102320Z 03010KT 9999 FEW014 20/17 Q1016 NOSIG RMK RWY17L 04010KT RWY34L 02010KT RWY16R 03010KT RWY36 03011KT RWY18 04010KT",
    "metar_obs_time": "2025-06-10 23:20:00",
    "taf": "TAF LTFM 102240Z 1100/1206 05012KT 9999 FEW014 BECMG 1103/1106 04015G25KT BECMG 1106/1109 CAVOK BECMG 1117/1120 36005KT BKN006 PROB30 TEMPO 1122/1202 4000 BR",
    "taf_obs_time": "2025-06-10 22:40:00",
    "fetched_at": "2025-06-10T23:45:44.218589Z"
  },
  "LTFJ": {
    "icao": "LTFJ",
    "metar": "LTFJ 102320Z 05008KT 9999 BKN019 19/17 Q1016 NOSIG RMK RWY24R 06004KT RWY06R 04008KT RWY24L 04006KT",
    "metar_obs_time": "2025-06-10 23:20:00",
    "taf": "TAF LTFJ 102240Z 1100/1124 03012KT 9999 SCT022 TEMPO 1100/1104 BKN016 BECMG 1108/1111 CAVOK TEMPO 1112/1116 04015G25KT BECMG 1121/1124 3500 BR SCT012",
    "taf_obs_time": "2025-06-10 22:40:00",
    "fetched_at": "2025-06-10T23:45:44.218589Z"
  },
  "LTBA": {
    "icao": "LTBA",
    "metar": "LTBA 102320Z 04013KT CAVOK 20/16 Q1016 RMK RWY23 04009KT",
    "metar_obs_time": "2025-06-10 23:20:00",
    "taf": "TAF LTBA 102240Z 1100/1124 05012KT 9999 FEW018 BECMG 1100/1102 BKN022 BECMG 1104/1107 03018G28KT SCT025 BECMG 1107/1109 CAVOK BECMG 1116/1119 03007KT",
    "taf_obs_time": "2025-06-10 22:40:00",
    "fetched_at": "2025-06-10T23:45:44.218589Z"
  },
  "LTBU": {
    "icao": "LTBU",
    "metar": "LTBU 102320Z 02008KT CAVOK 18/13 Q1016 RMK RWY22 02008KT",
    "metar_obs_time": "2025-06-10 23:20:00",
    "taf": "TAF LTBU 102240Z 1100/1124 02008KT 9999 FEW018 BECMG 1104/1107 04018G28KT CAVOK BECMG 1116/1119 01007KT SCT014 PROB30 TEMPO 1120/1124 2500 BR",
    "taf_obs_time": "2025-06-10 22:40:00",
    "fetched_at": "2025-06-10T23:45:44.218589Z"
  }
}