{
  "LTFM": {
    "icao": "LTFM",
    "metar": "LTFM 201520Z 04020KT 9999 BKN016 BKN025 23/18 Q1015 NOSIG RMK RWY17L 04017KT RWY34L 03017KT RWY16R 03016KT RWY36 03018KT RWY18 04016KT",
    "metar_obs_time": "2025-06-20 15:20:00",
    "taf": "TAF LTFM 201040Z 2012/2118 34020KT 9999 BKN012 BKN025 BECMG 2012/2015 04018KT PROB30 TEMPO 2015/2019 -SHRA FEW018TCU BKN022",
    "taf_obs_time": "2025-06-20 10:40:00",
    "fetched_at": "2025-06-20T15:37:50.823890Z"
  },
  "LTFJ": {
    "icao": "LTFJ",
    "metar": "LTFJ 201520Z 02018KT 350V050 9999 SCT025 25/19 Q1013 NOSIG RMK RWY24R 03017KT RWY06R 02018KT RWY24L 01015KT",
    "metar_obs_time": "2025-06-20 15:20:00",
    "taf": "TAF LTFJ 201040Z 2012/2112 23009KT 9999 FEW035 BECMG 2012/2015 03012KT BECMG 2015/2019 BKN025 PROB30 TEMPO 2020/2024 -SHRA BECMG 2103/2106 SCT035 BECMG 2106/2109 CAVOK",
    "taf_obs_time": "2025-06-20 10:40:00",
    "fetched_at": "2025-06-20T15:37:50.823890Z"
  },
  "LTBA": {
    "icao": "LTBA",
    "metar": "LTBA 201520Z 02019KT 9999 SCT024 25/18 Q1013 RMK RWY23 03016KT",
    "metar_obs_time": "2025-06-20 15:20:00",
    "taf": "TAF LTBA 201040Z 2012/2112 35018KT CAVOK BECMG 2012/2015 SCT025 BECMG 2015/2018 05015KT BKN012 BECMG 2020/2023 FEW025",
    "taf_obs_time": "2025-06-20 10:40:00",
    "fetched_at": "2025-06-20T15:37:50.823890Z"
  },
  "LTBU": {
    "icao": "LTBU",
    "metar": "LTBU 201520Z 03018KT CAVOK 23/16 Q1014 RMK RWY22 05013KT",
    "metar_obs_time": "2025-06-20 15:20:00",
    "taf": "TAF LTBU 201040Z 2012/2112 05018KT 9999 SCT045 TEMPO 2012/2016 03016G26KT -SHRA FEW018CB BKN022 BECMG 2018/2021 03008KT CAVOK BECMG 2102/2105 SCT045 BECMG 2106/2109 05018KT",
    "taf_obs_time": "2025-06-20 10:40:00",
    "fetched_at": "2025-06-20T15:37:50.823890Z"
  }
}