{
  "LTFM": {
    "icao": "LTFM",
    "metar": "LTFM 032220Z 20007KT CAVOK 21/12 Q1018 NOSIG RMK RWY17L 19007KT RWY34L VRB02KT RWY16R 18004KT 160V220 RWY36 19006KT RWY18 20008KT 140V210",
    "metar_obs_time": "2025-06-03 22:20:00",
    "taf": "TAF LTFM 031640Z 0318/0424 10010KT CAVOK BECMG 0318/0320 18006KT BECMG 0407/0410 07012KT BECMG 0418/0420 VRB02KT",
    "taf_obs_time": "2025-06-03 16:40:00",
    "fetched_at": "2025-06-03T22:50:27.288560Z"
  },
  "LTFJ": {
    "icao": "LTFJ",
    "metar": "LTFJ 032220Z 06004KT CAVOK 19/11 Q1017 NOSIG RMK RWY24R 05003KT 360V080 RWY06R 06005KT RWY24L 05004KT",
    "metar_obs_time": "2025-06-03 22:20:00",
    "taf": "TAF LTFJ 031640Z 0318/0418 05006KT CAVOK BECMG 0405/0408 23010KT BECMG 0409/0412 03009KT SCT040 BECMG 0413/0416 CAVOK",
    "taf_obs_time": "2025-06-03 16:40:00",
    "fetched_at": "2025-06-03T22:50:27.288560Z"
  },
  "LTBA": {
    "icao": "LTBA",
    "metar": "LTBA 032220Z 00000KT CAVOK 21/12 Q1017 RMK RWY23 00000KT",
    "metar_obs_time": "2025-06-03 22:20:00",
    "taf": "TAF LTBA 031640Z 0318/0418 05005KT CAVOK BECMG 0406/0409 22010KT BECMG 0416/0418 05007KT",
    "taf_obs_time": "2025-06-03 16:40:00",
    "fetched_at": "2025-06-03T22:50:27.288560Z"
  },
  "LTBU": {
    "icao": "LTBU",
    "metar": "LTBU 032220Z 30002KT CAVOK 17/09 Q1018 RMK RWY22 25004KT",
    "metar_obs_time": "2025-06-03 22:20:00",
    "taf": "TAF LTBU 031640Z 0318/0418 VRB02KT CAVOK BECMG 0407/0410 17012KT FEW040 BECMG 0416/0418 VRB02KT CAVOK",
    "taf_obs_time": "2025-06-03 16:40:00",
    "fetched_at": "2025-06-03T22:50:27.288560Z"
  }
}