{
  "LTFM": {
    "icao": "LTFM",
    "metar": "LTFM 011650Z 01007KT 320V030 CAVOK 19/13 Q1018 NOSIG RMK RWY17L 35006KT RWY34L 33006KT 290V350 RWY16R 33005KT RWY36 35007KT 310V020 RWY18 33008KT 300V360",
    "metar_obs_time": "2025-06-01 16:50:00",
    "taf": "TAF LTFM 011640Z 0118/0224 33007KT CAVOK BECMG 0118/0120 SCT008 BECMG 0120/0122 BKN004 PROB40 0121/0124 2500 BR PROB30 0200/0204 1200 BCFG OVC002 BECMG 0204/0207 03010KT SCT008 BECMG 0207/0210 CAVOK BECMG 0215/0219 13005KT",
    "taf_obs_time": "2025-06-01 16:40:00",
    "fetched_at": "2025-06-01T17:22:42.199447Z"
  },
  "LTFJ": {
    "icao": "LTFJ",
    "metar": "LTFJ 011650Z 03010KT 9999 FEW035 21/11 Q1017 NOSIG RMK RWY24R 03009KT RWY06R 03011KT RWY24L 02009KT",
    "metar_obs_time": "2025-06-01 16:50:00",
    "taf": "TAF LTFJ 011640Z 0118/0218 03009KT 9999 SCT035 BECMG 0121/0201 BKN011 TEMPO 0201/0203 4000 BR BKN006 PROB30 TEMPO 0202/0205 1200 BCFG BKN004 BECMG 0205/0208 SCT035 BECMG 0211/0215 CAVOK",
    "taf_obs_time": "2025-06-01 16:40:00",
    "fetched_at": "2025-06-01T17:22:42.199447Z"
  },
  "LTBA": {
    "icao": "LTBA",
    "metar": "LTBA 011650Z 02009KT 350V050 CAVOK 22/08 Q1017 RMK RWY23 03011KT",
    "metar_obs_time": "2025-06-01 16:50:00",
    "taf": "TAF LTBA 011640Z 0118/0218 35012KT CAVOK BECMG 0118/0121 SCT010 BECMG 0122/0201 VRB02KT 2000 BR BKN004 PROB30 0201/0204 0700 FG VV002 BECMG 0204/0207 20012KT CAVOK BECMG 0210/0212 02012KT",
    "taf_obs_time": "2025-06-01 16:40:00",
    "fetched_at": "2025-06-01T17:22:42.199447Z"
  },
  "LTBU": {
    "icao": "LTBU",
    "metar": "LTBU 011650Z 03009KT CAVOK 21/07 Q1017 RMK RWY22 05006KT",
    "metar_obs_time": "2025-06-01 16:50:00",
    "taf": "TAF LTBU 011640Z 0118/0218 35007KT CAVOK BECMG 0205/0208 16010KT SCT040 BECMG 0210/0213 05012KT",
    "taf_obs_time": "2025-06-01 16:40:00",
    "fetched_at": "2025-06-01T17:22:42.199447Z"
  }
}