{
  "LTFM": {
    "icao": "LTFM",
    "metar": "LTFM 151720Z 06008KT CAVOK 21/12 Q1017 NOSIG RMK RWY17L 06004KT RWY34L 03006KT 010V070 RWY16R 06005KT RWY36 06006KT 020V080 RWY18 07005KT",
    "metar_obs_time": "2025-06-15 17:20:00",
    "taf": "TAF LTFM 151640Z 1518/1624 04012KT CAVOK BECMG 1518/1520 17007KT BECMG 1523/1601 25010KT TEMPO 1601/1605 FEW032 BECMG 1605/1607 01011KT BECMG 1617/1620 17007KT",
    "taf_obs_time": "2025-06-15 16:40:00",
    "fetched_at": "2025-06-15T17:55:21.749270Z"
  },
  "LTFJ": {
    "icao": "LTFJ",
    "metar": "LTFJ 151720Z 04010KT CAVOK 20/13 Q1017 NOSIG RMK RWY24R 05008KT RWY06R 03011KT RWY24L 03010KT",
    "metar_obs_time": "2025-06-15 17:20:00",
    "taf": "TAF LTFJ 151640Z 1518/1618 03012KT CAVOK BECMG 1519/1522 VRB02KT BECMG 1604/1607 24012KT SCT035 BECMG 1609/1612 03012KT BECMG 1615/1618 VRB02KT",
    "taf_obs_time": "2025-06-15 16:40:00",
    "fetched_at": "2025-06-15T17:55:21.749270Z"
  },
  "LTBA": {
    "icao": "LTBA",
    "metar": "LTBA 151720Z 02010KT CAVOK 22/09 Q1017 RMK RWY23 02009KT",
    "metar_obs_time": "2025-06-15 17:20:00",
    "taf": "TAF LTBA 151640Z 1518/1618 01015KT CAVOK BECMG 1518/1520 03005KT BECMG 1605/1608 18010KT SCT032 BECMG 1610/1612 01012KT CAVOK",
    "taf_obs_time": "2025-06-15 16:40:00",
    "fetched_at": "2025-06-15T17:55:21.749270Z"
  },
  "LTBU": {
    "icao": "LTBU",
    "metar": "LTBU 151720Z 05011KT CAVOK 21/08 Q1017 RMK RWY22 07007KT",
    "metar_obs_time": "2025-06-15 17:20:00",
    "taf": "TAF LTBU 151640Z 1518/1618 05015G25KT CAVOK BECMG 1518/1520 03007KT BECMG 1523/1601 33010KT BECMG 1606/1608 03012KT SCT032 BECMG 1615/1618 VRB02KT",
    "taf_obs_time": "2025-06-15 16:40:00",
    "fetched_at": "2025-06-15T17:55:21.749270Z"
  }
}