{
  "LTFM": {
    "icao": "LTFM",
    "metar": "LTFM 110420Z 03014KT 9999 FEW014 21/16 Q1015 NOSIG",
    "metar_obs_time": "2025-06-11 04:20:00",
    "taf": "TAF LTFM 102240Z 1100/1206 05012KT 9999 FEW014 BECMG 1103/1106 04015G25KT BECMG 1106/1109 CAVOK BECMG 1117/1120 36005KT BKN006 PROB30 TEMPO 1122/1202 4000 BR",
    "taf_obs_time": "2025-06-10 22:40:00",
    "fetched_at": "2025-06-11T04:51:47.011638Z"
  },
  "LTFJ": {
    "icao": "LTFJ",
    "metar": "LTFJ 110420Z 05009KT 9999 BKN016 20/17 Q1014 NOSIG",
    "metar_obs_time": "2025-06-11 04:20:00",
    "taf": "TAF LTFJ 102240Z 1100/1124 03012KT 9999 SCT022 TEMPO 1100/1104 BKN016 BECMG 1108/1111 CAVOK TEMPO 1112/1116 04015G25KT BECMG 1121/1124 3500 BR SCT012",
    "taf_obs_time": "2025-06-10 22:40:00",
    "fetched_at": "2025-06-11T04:51:47.011638Z"
  },
  "LTBA": {
    "icao": "LTBA",
    "metar": "LTBA 110420Z 05013KT CAVOK 21/16 Q1014",
    "metar_obs_time": "2025-06-11 04:20:00",
    "taf": "TAF LTBA 102240Z 1100/1124 05012KT 9999 FEW018 BECMG 1100/1102 BKN022 BECMG 1104/1107 03018G28KT SCT025 BECMG 1107/1109 CAVOK BECMG 1116/1119 03007KT",
    "taf_obs_time": "2025-06-10 22:40:00",
    "fetched_at": "2025-06-11T04:51:47.011638Z"
  },
  "LTBU": {
    "icao": "LTBU",
    "metar": "LTBU 110420Z 01009KT CAVOK 20/14 Q1015",
    "metar_obs_time": "2025-06-11 04:20:00",
    "taf": "TAF LTBU 102240Z 1100/1124 02008KT 9999 FEW018 BECMG 1104/1107 04018G28KT CAVOK BECMG 1116/1119 01007KT SCT014 PROB30 TEMPO 1120/1124 2500 BR",
    "taf_obs_time": "2025-06-10 22:40:00",
    "fetched_at": "2025-06-11T04:51:47.011638Z"
  }
}