{
  "LTFM": {
    "icao": "LTFM",
    "metar": "LTFM 030620Z 17004KT 110V260 CAVOK 24/11 Q1020 NOSIG RMK RWY17L 04005KT RWY34L 17004KT 120V190 RWY16R VRB02KT RWY36 18004KT 110V220 RWY18 04006KT",
    "metar_obs_time": "2025-06-03 06:20:00",
    "taf": "TAF LTFM 030440Z 0306/0412 VRB02KT CAVOK BECMG 0306/0309 06012KT BECMG 0316/0319 18005KT BECMG 0407/0410 05010KT",
    "taf_obs_time": "2025-06-03 04:40:00",
    "fetched_at": "2025-06-03T06:53:33.794886Z"
  },
  "LTFJ": {
    "icao": "LTFJ",
    "metar": "LTFJ 030620Z VRB02KT CAVOK 23/11 Q1020 NOSIG RMK RWY24R VRB02KT RWY06R 22003KT 190V280 RWY24L 26003KT 210V320",
    "metar_obs_time": "2025-06-03 06:20:00",
    "taf": "TAF LTFJ 030440Z 0306/0406 24009KT CAVOK BECMG 0311/0315 03012KT BECMG 0316/0318 VRB02KT",
    "taf_obs_time": "2025-06-03 04:40:00",
    "fetched_at": "2025-06-03T06:53:33.794886Z"
  },
  "LTBA": {
    "icao": "LTBA",
    "metar": "LTBA 030620Z 17004KT 150V210 CAVOK 20/14 Q1020 RMK RWY23 21003KT 160V250",
    "metar_obs_time": "2025-06-03 06:20:00",
    "taf": "TAF LTBA 030440Z 0306/0406 VRB02KT CAVOK BECMG 0307/0310 21012KT BECMG 0313/0316 VRB02KT",
    "taf_obs_time": "2025-06-03 04:40:00",
    "fetched_at": "2025-06-03T06:53:33.794886Z"
  },
  "LTBU": {
    "icao": "LTBU",
    "metar": "LTBU 030620Z 15004KT 090V190 CAVOK 24/08 Q1020 RMK RWY22 VRB03KT",
    "metar_obs_time": "2025-06-03 06:20:00",
    "taf": "TAF LTBU 030440Z 0306/0406 VRB02KT CAVOK BECMG 0307/0310 17012KT BECMG 0316/0319 VRB02KT",
    "taf_obs_time": "2025-06-03 04:40:00",
    "fetched_at": "2025-06-03T06:53:33.794886Z"
  }
}