{
  "LTFM": {
    "icao": "LTFM",
    "metar": "LTFM 200750Z 33007KT 280V030 CAVOK 29/14 Q1014 NOSIG RMK RWY17L 31007KT 280V010 RWY34L 32008KT 270V360 RWY16R 31007KT RWY36 32006KT 250V030 RWY18 36007KT 310V050",
    "metar_obs_time": "2025-06-20 07:50:00",
    "taf": "TAF LTFM 200440Z 2006/2112 23006KT CAVOK BECMG 2006/2009 34013KT SCT016 BECMG 2013/2016 04015KT BKN008 BECMG 2018/2021 SCT016",
    "taf_obs_time": "2025-06-20 04:40:00",
    "fetched_at": "2025-06-20T08:28:20.300612Z"
  },
  "LTFJ": {
    "icao": "LTFJ",
    "metar": "LTFJ 200750Z 22008KT 190V280 9999 FEW035 27/12 Q1014 NOSIG RMK RWY24R 23007KT RWY06R 23008KT 200V260 RWY24L 21007KT 180V240",
    "metar_obs_time": "2025-06-20 07:50:00",
    "taf": "TAF LTFJ 200440Z 2006/2106 24007KT 9999 FEW035 BECMG 2009/2013 03012KT BECMG 2018/2022 BKN035 TEMPO 2023/2102 -SHRA",
    "taf_obs_time": "2025-06-20 04:40:00",
    "fetched_at": "2025-06-20T08:28:20.300612Z"
  },
  "LTBA": {
    "icao": "LTBA",
    "metar": "LTBA 200750Z 21007KT 190V250 CAVOK 24/18 Q1014 RMK RWY23 22006KT 190V270",
    "metar_obs_time": "2025-06-20 07:50:00",
    "taf": "TAF LTBA 200440Z 2006/2106 20006KT CAVOK BECMG 2009/2012 02015KT SCT016 BECMG 2015/2018 BKN009 BECMG 2022/2101 SCT016",
    "taf_obs_time": "2025-06-20 04:40:00",
    "fetched_at": "2025-06-20T08:28:20.300612Z"
  },
  "LTBU": {
    "icao": "LTBU",
    "metar": "LTBU 200750Z VRB03KT CAVOK 30/14 Q1014 RMK RWY22 VRB04KT",
    "metar_obs_time": "2025-06-20 07:50:00",
    "taf": "TAF LTBU 200440Z 2006/2106 VRB02KT CAVOK BECMG 2008/2011 03015KT SCT022 TEMPO 2011/2015 03016G26KT -SHRA FEW018CB BKN022 BECMG 2020/2023 03005KT",
    "taf_obs_time": "2025-06-20 04:40:00",
    "fetched_at": "2025-06-20T08:28:20.300612Z"
  }
}