{
  "LTFM": {
    "icao": "LTFM",
    "metar": "LTFM 040120Z 20006KT 170V270 CAVOK 20/12 Q1018 NOSIG RMK RWY17L 19005KT RWY34L 16004KT RWY16R 18005KT RWY36 19006KT RWY18 21008KT",
    "metar_obs_time": "2025-06-04 01:20:00",
    "taf": "TAF LTFM 032240Z 0400/0506 19007KT CAVOK BECMG 0407/0410 07012KT BECMG 0418/0420 VRB02KT",
    "taf_obs_time": "2025-06-03 22:40:00",
    "fetched_at": "2025-06-04T01:37:52.128749Z"
  },
  "LTFJ": {
    "icao": "LTFJ",
    "metar": "LTFJ 040120Z VRB01KT CAVOK 17/12 Q1018 NOSIG RMK RWY24R 03002KT RWY06R 06003KT RWY24L 07004KT",
    "metar_obs_time": "2025-06-04 01:20:00",
    "taf": "TAF LTFJ 032240Z 0400/0424 05006KT CAVOK BECMG 0405/0408 24010KT BECMG 0411/0414 03009KT",
    "taf_obs_time": "2025-06-03 22:40:00",
    "fetched_at": "2025-06-04T01:37:52.128749Z"
  },
  "LTBA": {
    "icao": "LTBA",
    "metar": "LTBA 040120Z 00000KT CAVOK 19/14 Q1018 RMK RWY23 00000KT",
    "metar_obs_time": "2025-06-04 01:20:00",
    "taf": "TAF LTBA 032240Z 0400/0424 VRB02KT CAVOK BECMG 0406/0409 22012KT BECMG 0416/0418 05007KT",
    "taf_obs_time": "2025-06-03 22:40:00",
    "fetched_at": "2025-06-04T01:37:52.128749Z"
  },
  "LTBU": {
    "icao": "LTBU",
    "metar": "LTBU 040120Z 27002KT CAVOK 16/08 Q1018 RMK RWY22 24004KT",
    "metar_obs_time": "2025-06-04 01:20:00",
    "taf": "TAF LTBU 032240Z 0400/0424 VRB02KT CAVOK BECMG 0407/0410 17012KT FEW040 BECMG 0416/0418 04006KT CAVOK",
    "taf_obs_time": "2025-06-03 22:40:00",
    "fetched_at": "2025-06-04T01:37:52.128749Z"
  }
}