{
  "LTFM": {
    "icao": "LTFM",
    "metar": "LTFM 041050Z 04011KT CAVOK 29/14 Q1018 NOSIG RMK RWY17L 05009KT RWY34L 04010KT 350V050 RWY16R 04009KT 360V060 RWY36 03011KT RWY18 05008KT",
    "metar_obs_time": "2025-06-04 10:50:00",
    "taf": "TAF LTFM 041040Z 0412/0518 05012KT CAVOK BECMG 0416/0419 VRB02KT BECMG 0506/0509 05012KT",
    "taf_obs_time": "2025-06-04 10:40:00",
    "fetched_at": "2025-06-04T11:17:13.315694Z"
  },
  "LTFJ": {
    "icao": "LTFJ",
    "metar": "LTFJ 041050Z 23009KT 200V290 CAVOK 28/12 Q1018 NOSIG RMK RWY24R 23010KT RWY06R 21010KT RWY24L 22009KT",
    "metar_obs_time": "2025-06-04 10:50:00",
    "taf": "TAF LTFJ 041040Z 0412/0512 25012KT CAVOK BECMG 0412/0414 03008KT",
    "taf_obs_time": "2025-06-04 10:40:00",
    "fetched_at": "2025-06-04T11:17:13.315694Z"
  },
  "LTBA": {
    "icao": "LTBA",
    "metar": "LTBA 041050Z 22006KT 180V240 CAVOK 25/15 Q1018 RMK RWY23 22006KT",
    "metar_obs_time": "2025-06-04 10:50:00",
    "taf": "TAF LTBA 041040Z 0412/0512 21012KT CAVOK BECMG 0412/0415 VRB02KT BECMG 0416/0419 04012KT",
    "taf_obs_time": "2025-06-04 10:40:00",
    "fetched_at": "2025-06-04T11:17:13.315694Z"
  },
  "LTBU": {
    "icao": "LTBU",
    "metar": "LTBU 041050Z VRB03KT 9999 FEW035 30/15 Q1018 RMK RWY22 15009KT 100V180",
    "metar_obs_time": "2025-06-04 10:50:00",
    "taf": "TAF LTBU 041040Z 0412/0512 17006KT CAVOK BECMG 0417/0420 01010KT",
    "taf_obs_time": "2025-06-04 10:40:00",
    "fetched_at": "2025-06-04T11:17:13.315694Z"
  }
}