{
  "LTFM": {
    "icao": "LTFM",
    "metar": "LTFM 081120Z 02012KT 330V050 9999 SCT018 22/16 Q1016 NOSIG RMK RWY17L 36011KT 320V030 RWY34L 35011KT 320V020 RWY16R 35011KT RWY36 36012KT 300V040 RWY18 36011KT 330V030",
    "metar_obs_time": "2025-06-08 11:20:00",
    "taf": "TAF LTFM 081040Z 0812/0918 02015KT 9999 SCT018 BECMG 0818/0821 03005KT BKN012 PROB30 0901/0905 2500 BCFG BKN006 BECMG 0906/0909 36015KT SCT016 BECMG 0912/0915 CAVOK",
    "taf_obs_time": "2025-06-08 10:40:00",
    "fetched_at": "2025-06-08T11:36:38.736662Z"
  },
  "LTFJ": {
    "icao": "LTFJ",
    "metar": "LTFJ 081120Z 25008KT CAVOK 25/16 Q1015 NOSIG RMK RWY24R 03008KT 010V080 RWY06R 23009KT RWY24L 01007KT 320V060",
    "metar_obs_time": "2025-06-08 11:20:00",
    "taf": "TAF LTFJ 081040Z 0812/0912 23010KT CAVOK BECMG 0812/0815 02009KT BECMG 0819/0822 SCT012 PROB30 TEMPO 0901/0904 2500 BCFG BKN005 BECMG 0905/0907 CAVOK",
    "taf_obs_time": "2025-06-08 10:40:00",
    "fetched_at": "2025-06-08T11:36:38.736662Z"
  },
  "LTBA": {
    "icao": "LTBA",
    "metar": "LTBA 081120Z 23008KT CAVOK 24/17 Q1015 RMK RWY23 22006KT",
    "metar_obs_time": "2025-06-08 11:20:00",
    "taf": "TAF LTBA 081040Z 0812/0912 22008KT CAVOK BECMG 0812/0815 02012KT SCT016 BECMG 0820/0823 BKN012 PROB40 0823/0903 2200 BCFG BKN004",
    "taf_obs_time": "2025-06-08 10:40:00",
    "fetched_at": "2025-06-08T11:36:38.736662Z"
  },
  "LTBU": {
    "icao": "LTBU",
    "metar": "LTBU 081120Z 01007KT 310V060 CAVOK 28/14 Q1015 RMK RWY22 05010KT 010V090",
    "metar_obs_time": "2025-06-08 11:20:00",
    "taf": "TAF LTBU 081040Z 0812/0912 03015KT CAVOK BECMG 0819/0822 01005KT SCT016 BECMG 0822/0824 BKN012 PROB40 0901/0905 2200 BCFG BKN006 BECMG 0905/0908 CAVOK",
    "taf_obs_time": "2025-06-08 10:40:00",
    "fetched_at": "2025-06-08T11:36:38.736662Z"
  }
}