{
  "LTFM": {
    "icao": "LTFM",
    "metar": "LTFM 160720Z 01006KT 310V060 CAVOK 24/11 Q1017 NOSIG RMK RWY17L 34008KT 300V360 RWY34L 01008KT 320V050 RWY16R 35006KT 300V010 RWY36 36008KT 320V030 RWY18 35008KT",
    "metar_obs_time": "2025-06-16 07:20:00",
    "taf": "TAF LTFM 160440Z 1606/1712 28005KT CAVOK BECMG 1606/1609 36010KT BECMG 1614/1616 07010KT BECMG 1618/1621 18007KT BECMG 1705/1708 36012KT",
    "taf_obs_time": "2025-06-16 04:40:00",
    "fetched_at": "2025-06-16T07:43:38.714975Z"
  },
  "LTFJ": {
    "icao": "LTFJ",
    "metar": "LTFJ 160720Z 23006KT 190V290 CAVOK 22/14 Q1017 NOSIG RMK RWY24R 26004KT 220V300 RWY06R 22006KT RWY24L 22006KT 180V280",
    "metar_obs_time": "2025-06-16 07:20:00",
    "taf": "TAF LTFJ 160440Z 1606/1706 VRB02KT CAVOK BECMG 1608/1612 03012KT BECMG 1622/1702 VRB02KT",
    "taf_obs_time": "2025-06-16 04:40:00",
    "fetched_at": "2025-06-16T07:43:38.714975Z"
  },
  "LTBA": {
    "icao": "LTBA",
    "metar": "LTBA 160720Z 17007KT 140V220 CAVOK 21/14 Q1017 RMK RWY23 18006KT 140V220",
    "metar_obs_time": "2025-06-16 07:20:00",
    "taf": "TAF LTBA 160440Z 1606/1706 VRB02KT CAVOK BECMG 1609/1612 03012KT BECMG 1700/1703 VRB02KT",
    "taf_obs_time": "2025-06-16 04:40:00",
    "fetched_at": "2025-06-16T07:43:38.714975Z"
  },
  "LTBU": {
    "icao": "LTBU",
    "metar": "LTBU 160720Z 04007KT 340V080 CAVOK 26/09 Q1017 RMK RWY22 04009KT 350V080",
    "metar_obs_time": "2025-06-16 07:20:00",
    "taf": "TAF LTBU 160440Z 1606/1706 32007KT CAVOK BECMG 1606/1608 04012KT BECMG 1616/1617 VRB02KT",
    "taf_obs_time": "2025-06-16 04:40:00",
    "fetched_at": "2025-06-16T07:43:38.714975Z"
  }
}