{
  "LTFM": {
    "icao": "LTFM",
    "metar": "LTFM 032320Z 21007KT CAVOK 21/12 Q1018 NOSIG RMK RWY17L 27003KT 190V300 RWY34L 22006KT RWY16R 22003KT RWY36 20007KT RWY18 20006KT 170V230",
    "metar_obs_time": "2025-06-03 23:20:00",
    "taf": "TAF LTFM 032240Z 0400/0506 19007KT CAVOK BECMG 0407/0410 07012KT BECMG 0418/0420 VRB02KT",
    "taf_obs_time": "2025-06-03 22:40:00",
    "fetched_at": "2025-06-03T23:32:32.614110Z"
  },
  "LTFJ": {
    "icao": "LTFJ",
    "metar": "LTFJ 032320Z 07004KT CAVOK 19/12 Q1017 NOSIG RMK RWY24R VRB02KT RWY06R 06005KT RWY24L 06004KT",
    "metar_obs_time": "2025-06-03 23:20:00",
    "taf": "TAF LTFJ 032240Z 0400/0424 05006KT CAVOK BECMG 0405/0408 24010KT BECMG 0411/0414 03009KT",
    "taf_obs_time": "2025-06-03 22:40:00",
    "fetched_at": "2025-06-03T23:32:32.614110Z"
  },
  "LTBA": {
    "icao": "LTBA",
    "metar": "LTBA 032320Z 27002KT CAVOK 21/13 Q1018 RMK RWY23 26002KT",
    "metar_obs_time": "2025-06-03 23:20:00",
    "taf": "TAF LTBA 032240Z 0400/0424 VRB02KT CAVOK BECMG 0406/0409 22012KT BECMG 0416/0418 05007KT",
    "taf_obs_time": "2025-06-03 22:40:00",
    "fetched_at": "2025-06-03T23:32:32.614110Z"
  },
  "LTBU": {
    "icao": "LTBU",
    "metar": "LTBU 032320Z 29001KT CAVOK 18/08 Q1018 RMK RWY22 24005KT",
    "metar_obs_time": "2025-06-03 23:20:00",
    "taf": "TAF LTBU 032240Z 0400/0424 VRB02KT CAVOK BECMG 0407/0410 17012KT FEW040 BECMG 0416/0418 04006KT CAVOK",
    "taf_obs_time": "2025-06-03 22:40:00",
    "fetched_at": "2025-06-03T23:32:32.614110Z"
  }
}