{
  "LTFM": {
    "icao": "LTFM",
    "metar": "LTFM 142020Z 09006KT 050V110 9999 FEW028 19/15 Q1019 NOSIG RMK RWY17L 07003KT RWY34L 06005KT RWY16R 06004KT RWY36 VRB04KT RWY18 VRB02KT",
    "metar_obs_time": "2025-06-14 20:20:00",
    "taf": "TAF LTFM 141640Z 1418/1524 05012KT 9999 FEW028 BECMG 1418/1421 VRB02KT BECMG 1504/1507 01014KT BKN020 PROB40 TEMPO 1505/1508 -SHRA FEW018CB BKN022 BECMG 1508/1510 SCT032 BECMG 1512/1515 CAVOK BECMG 1516/1519 VRB02KT",
    "taf_obs_time": "2025-06-14 16:40:00",
    "fetched_at": "2025-06-14T20:40:22.582850Z"
  },
  "LTFJ": {
    "icao": "LTFJ",
    "metar": "LTFJ 142020Z 04008KT CAVOK 18/14 Q1018 NOSIG RMK RWY24R 06005KT RWY06R 04008KT RWY24L 04006KT",
    "metar_obs_time": "2025-06-14 20:20:00",
    "taf": "TAF LTFJ 141640Z 1418/1518 04005KT 9999 FEW035 PROB30 TEMPO 1507/1510 -SHRA BKN035 BECMG 1509/1512 04015KT",
    "taf_obs_time": "2025-06-14 16:40:00",
    "fetched_at": "2025-06-14T20:40:22.582850Z"
  },
  "LTBA": {
    "icao": "LTBA",
    "metar": "LTBA 142020Z 06009KT CAVOK 20/14 Q1018 RMK RWY23 06008KT",
    "metar_obs_time": "2025-06-14 20:20:00",
    "taf": "TAF LTBA 141640Z 1418/1518 05008KT CAVOK BECMG 1501/1504 SCT032 BECMG 1504/1507 02015G25KT PROB40 TEMPO 1506/1510 -SHRA FEW020CB BKN025 BECMG 1511/1514 CAVOK BECMG 1514/1517 04006KT",
    "taf_obs_time": "2025-06-14 16:40:00",
    "fetched_at": "2025-06-14T20:40:22.582850Z"
  },
  "LTBU": {
    "icao": "LTBU",
    "metar": "LTBU 142020Z 05008KT CAVOK 15/13 Q1018 RMK RWY22 06005KT",
    "metar_obs_time": "2025-06-14 20:20:00",
    "taf": "TAF LTBU 141640Z 1418/1518 05012KT CAVOK BECMG 1419/1422 34007KT BECMG 1422/1501 FEW014 SCT040 BECMG 1506/1509 04014KT PROB30 TEMPO 1510/1514 -SHRA FEW025TCU SCT032 BECMG 1515/1518 VRB02KT CAVOK",
    "taf_obs_time": "2025-06-14 16:40:00",
    "fetched_at": "2025-06-14T20:40:22.582850Z"
  }
}