{
  "LTFM": {
    "icao": "LTFM",
    "metar": "LTFM 202020Z 06015KT 9999 SCT016 BKN026 22/17 Q1016 NOSIG RMK RWY17L 06012KT RWY34L 04010KT RWY16R 05014KT RWY36 05015KT RWY18 06015KT",
    "metar_obs_time": "2025-06-20 20:20:00",
    "taf": "TAF LTFM 201640Z 2018/2124 04018G28KT 9999 BKN015 BKN025 BECMG 2018/2021 04015KT BECMG 2021/2023 SCT025 BECMG 2106/2109 04018G28KT BECMG 2115/2118 04012KT CAVOK",
    "taf_obs_time": "2025-06-20 16:40:00",
    "fetched_at": "2025-06-20T20:38:09.899714Z"
  },
  "LTFJ": {
    "icao": "LTFJ",
    "metar": "LTFJ 202020Z 05011KT 9999 SCT013 BKN026 22/19 Q1015 NOSIG RMK RWY24R 04008KT RWY06R 03013KT RWY24L 05008KT",
    "metar_obs_time": "2025-06-20 20:20:00",
    "taf": "TAF LTFJ 201640Z 2018/2118 03009KT 9999 BKN030 TEMPO 2018/2021 03015G25KT FEW015 BKN025 PROB30 TEMPO 2021/2101 -SHRA FEW016CB BKN020 BECMG 2103/2106 SCT035 BECMG 2106/2109 03019KT",
    "taf_obs_time": "2025-06-20 16:40:00",
    "fetched_at": "2025-06-20T20:38:09.899714Z"
  },
  "LTBA": {
    "icao": "LTBA",
    "metar": "LTBA 202020Z 05011KT 9999 SCT017 22/18 Q1015 RMK RWY23 05011KT 030V090",
    "metar_obs_time": "2025-06-20 20:20:00",
    "taf": "TAF LTBA 201640Z 2018/2118 03018KT 9999 BKN025 BECMG 2020/2023 04008KT SCT025 PROB30 TEMPO 2023/2103 BKN008 BECMG 2104/2107 04018KT BECMG 2112/2115 CAVOK",
    "taf_obs_time": "2025-06-20 16:40:00",
    "fetched_at": "2025-06-20T20:38:09.899714Z"
  },
  "LTBU": {
    "icao": "LTBU",
    "metar": "LTBU 202020Z 05006KT 9999 SCT017 SCT030 BKN080 20/16 Q1016 RMK RWY22 06007KT",
    "metar_obs_time": "2025-06-20 20:20:00",
    "taf": "TAF LTBU 201640Z 2018/2118 03018KT CAVOK BECMG 2020/2023 04008KT SCT035 BECMG 2106/2109 05018KT BECMG 2110/2113 CAVOK BECMG 2115/2118 02008KT",
    "taf_obs_time": "2025-06-20 16:40:00",
    "fetched_at": "2025-06-20T20:38:09.899714Z"
  }
}