{
  "LTFM": {
    "icao": "LTFM",
    "metar": "LTFM 021420Z 04008KT CAVOK 23/09 Q1019 NOSIG RMK RWY17L 05007KT 360V080 RWY34L 03008KT 340V050 RWY16R 05007KT 010V070 RWY36 03008KT RWY18 05006KT 010V090",
    "metar_obs_time": "2025-06-02 14:20:00",
    "taf": "TAF LTFM 021040Z 0212/0318 04010KT CAVOK BECMG 0216/0219 15005KT BECMG 0305/0308 05010KT",
    "taf_obs_time": "2025-06-02 10:40:00",
    "fetched_at": "2025-06-02T14:55:32.454722Z"
  },
  "LTFJ": {
    "icao": "LTFJ",
    "metar": "LTFJ 021420Z 04008KT 350V090 9999 FEW040 24/12 Q1019 NOSIG RMK RWY24R 03008KT 360V070 RWY06R VRB06KT RWY24L 01008KT 340V060",
    "metar_obs_time": "2025-06-02 14:20:00",
    "taf": "TAF LTFJ 021040Z 0212/0312 24009KT 9999 SCT030 BECMG 0212/0215 02012KT CAVOK BECMG 0308/0311 24009KT",
    "taf_obs_time": "2025-06-02 10:40:00",
    "fetched_at": "2025-06-02T14:55:32.454722Z"
  },
  "LTBA": {
    "icao": "LTBA",
    "metar": "LTBA 021420Z 24008KT CAVOK 22/13 Q1019 RMK RWY23 23008KT",
    "metar_obs_time": "2025-06-02 14:20:00",
    "taf": "TAF LTBA 021040Z 0212/0312 26007KT 9999 FEW035 BECMG 0212/0215 03010KT CAVOK BECMG 0305/0308 19008KT",
    "taf_obs_time": "2025-06-02 10:40:00",
    "fetched_at": "2025-06-02T14:55:32.454722Z"
  },
  "LTBU": {
    "icao": "LTBU",
    "metar": "LTBU 021420Z 05007KT 020V100 9999 FEW040 26/09 Q1019 RMK RWY22 06007KT 010V090",
    "metar_obs_time": "2025-06-02 14:20:00",
    "taf": "TAF LTBU 021040Z 0212/0312 17012KT 9999 SCT040 BECMG 0212/0215 04012KT CAVOK BECMG 0217/0220 VRB02KT BECMG 0308/0311 18012KT",
    "taf_obs_time": "2025-06-02 10:40:00",
    "fetched_at": "2025-06-02T14:55:32.454722Z"
  }
}