{
  "LTFM": {
    "icao": "LTFM",
    "metar": "LTFM 201020Z 35021KT 9999 SCT016 BKN080 25/19 Q1015 NOSIG RMK RWY17L 35018KT RWY34L 34020KT RWY16R 34017KT RWY36 34021KT RWY18 35021KT",
    "metar_obs_time": "2025-06-20 10:20:00",
    "taf": "TAF LTFM 200440Z 2006/2112 23006KT CAVOK BECMG 2006/2009 34013KT SCT016 BECMG 2013/2016 04015KT BKN008 BECMG 2018/2021 SCT016",
    "taf_obs_time": "2025-06-20 04:40:00",
    "fetched_at": "2025-06-20T10:48:18.198973Z"
  },
  "LTFJ": {
    "icao": "LTFJ",
    "metar": "LTFJ 201020Z 24009KT 190V270 9999 FEW035 29/13 Q1013 NOSIG RMK RWY24R 24009KT RWY06R 23010KT RWY24L 23009KT",
    "metar_obs_time": "2025-06-20 10:20:00",
    "taf": "TAF LTFJ 200440Z 2006/2106 24007KT 9999 FEW035 BECMG 2009/2013 03012KT BECMG 2018/2022 BKN035 TEMPO 2023/2102 -SHRA",
    "taf_obs_time": "2025-06-20 04:40:00",
    "fetched_at": "2025-06-20T10:48:18.198973Z"
  },
  "LTBA": {
    "icao": "LTBA",
    "metar": "LTBA 201020Z 35013KT 260V050 CAVOK 30/17 Q1013 RMK RWY23 35011KT 300V060",
    "metar_obs_time": "2025-06-20 10:20:00",
    "taf": "TAF LTBA 200440Z 2006/2106 20006KT CAVOK BECMG 2009/2012 02015KT SCT016 BECMG 2015/2018 BKN009 BECMG 2022/2101 SCT016",
    "taf_obs_time": "2025-06-20 04:40:00",
    "fetched_at": "2025-06-20T10:48:18.198973Z"
  },
  "LTBU": {
    "icao": "LTBU",
    "metar": "LTBU 201020Z 03017KT 9999 SCT045 28/19 Q1014 RMK RWY22 04016KT",
    "metar_obs_time": "2025-06-20 10:20:00",
    "taf": "TAF LTBU 200440Z 2006/2106 VRB02KT CAVOK BECMG 2008/2011 03015KT SCT022 TEMPO 2011/2015 03016G26KT -SHRA FEW018CB BKN022 BECMG 2020/2023 03005KT",
    "taf_obs_time": "2025-06-20 04:40:00",
    "fetched_at": "2025-06-20T10:48:18.198973Z"
  }
}