{
  "LTFM": {
    "icao": "LTFM",
    "metar": "LTFM 201650Z 05019KT 9999 BKN016 BKN026 22/18 Q1015 NOSIG RMK RWY17L 05016KT RWY34L 04016KT RWY16R 04017KT RWY36 04018KT RWY18 05016KT",
    "metar_obs_time": "2025-06-20 16:50:00",
    "taf": "TAF LTFM 201640Z 2018/2124 04018G28KT 9999 BKN015 BKN025 BECMG 2018/2021 04015KT BECMG 2021/2023 SCT025 BECMG 2106/2109 04018G28KT BECMG 2115/2118 04012KT CAVOK",
    "taf_obs_time": "2025-06-20 16:40:00",
    "fetched_at": "2025-06-20T17:16:08.635270Z"
  },
  "LTFJ": {
    "icao": "LTFJ",
    "metar": "LTFJ 201650Z 03013KT 9999 BKN020 24/19 Q1014 NOSIG RMK RWY24R 04009KT RWY06R 03013KT RWY24L 03012KT",
    "metar_obs_time": "2025-06-20 16:50:00",
    "taf": "TAF LTFJ 201640Z 2018/2118 03009KT 9999 BKN030 TEMPO 2018/2021 03015G25KT FEW015 BKN025 PROB30 TEMPO 2021/2101 -SHRA FEW016CB BKN020 BECMG 2103/2106 SCT035 BECMG 2106/2109 03019KT",
    "taf_obs_time": "2025-06-20 16:40:00",
    "fetched_at": "2025-06-20T17:16:08.635270Z"
  },
  "LTBA": {
    "icao": "LTBA",
    "metar": "LTBA 201650Z 03013KT 9999 BKN022 24/18 Q1014 RMK RWY23 04012KT 020V080",
    "metar_obs_time": "2025-06-20 16:50:00",
    "taf": "TAF LTBA 201640Z 2018/2118 03018KT 9999 BKN025 BECMG 2020/2023 04008KT SCT025 PROB30 TEMPO 2023/2103 BKN008 BECMG 2104/2107 04018KT BECMG 2112/2115 CAVOK",
    "taf_obs_time": "2025-06-20 16:40:00",
    "fetched_at": "2025-06-20T17:16:08.635270Z"
  },
  "LTBU": {
    "icao": "LTBU",
    "metar": "LTBU 201650Z 04024KT 9999 SCT035 BKN200 22/17 Q1014 RMK RWY22 05016KT",
    "metar_obs_time": "2025-06-20 16:50:00",
    "taf": "TAF LTBU 201640Z 2018/2118 03018KT CAVOK BECMG 2020/2023 04008KT SCT035 BECMG 2106/2109 05018KT BECMG 2110/2113 CAVOK BECMG 2115/2118 02008KT",
    "taf_obs_time": "2025-06-20 16:40:00",
    "fetched_at": "2025-06-20T17:16:08.635270Z"
  }
}