{
  "LTFM": {
    "icao": "LTFM",
    "metar": "LTFM 180420Z 03006KT 9999 FEW008 22/20 Q1018 NOSIG RMK RWY17L 36003KT 320V020 RWY34L 01006KT RWY16R 34003KT 300V010 RWY36 02005KT 340V040 RWY18 01003KT 330V050",
    "metar_obs_time": "2025-06-18 04:20:00",
    "taf": "TAF LTFM 172240Z 1800/1906 32006KT 9999 FEW008 TEMPO 1800/1804 2000 BCFG BKN004 BECMG 1804/1807 02012KT CAVOK BECMG 1816/1819 08006KT SCT008 PROB40 TEMPO 1900/1904 2000 BCFG BKN004",
    "taf_obs_time": "2025-06-17 22:40:00",
    "fetched_at": "2025-06-18T04:51:30.768970Z"
  },
  "LTFJ": {
    "icao": "LTFJ",
    "metar": "LTFJ 180420Z 05006KT CAVOK 20/17 Q1018 NOSIG RMK RWY24R 01007KT RWY06R 04006KT 010V070 RWY24L 02008KT",
    "metar_obs_time": "2025-06-18 04:20:00",
    "taf": "TAF LTFJ 172240Z 1800/1824 03007KT CAVOK BECMG 1805/1808 24010KT BECMG 1811/1814 03015KT BECMG 1817/1820 03005KT",
    "taf_obs_time": "2025-06-17 22:40:00",
    "fetched_at": "2025-06-18T04:51:30.768970Z"
  },
  "LTBA": {
    "icao": "LTBA",
    "metar": "LTBA 180420Z 04008KT CAVOK 23/18 Q1018 RMK RWY23 04008KT",
    "metar_obs_time": "2025-06-18 04:20:00",
    "taf": "TAF LTBA 172240Z 1800/1824 03010KT CAVOK TEMPO 1800/1804 SCT010",
    "taf_obs_time": "2025-06-17 22:40:00",
    "fetched_at": "2025-06-18T04:51:30.768970Z"
  },
  "LTBU": {
    "icao": "LTBU",
    "metar": "LTBU 180420Z 04006KT CAVOK 23/10 Q1018 RMK RWY22 04005KT",
    "metar_obs_time": "2025-06-18 04:20:00",
    "taf": "TAF LTBU 172240Z 1800/1824 36007KT CAVOK BECMG 1804/1807 06012KT",
    "taf_obs_time": "2025-06-17 22:40:00",
    "fetched_at": "2025-06-18T04:51:30.768970Z"
  }
}