{
  "LTFM": {
    "icao": "LTFM",
    "metar": "LTFM 110620Z 03013KT CAVOK 22/16 Q1015 NOSIG RMK RWY17L 03013KT RWY34L 02012KT RWY16R 01013KT RWY36 03013KT RWY18 04012KT",
    "metar_obs_time": "2025-06-11 06:20:00",
    "taf": "TAF LTFM 110440Z 1106/1212 04016KT CAVOK BECMG 1117/1120 VRB02KT SCT007 BECMG 1120/1122 4000 BR BKN006 PROB30 TEMPO 1123/1203 1100 BCFG BKN004 BECMG 1204/1207 03012KT 9999 NSW SCT016",
    "taf_obs_time": "2025-06-11 04:40:00",
    "fetched_at": "2025-06-11T06:51:37.215961Z"
  },
  "LTFJ": {
    "icao": "LTFJ",
    "metar": "LTFJ 110620Z 04010KT 010V080 9999 BKN015 22/18 Q1014 NOSIG RMK RWY24R 04008KT RWY06R 03011KT RWY24L 03010KT",
    "metar_obs_time": "2025-06-11 06:20:00",
    "taf": "TAF LTFJ 110440Z 1106/1206 05012KT 9999 BKN015 BECMG 1106/1110 SCT025 BECMG 1110/1113 CAVOK TEMPO 1111/1115 05020G30KT BECMG 1121/1124 SCT012 TEMPO 1202/1206 3200 BR BKN014",
    "taf_obs_time": "2025-06-11 04:40:00",
    "fetched_at": "2025-06-11T06:51:37.215961Z"
  },
  "LTBA": {
    "icao": "LTBA",
    "metar": "LTBA 110620Z 03010KT 9999 FEW021 24/17 Q1014 RMK RWY23 05009KT 340V080",
    "metar_obs_time": "2025-06-11 06:20:00",
    "taf": "TAF LTBA 110440Z 1106/1206 04014KT 9999 SCT028 BECMG 1107/1110 03018G28KT CAVOK BECMG 1116/1119 02007KT SCT010 BECMG 1120/1122 BKN006 PROB30 TEMPO 1123/1203 3200 BR",
    "taf_obs_time": "2025-06-11 04:40:00",
    "fetched_at": "2025-06-11T06:51:37.215961Z"
  },
  "LTBU": {
    "icao": "LTBU",
    "metar": "LTBU 110620Z 04012KT CAVOK 24/15 Q1014 RMK RWY22 04012KT 010V070",
    "metar_obs_time": "2025-06-11 06:20:00",
    "taf": "TAF LTBU 110440Z 1106/1206 03014KT CAVOK BECMG 1107/1110 04018G28KT BECMG 1116/1119 01007KT SCT014 PROB30 TEMPO 1122/1202 2500 BR BKN008",
    "taf_obs_time": "2025-06-11 04:40:00",
    "fetched_at": "2025-06-11T06:51:37.215961Z"
  }
}