{
  "LTFM": {
    "icao": "LTFM",
    "metar": "LTFM 161720Z 12007KT CAVOK 24/11 Q1016 NOSIG RMK RWY17L 09007KT RWY34L 11007KT RWY16R 09008KT RWY36 10006KT 020V110 RWY18 09005KT",
    "metar_obs_time": "2025-06-16 17:20:00",
    "taf": "TAF LTFM 161640Z 1618/1724 VRB02KT CAVOK BECMG 1705/1708 01012KT BECMG 1715/1718 VRB02KT",
    "taf_obs_time": "2025-06-16 16:40:00",
    "fetched_at": "2025-06-16T17:36:27.230041Z"
  },
  "LTFJ": {
    "icao": "LTFJ",
    "metar": "LTFJ 161720Z 06006KT CAVOK 23/11 Q1016 NOSIG RMK RWY24R 08005KT RWY06R 07007KT RWY24L 06006KT",
    "metar_obs_time": "2025-06-16 17:20:00",
    "taf": "TAF LTFJ 161640Z 1618/1718 05012KT CAVOK BECMG 1619/1622 VRB02KT BECMG 1710/1714 01012KT",
    "taf_obs_time": "2025-06-16 16:40:00",
    "fetched_at": "2025-06-16T17:36:27.230041Z"
  },
  "LTBA": {
    "icao": "LTBA",
    "metar": "LTBA 161720Z 10007KT CAVOK 25/11 Q1015 RMK RWY23 09006KT 060V120",
    "metar_obs_time": "2025-06-16 17:20:00",
    "taf": "TAF LTBA 161640Z 1618/1718 VRB02KT CAVOK BECMG 1705/1708 21012KT BECMG 1711/1714 03009KT",
    "taf_obs_time": "2025-06-16 16:40:00",
    "fetched_at": "2025-06-16T17:36:27.230041Z"
  },
  "LTBU": {
    "icao": "LTBU",
    "metar": "LTBU 161720Z 12004KT CAVOK 23/11 Q1016 RMK RWY22 15004KT",
    "metar_obs_time": "2025-06-16 17:20:00",
    "taf": "TAF LTBU 161640Z 1618/1718 VRB02KT CAVOK BECMG 1621/1624 35012KT BECMG 1710/1713 13007KT",
    "taf_obs_time": "2025-06-16 16:40:00",
    "fetched_at": "2025-06-16T17:36:27.230041Z"
  }
}