{
  "LTFM": {
    "icao": "LTFM",
    "metar": "LTFM 160520Z 31007KT 280V340 CAVOK 22/08 Q1017 NOSIG RMK RWY17L 30006KT 270V070 RWY34L 29006KT RWY16R 28005KT 250V310 RWY36 32007KT RWY18 32007KT 290V050",
    "metar_obs_time": "2025-06-16 05:20:00",
    "taf": "TAF LTFM 160440Z 1606/1712 28005KT CAVOK BECMG 1606/1609 36010KT BECMG 1614/1616 07010KT BECMG 1618/1621 18007KT BECMG 1705/1708 36012KT",
    "taf_obs_time": "2025-06-16 04:40:00",
    "fetched_at": "2025-06-16T05:50:05.253089Z"
  },
  "LTFJ": {
    "icao": "LTFJ",
    "metar": "LTFJ 160520Z 16003KT 120V190 CAVOK 20/14 Q1017 NOSIG RMK RWY24R VRB01KT RWY06R VRB01KT RWY24L VRB01KT",
    "metar_obs_time": "2025-06-16 05:20:00",
    "taf": "TAF LTFJ 160440Z 1606/1706 VRB02KT CAVOK BECMG 1608/1612 03012KT BECMG 1622/1702 VRB02KT",
    "taf_obs_time": "2025-06-16 04:40:00",
    "fetched_at": "2025-06-16T05:50:05.253089Z"
  },
  "LTBA": {
    "icao": "LTBA",
    "metar": "LTBA 160520Z 20005KT CAVOK 21/14 Q1017 RMK RWY23 18005KT 150V230",
    "metar_obs_time": "2025-06-16 05:20:00",
    "taf": "TAF LTBA 160440Z 1606/1706 VRB02KT CAVOK BECMG 1609/1612 03012KT BECMG 1700/1703 VRB02KT",
    "taf_obs_time": "2025-06-16 04:40:00",
    "fetched_at": "2025-06-16T05:50:05.253089Z"
  },
  "LTBU": {
    "icao": "LTBU",
    "metar": "LTBU 160520Z 33009KT CAVOK 21/09 Q1017 RMK RWY22 34008KT",
    "metar_obs_time": "2025-06-16 05:20:00",
    "taf": "TAF LTBU 160440Z 1606/1706 32007KT CAVOK BECMG 1606/1608 04012KT BECMG 1616/1617 VRB02KT",
    "taf_obs_time": "2025-06-16 04:40:00",
    "fetched_at": "2025-06-16T05:50:05.253089Z"
  }
}