{
  "LTFM": {
    "icao": "LTFM",
    "metar": "LTFM 050750Z 06011KT 010V070 CAVOK 24/14 Q1020 NOSIG RMK RWY17L 05010KT RWY34L 05010KT 360V070 RWY16R 05010KT RWY36 04010KT 010V070 RWY18 04010KT",
    "metar_obs_time": "2025-06-05 07:50:00",
    "taf": "TAF LTFM 050440Z 0506/0612 34008KT CAVOK BECMG 0506/0508 05015G25KT BECMG 0517/0520 04008KT SCT025 PROB40 TEMPO 0520/0524 3200 BR BKN004 PROB30 TEMPO 0600/0604 3200 BR BKN004 BECMG 0604/0607 04015G25KT BECMG 0607/0610 CAVOK",
    "taf_obs_time": "2025-06-05 04:40:00",
    "fetched_at": "2025-06-05T08:24:52.315762Z"
  },
  "LTFJ": {
    "icao": "LTFJ",
    "metar": "LTFJ 050750Z 04016KT CAVOK 28/11 Q1018 NOSIG RMK RWY24R 05013KT RWY06R 03016KT RWY24L 04014KT 010V070",
    "metar_obs_time": "2025-06-05 07:50:00",
    "taf": "TAF LTFJ 050440Z 0506/0606 05014KT CAVOK PROB30 TEMPO 0601/0605 2400 BCFG",
    "taf_obs_time": "2025-06-05 04:40:00",
    "fetched_at": "2025-06-05T08:24:52.315762Z"
  },
  "LTBA": {
    "icao": "LTBA",
    "metar": "LTBA 050750Z 04015KT 010V070 CAVOK 29/11 Q1018 RMK RWY23 04013KT 010V070",
    "metar_obs_time": "2025-06-05 07:50:00",
    "taf": "TAF LTBA 050440Z 0506/0606 03008KT CAVOK BECMG 0506/0509 04015G25KT BECMG 0518/0521 03010KT SCT035",
    "taf_obs_time": "2025-06-05 04:40:00",
    "fetched_at": "2025-06-05T08:24:52.315762Z"
  },
  "LTBU": {
    "icao": "LTBU",
    "metar": "LTBU 050750Z 07012KT CAVOK 28/12 Q1019 RMK RWY22 09009KT 060V130",
    "metar_obs_time": "2025-06-05 07:50:00",
    "taf": "TAF LTBU 050440Z 0506/0606 03009KT CAVOK BECMG 0506/0509 06015G25KT BECMG 0515/0518 02008KT BECMG 0518/0521 SCT035 BECMG 0604/0606 04015G25KT",
    "taf_obs_time": "2025-06-05 04:40:00",
    "fetched_at": "2025-06-05T08:24:52.315762Z"
  }
}