{
  "LTFM": {
    "icao": "LTFM",
    "metar": "LTFM 121050Z 02012KT 340V050 CAVOK 24/14 Q1017 NOSIG RMK RWY17L 34012KT RWY34L 36011KT 320V020 RWY16R 35011KT RWY36 36011KT 320V040 RWY18 35012KT",
    "metar_obs_time": "2025-06-12 10:50:00",
    "taf": "TAF LTFM 121040Z 1212/1318 02012KT CAVOK BECMG 1215/1218 SCT012 BECMG 1220/1223 BKN008 PROB30 1223/1303 4000 BR BKN004 BECMG 1304/1307 SCT012 BECMG 1307/1310 CAVOK",
    "taf_obs_time": "2025-06-12 10:40:00",
    "fetched_at": "2025-06-12T11:16:49.520400Z"
  },
  "LTFJ": {
    "icao": "LTFJ",
    "metar": "LTFJ 121050Z 04016KT 360V070 9999 FEW040 28/16 Q1015 NOSIG RMK RWY24R 02016KT RWY06R 02017KT RWY24L 01017KT",
    "metar_obs_time": "2025-06-12 10:50:00",
    "taf": "TAF LTFJ 121040Z 1212/1312 03017KT 9999 FEW040 BECMG 1212/1215 CAVOK BECMG 1219/1222 04007KT BKN008 PROB30 TEMPO 1301/1304 4000 BR BKN004 BECMG 1307/1310 04017KT SCT030 BECMG 1310/1312 CAVOK",
    "taf_obs_time": "2025-06-12 10:40:00",
    "fetched_at": "2025-06-12T11:16:49.520400Z"
  },
  "LTBA": {
    "icao": "LTBA",
    "metar": "LTBA 121050Z 03013KT 360V070 CAVOK 29/13 Q1015 RMK RWY23 03013KT",
    "metar_obs_time": "2025-06-12 10:50:00",
    "taf": "TAF LTBA 121040Z 1212/1312 02015G25KT CAVOK BECMG 1217/1220 05007KT SCT012 BECMG 1220/1223 BKN006 BECMG 1304/1306 SCT012 BECMG 1306/1309 CAVOK",
    "taf_obs_time": "2025-06-12 10:40:00",
    "fetched_at": "2025-06-12T11:16:49.520400Z"
  },
  "LTBU": {
    "icao": "LTBU",
    "metar": "LTBU 121050Z 05012KT 020V080 CAVOK 29/15 Q1016 RMK RWY22 05012KT 010V070",
    "metar_obs_time": "2025-06-12 10:50:00",
    "taf": "TAF LTBU 121040Z 1212/1312 02015G25KT CAVOK BECMG 1216/1219 03007KT SCT012 PROB30 1301/1305 2200 BCFG BKN008 BECMG 1305/1308 04015G25KT CAVOK",
    "taf_obs_time": "2025-06-12 10:40:00",
    "fetched_at": "2025-06-12T11:16:49.520400Z"
  }
}