{
  "LTFM": {
    "icao": "LTFM",
    "metar": "LTFM 072320Z 03010KT 9999 SCT014 20/17 Q1016 NOSIG RMK RWY17L 04008KT RWY34L 03009KT RWY16R 04008KT RWY36 03009KT RWY18 05008KT",
    "metar_obs_time": "2025-06-07 23:20:00",
    "taf": "TAF LTFM 072240Z 0800/0906 04008KT 9999 SCT014 BECMG 0800/0803 BKN012 BECMG 0806/0809 04018KT BECMG 0812/0814 SCT012 BECMG 0817/0819 03007KT PROB30 TEMPO 0822/0902 3200 BCFG BKN008",
    "taf_obs_time": "2025-06-07 22:40:00",
    "fetched_at": "2025-06-07T23:49:43.604113Z"
  },
  "LTFJ": {
    "icao": "LTFJ",
    "metar": "LTFJ 072320Z 05007KT 9999 FEW015 18/16 Q1015 NOSIG RMK RWY24R VRB02KT RWY06R 05007KT RWY24L 04004KT",
    "metar_obs_time": "2025-06-07 23:20:00",
    "taf": "TAF LTFJ 072240Z 0800/0824 04007KT 9999 SCT015 TEMPO 0800/0804 2500 BCFG BKN012 BECMG 0805/0808 04017KT CAVOK BECMG 0820/0824 05007KT SCT018",
    "taf_obs_time": "2025-06-07 22:40:00",
    "fetched_at": "2025-06-07T23:49:43.604113Z"
  },
  "LTBA": {
    "icao": "LTBA",
    "metar": "LTBA 072320Z 02008KT CAVOK 20/16 Q1015 RMK RWY23 04008KT",
    "metar_obs_time": "2025-06-07 23:20:00",
    "taf": "TAF LTBA 072240Z 0800/0824 04007KT CAVOK BECMG 0801/0803 SCT022 TEMPO 0805/0808 FEW012 BKN022 BECMG 0806/0809 03017KT CAVOK BECMG 0818/0820 04007KT SCT016 PROB30 TEMPO 0821/0824 3200 BR BKN009",
    "taf_obs_time": "2025-06-07 22:40:00",
    "fetched_at": "2025-06-07T23:49:43.604113Z"
  },
  "LTBU": {
    "icao": "LTBU",
    "metar": "LTBU 072320Z 02006KT CAVOK 17/15 Q1016 RMK RWY22 02008KT",
    "metar_obs_time": "2025-06-07 23:20:00",
    "taf": "TAF LTBU 072240Z 0800/0824 04009KT CAVOK BECMG 0800/0802 SCT012 TEMPO 0802/0805 4000 BR BECMG 0806/0809 CAVOK BECMG 0819/0821 SCT016",
    "taf_obs_time": "2025-06-07 22:40:00",
    "fetched_at": "2025-06-07T23:49:43.604113Z"
  }
}