{
  "LTFM": {
    "icao": "LTFM",
    "metar": "LTFM 202120Z 06013KT 9999 SCT016 SCT026 21/17 Q1016 NOSIG RMK RWY17L 06012KT RWY34L 05010KT RWY16R 05012KT RWY36 06012KT RWY18 06012KT",
    "metar_obs_time": "2025-06-20 21:20:00",
    "taf": "TAF LTFM 201640Z 2018/2124 04018G28KT 9999 BKN015 BKN025 BECMG 2018/2021 04015KT BECMG 2021/2023 SCT025 BECMG 2106/2109 04018G28KT BECMG 2115/2118 04012KT CAVOK",
    "taf_obs_time": "2025-06-20 16:40:00",
    "fetched_at": "2025-06-20T21:44:57.649169Z"
  },
  "LTFJ": {
    "icao": "LTFJ",
    "metar": "LTFJ 202120Z 03012KT 9999 SCT013 BKN030 22/19 Q1015 NOSIG RMK RWY24R 04010KT RWY06R 02013KT RWY24L 03011KT",
    "metar_obs_time": "2025-06-20 21:20:00",
    "taf": "TAF LTFJ 201640Z 2018/2118 03009KT 9999 BKN030 TEMPO 2018/2021 03015G25KT FEW015 BKN025 PROB30 TEMPO 2021/2101 -SHRA FEW016CB BKN020 BECMG 2103/2106 SCT035 BECMG 2106/2109 03019KT",
    "taf_obs_time": "2025-06-20 16:40:00",
    "fetched_at": "2025-06-20T21:44:57.649169Z"
  },
  "LTBA": {
    "icao": "LTBA",
    "metar": "LTBA 202120Z 04014KT 9999 FEW018 22/18 Q1015 RMK RWY23 04013KT",
    "metar_obs_time": "2025-06-20 21:20:00",
    "taf": "TAF LTBA 201640Z 2018/2118 03018KT 9999 BKN025 BECMG 2020/2023 04008KT SCT025 PROB30 TEMPO 2023/2103 BKN008 BECMG 2104/2107 04018KT BECMG 2112/2115 CAVOK",
    "taf_obs_time": "2025-06-20 16:40:00",
    "fetched_at": "2025-06-20T21:44:57.649169Z"
  },
  "LTBU": {
    "icao": "LTBU",
    "metar": "LTBU 202120Z 05007KT 9999 SCT035 BKN100 19/16 Q1016 RMK RWY22 06006KT",
    "metar_obs_time": "2025-06-20 21:20:00",
    "taf": "TAF LTBU 201640Z 2018/2118 03018KT CAVOK BECMG 2020/2023 04008KT SCT035 BECMG 2106/2109 05018KT BECMG 2110/2113 CAVOK BECMG 2115/2118 02008KT",
    "taf_obs_time": "2025-06-20 16:40:00",
    "fetched_at": "2025-06-20T21:44:57.649169Z"
  }
}