{
  "LTFM": {
    "icao": "LTFM",
    "metar": "LTFM 092150Z 03008KT 4000 0500N R35R/P1500N R17L/0550D R34L/P1500D R36/P1500N BCFG BKN002 21/20 Q1017 NOSIG RMK RWY17L 02005KT RWY34L 01008KT RWY16R 01006KT RWY36 04008KT RWY18 04005KT",
    "metar_obs_time": "2025-06-09 21:50:00",
    "taf": "TAF LTFM 091640Z 0918/1024 02009KT 9999 BKN008 PROB30 TEMPO 0921/1001 4000 BR BKN004 BECMG 1001/1004 SCT012 BECMG 1005/1008 03018G28KT BKN008 BECMG 1012/1015 SCT015 BECMG 1017/1020 04012KT CAVOK",
    "taf_obs_time": "2025-06-09 16:40:00",
    "fetched_at": "2025-06-09T22:20:03.062383Z"
  },
  "LTFJ": {
    "icao": "LTFJ",
    "metar": "LTFJ 092150Z 07007KT 9999 FEW012 19/17 Q1016 NOSIG RMK RWY24R 06004KT RWY06R 05005KT RWY24L 05005KT",
    "metar_obs_time": "2025-06-09 21:50:00",
    "taf": "TAF LTFJ 091640Z 0918/1018 04015KT CAVOK BECMG 0920/0922 04005KT SCT008 BECMG 0922/1001 BKN006 PROB40 TEMPO 1001/1005 3200 BR BECMG 1004/1007 SCT017 BECMG 1007/1009 CAVOK BECMG 1009/1012 04018KT BECMG 1012/1015 SCT015",
    "taf_obs_time": "2025-06-09 16:40:00",
    "fetched_at": "2025-06-09T22:20:03.062383Z"
  },
  "LTBA": {
    "icao": "LTBA",
    "metar": "LTBA 092150Z 08006KT CAVOK 21/18 Q1016 RMK RWY23 07005KT",
    "metar_obs_time": "2025-06-09 21:50:00",
    "taf": "TAF LTBA 091640Z 0918/1018 04016KT CAVOK BECMG 0918/0921 04006KT PROB30 0922/1002 2500 BR BKN004 BECMG 1004/1007 02016KT BECMG 1007/1010 03019G29KT SCT025 BECMG 1015/1018 04013KT CAVOK",
    "taf_obs_time": "2025-06-09 16:40:00",
    "fetched_at": "2025-06-09T22:20:03.062383Z"
  },
  "LTBU": {
    "icao": "LTBU",
    "metar": "LTBU 092150Z 01008KT CAVOK 18/16 Q1017 RMK RWY22 01007KT",
    "metar_obs_time": "2025-06-09 21:50:00",
    "taf": "TAF LTBU 091640Z 0918/1018 02008KT CAVOK BECMG 1005/1008 03022G32KT SCT025 BECMG 1015/1018 04013KT CAVOK",
    "taf_obs_time": "2025-06-09 16:40:00",
    "fetched_at": "2025-06-09T22:20:03.062383Z"
  }
}