{
  "LTFM": {
    "icao": "LTFM",
    "metar": "LTFM 180850Z 02008KT 330V070 9999 FEW025 26/15 Q1020 NOSIG RMK RWY17L 01008KT 320V070 RWY34L 01008KT 300V050 RWY16R 36009KT 320V020 RWY36 03008KT 340V080 RWY18 02008KT 340V040",
    "metar_obs_time": "2025-06-18 08:50:00",
    "taf": "TAF LTFM 180440Z 1806/1912 03010KT CAVOK BECMG 1818/1821 09006KT SCT008 PROB30 TEMPO 1823/1903 2000 BCFG BKN004 BECMG 1905/1908 03010KT CAVOK",
    "taf_obs_time": "2025-06-18 04:40:00",
    "fetched_at": "2025-06-18T09:20:19.933150Z"
  },
  "LTFJ": {
    "icao": "LTFJ",
    "metar": "LTFJ 180850Z 07009KT 030V100 CAVOK 28/12 Q1019 NOSIG RMK RWY24R 08009KT 040V110 RWY06R 03012KT RWY24L 03011KT",
    "metar_obs_time": "2025-06-18 08:50:00",
    "taf": "TAF LTFJ 180440Z 1806/1906 04008KT CAVOK BECMG 1806/1808 24010KT BECMG 1810/1813 03016KT BECMG 1818/1821 04006KT PROB30 TEMPO 1901/1904 3500 PRFG",
    "taf_obs_time": "2025-06-18 04:40:00",
    "fetched_at": "2025-06-18T09:20:19.933150Z"
  },
  "LTBA": {
    "icao": "LTBA",
    "metar": "LTBA 180850Z 09009KT 060V120 CAVOK 28/15 Q1019 RMK RWY23 05009KT 360V110",
    "metar_obs_time": "2025-06-18 08:50:00",
    "taf": "TAF LTBA 180440Z 1806/1906 04010KT CAVOK BECMG 1806/1808 19007KT BECMG 1808/1811 04013KT",
    "taf_obs_time": "2025-06-18 04:40:00",
    "fetched_at": "2025-06-18T09:20:19.933150Z"
  },
  "LTBU": {
    "icao": "LTBU",
    "metar": "LTBU 180850Z 06010KT 020V090 CAVOK 29/13 Q1019 RMK RWY22 06010KT 010V130",
    "metar_obs_time": "2025-06-18 08:50:00",
    "taf": "TAF LTBU 180440Z 1806/1906 04005KT CAVOK BECMG 1806/1808 04015KT BECMG 1816/1819 03005KT",
    "taf_obs_time": "2025-06-18 04:40:00",
    "fetched_at": "2025-06-18T09:20:19.933150Z"
  }
}