{
  "LTFM": {
    "icao": "LTFM",
    "metar": "LTFM 030920Z 05009KT 020V080 CAVOK 25/13 Q1020 NOSIG RMK RWY17L 06008KT RWY34L 06008KT 020V080 RWY16R 04008KT RWY36 03010KT 360V070 RWY18 05008KT",
    "metar_obs_time": "2025-06-03 09:20:00",
    "taf": "TAF LTFM 030440Z 0306/0412 VRB02KT CAVOK BECMG 0306/0309 06012KT BECMG 0316/0319 18005KT BECMG 0407/0410 05010KT",
    "taf_obs_time": "2025-06-03 04:40:00",
    "fetched_at": "2025-06-03T09:50:54.918133Z"
  },
  "LTFJ": {
    "icao": "LTFJ",
    "metar": "LTFJ 030920Z 24008KT CAVOK 25/12 Q1019 NOSIG RMK RWY24R 23009KT RWY06R 22010KT RWY24L 23009KT",
    "metar_obs_time": "2025-06-03 09:20:00",
    "taf": "TAF LTFJ 030440Z 0306/0406 24009KT CAVOK BECMG 0311/0315 03012KT BECMG 0316/0318 VRB02KT",
    "taf_obs_time": "2025-06-03 04:40:00",
    "fetched_at": "2025-06-03T09:50:54.918133Z"
  },
  "LTBA": {
    "icao": "LTBA",
    "metar": "LTBA 030920Z 23007KT CAVOK 22/16 Q1019 RMK RWY23 23006KT",
    "metar_obs_time": "2025-06-03 09:20:00",
    "taf": "TAF LTBA 030440Z 0306/0406 VRB02KT CAVOK BECMG 0307/0310 21012KT BECMG 0313/0316 VRB02KT",
    "taf_obs_time": "2025-06-03 04:40:00",
    "fetched_at": "2025-06-03T09:50:54.918133Z"
  },
  "LTBU": {
    "icao": "LTBU",
    "metar": "LTBU 030920Z VRB06KT CAVOK 26/11 Q1019 RMK RWY22 15006KT 080V250",
    "metar_obs_time": "2025-06-03 09:20:00",
    "taf": "TAF LTBU 030440Z 0306/0406 VRB02KT CAVOK BECMG 0307/0310 17012KT BECMG 0316/0319 VRB02KT",
    "taf_obs_time": "2025-06-03 04:40:00",
    "fetched_at": "2025-06-03T09:50:54.918133Z"
  }
}