{
  "LTFM": {
    "icao": "LTFM",
    "metar": "LTFM 100750Z 03018KT 9999 BKN009 24/20 Q1019 NOSIG RMK RWY17L 02014KT RWY34L 02016KT RWY16R 02012KT RWY36 03017KT RWY18 03014KT",
    "metar_obs_time": "2025-06-10 07:50:00",
    "taf": "TAF LTFM 100440Z 1006/1112 36013KT 9999 SCT012 BECMG 1006/1009 BKN008 BECMG 1009/1012 03018G28KT SCT022 BECMG 1015/1018 04013KT CAVOK BECMG 1020/1023 SCT008",
    "taf_obs_time": "2025-06-10 04:40:00",
    "fetched_at": "2025-06-10T08:27:35.998847Z"
  },
  "LTFJ": {
    "icao": "LTFJ",
    "metar": "LTFJ 100750Z 04012KT CAVOK 27/16 Q1017 NOSIG RMK RWY24R 02010KT RWY06R 01010KT 320V050 RWY24L 36011KT",
    "metar_obs_time": "2025-06-10 07:50:00",
    "taf": "TAF LTFJ 100440Z 1006/1106 03008KT 9999 BKN008 BECMG 1006/1008 CAVOK BECMG 1009/1012 03018KT SCT020 TEMPO 1013/1016 03020G30KT BECMG 1015/1017 CAVOK BECMG 1020/1023 SCT012 BECMG 1100/1103 BKN010 BECMG 1103/1106 SCT018",
    "taf_obs_time": "2025-06-10 04:40:00",
    "fetched_at": "2025-06-10T08:27:35.998847Z"
  },
  "LTBA": {
    "icao": "LTBA",
    "metar": "LTBA 100750Z 02012KT 9999 FEW011 BKN025 27/20 Q1017 RMK RWY23 01013KT",
    "metar_obs_time": "2025-06-10 07:50:00",
    "taf": "TAF LTBA 100440Z 1006/1106 03013KT CAVOK BECMG 1008/1011 03021G31KT SCT030 BECMG 1015/1017 CAVOK BECMG 1017/1020 04013KT",
    "taf_obs_time": "2025-06-10 04:40:00",
    "fetched_at": "2025-06-10T08:27:35.998847Z"
  },
  "LTBU": {
    "icao": "LTBU",
    "metar": "LTBU 100750Z 02025KT 9999 SCT019 25/19 Q1018 RMK RWY22 03022KT",
    "metar_obs_time": "2025-06-10 07:50:00",
    "taf": "TAF LTBU 100440Z 1006/1106 02016KT CAVOK BECMG 1006/1008 03022G32KT SCT025 BECMG 1015/1017 CAVOK BECMG 1017/1020 03013KT",
    "taf_obs_time": "2025-06-10 04:40:00",
    "fetched_at": "2025-06-10T08:27:35.998847Z"
  }
}