{
  "LTFM": {
    "icao": "LTFM",
    "metar": "LTFM 110120Z 03012KT 9999 FEW014 20/16 Q1015 NOSIG RMK RWY17L 03011KT RWY34L 02012KT RWY16R 03011KT RWY36 04013KT RWY18 04012KT",
    "metar_obs_time": "2025-06-11 01:20:00",
    "taf": "TAF LTFM 102240Z 1100/1206 05012KT 9999 FEW014 BECMG 1103/1106 04015G25KT BECMG 1106/1109 CAVOK BECMG 1117/1120 36005KT BKN006 PROB30 TEMPO 1122/1202 4000 BR",
    "taf_obs_time": "2025-06-10 22:40:00",
    "fetched_at": "2025-06-11T01:39:41.642061Z"
  },
  "LTFJ": {
    "icao": "LTFJ",
    "metar": "LTFJ 110120Z 04009KT 9999 BKN017 19/17 Q1015 NOSIG RMK RWY24R 04005KT RWY06R 03009KT RWY24L 03006KT",
    "metar_obs_time": "2025-06-11 01:20:00",
    "taf": "TAF LTFJ 102240Z 1100/1124 03012KT 9999 SCT022 TEMPO 1100/1104 BKN016 BECMG 1108/1111 CAVOK TEMPO 1112/1116 04015G25KT BECMG 1121/1124 3500 BR SCT012",
    "taf_obs_time": "2025-06-10 22:40:00",
    "fetched_at": "2025-06-11T01:39:41.642061Z"
  },
  "LTBA": {
    "icao": "LTBA",
    "metar": "LTBA 110120Z 04009KT CAVOK 20/16 Q1014 RMK RWY23 04007KT",
    "metar_obs_time": "2025-06-11 01:20:00",
    "taf": "TAF LTBA 102240Z 1100/1124 05012KT 9999 FEW018 BECMG 1100/1102 BKN022 BECMG 1104/1107 03018G28KT SCT025 BECMG 1107/1109 CAVOK BECMG 1116/1119 03007KT",
    "taf_obs_time": "2025-06-10 22:40:00",
    "fetched_at": "2025-06-11T01:39:41.642061Z"
  },
  "LTBU": {
    "icao": "LTBU",
    "metar": "LTBU 110120Z 02010KT CAVOK 18/13 Q1015 RMK RWY22 01007KT",
    "metar_obs_time": "2025-06-11 01:20:00",
    "taf": "TAF LTBU 102240Z 1100/1124 02008KT 9999 FEW018 BECMG 1104/1107 04018G28KT CAVOK BECMG 1116/1119 01007KT SCT014 PROB30 TEMPO 1120/1124 2500 BR",
    "taf_obs_time": "2025-06-10 22:40:00",
    "fetched_at": "2025-06-11T01:39:41.642061Z"
  }
}