{
  "LTFM": {
    "icao": "LTFM",
    "metar": "LTFM 132120Z 07009KT 9999 FEW020 21/17 Q1019 NOSIG RMK RWY17L 07008KT RWY34L 06009KT RWY16R 06009KT RWY36 08008KT RWY18 08009KT",
    "metar_obs_time": "2025-06-13 21:20:00",
    "taf": "TAF LTFM 131640Z 1318/1424 06010KT CAVOK BECMG 1405/1408 03015G25KT SCT025 BECMG 1412/1415 02012KT BECMG 1415/1418 VRB02KT CAVOK",
    "taf_obs_time": "2025-06-13 16:40:00",
    "fetched_at": "2025-06-13T21:46:12.468306Z"
  },
  "LTFJ": {
    "icao": "LTFJ",
    "metar": "LTFJ 132120Z 03010KT CAVOK 19/16 Q1018 NOSIG RMK RWY24R 03009KT RWY06R 02011KT RWY24L 02008KT",
    "metar_obs_time": "2025-06-13 21:20:00",
    "taf": "TAF LTFJ 131640Z 1318/1418 05017KT CAVOK BECMG 1318/1321 04007KT TEMPO 1400/1404 SCT015 BECMG 1406/1410 04017KT SCT035 BECMG 1413/1417 CAVOK",
    "taf_obs_time": "2025-06-13 16:40:00",
    "fetched_at": "2025-06-13T21:46:12.468306Z"
  },
  "LTBA": {
    "icao": "LTBA",
    "metar": "LTBA 132120Z 06012KT CAVOK 21/16 Q1018 RMK RWY23 06011KT",
    "metar_obs_time": "2025-06-13 21:20:00",
    "taf": "TAF LTBA 131640Z 1318/1418 04009KT CAVOK BECMG 1405/1408 03015G25KT SCT040 BECMG 1415/1418 03007KT CAVOK",
    "taf_obs_time": "2025-06-13 16:40:00",
    "fetched_at": "2025-06-13T21:46:12.468306Z"
  },
  "LTBU": {
    "icao": "LTBU",
    "metar": "LTBU 132120Z 04010KT CAVOK 18/15 Q1019 RMK RWY22 04008KT",
    "metar_obs_time": "2025-06-13 21:20:00",
    "taf": "TAF LTBU 131640Z 1318/1418 03006KT CAVOK BECMG 1403/1406 03016KT SCT040 BECMG 1409/1412 CAVOK BECMG 1416/1418 01006KT",
    "taf_obs_time": "2025-06-13 16:40:00",
    "fetched_at": "2025-06-13T21:46:12.468306Z"
  }
}