{
  "LTFM": {
    "icao": "LTFM",
    "metar": "LTFM 082250Z 05008KT 9999 BKN010 19/16 Q1014 NOSIG RMK RWY17L 06006KT RWY34L 04007KT RWY16R 05006KT RWY36 05007KT RWY18 06005KT",
    "metar_obs_time": "2025-06-08 22:50:00",
    "taf": "TAF LTFM 082240Z 0900/1006 04005KT 9999 BKN008 BECMG 0906/0909 01015KT SCT016 BECMG 0912/0915 CAVOK BECMG 0918/0921 03005KT SCT015 PROB30 TEMPO 0922/1002 2800 BR BKN006",
    "taf_obs_time": "2025-06-08 22:40:00",
    "fetched_at": "2025-06-08T23:20:35.235866Z"
  },
  "LTFJ": {
    "icao": "LTFJ",
    "metar": "LTFJ 082250Z 04006KT 9999 BKN009 19/17 Q1013 NOSIG RMK RWY24R 04005KT RWY06R 04007KT RWY24L 04005KT 010V070",
    "metar_obs_time": "2025-06-08 22:50:00",
    "taf": "TAF LTFJ 082240Z 0900/0924 04007KT 9999 BKN008 PROB30 TEMPO 0903/0906 2500 BCFG BKN005 BECMG 0906/0909 03017KT CAVOK BECMG 0917/0920 04007KT",
    "taf_obs_time": "2025-06-08 22:40:00",
    "fetched_at": "2025-06-08T23:20:35.235866Z"
  },
  "LTBA": {
    "icao": "LTBA",
    "metar": "LTBA 082250Z 06007KT 9999 SCT020 19/16 Q1013 RMK RWY23 05004KT",
    "metar_obs_time": "2025-06-08 22:50:00",
    "taf": "TAF LTBA 082240Z 0900/0924 04012KT 9999 SCT020 BECMG 0900/0903 BKN012 BECMG 0906/0909 03015G25KT CAVOK BECMG 0915/0918 03008KT SCT018",
    "taf_obs_time": "2025-06-08 22:40:00",
    "fetched_at": "2025-06-08T23:20:35.235866Z"
  },
  "LTBU": {
    "icao": "LTBU",
    "metar": "LTBU 082250Z 00000KT CAVOK 15/14 Q1014 RMK RWY22 04005KT",
    "metar_obs_time": "2025-06-08 22:50:00",
    "taf": "TAF LTBU 082240Z 0900/0924 03005KT CAVOK BECMG 0900/0903 SCT006 PROB30 0903/0907 2200 BCFG BKN004 BECMG 0907/0910 03015KT CAVOK",
    "taf_obs_time": "2025-06-08 22:40:00",
    "fetched_at": "2025-06-08T23:20:35.235866Z"
  }
}