{
  "LTFM": {
    "icao": "LTFM",
    "metar": "LTFM 202220Z 06015KT 9999 FEW018 SCT025 21/17 Q1016 NOSIG RMK RWY17L 06014KT RWY34L 05010KT RWY16R 05013KT RWY36 06012KT RWY18 07011KT",
    "metar_obs_time": "2025-06-20 22:20:00",
    "taf": "TAF LTFM 201640Z 2018/2124 04018G28KT 9999 BKN015 BKN025 BECMG 2018/2021 04015KT BECMG 2021/2023 SCT025 BECMG 2106/2109 04018G28KT BECMG 2115/2118 04012KT CAVOK",
    "taf_obs_time": "2025-06-20 16:40:00",
    "fetched_at": "2025-06-20T22:38:20.598206Z"
  },
  "LTFJ": {
    "icao": "LTFJ",
    "metar": "LTFJ 202220Z 04018KT 9999 SCT015 BKN030 22/18 Q1015 NOSIG RMK RWY24R 04014KT RWY06R 03017KT RWY24L 03015KT",
    "metar_obs_time": "2025-06-20 22:20:00",
    "taf": "TAF LTFJ 201640Z 2018/2118 03009KT 9999 BKN030 TEMPO 2018/2021 03015G25KT FEW015 BKN025 PROB30 TEMPO 2021/2101 -SHRA FEW016CB BKN020 BECMG 2103/2106 SCT035 BECMG 2106/2109 03019KT",
    "taf_obs_time": "2025-06-20 16:40:00",
    "fetched_at": "2025-06-20T22:38:20.598206Z"
  },
  "LTBA": {
    "icao": "LTBA",
    "metar": "LTBA 202220Z 03016KT CAVOK 22/17 Q1015 RMK RWY23 04016KT",
    "metar_obs_time": "2025-06-20 22:20:00",
    "taf": "TAF LTBA 201640Z 2018/2118 03018KT 9999 BKN025 BECMG 2020/2023 04008KT SCT025 PROB30 TEMPO 2023/2103 BKN008 BECMG 2104/2107 04018KT BECMG 2112/2115 CAVOK",
    "taf_obs_time": "2025-06-20 16:40:00",
    "fetched_at": "2025-06-20T22:38:20.598206Z"
  },
  "LTBU": {
    "icao": "LTBU",
    "metar": "LTBU 202220Z 01004KT 9999 SCT035 BKN100 18/16 Q1016 RMK RWY22 02006KT",
    "metar_obs_time": "2025-06-20 22:20:00",
    "taf": "TAF LTBU 201640Z 2018/2118 03018KT CAVOK BECMG 2020/2023 04008KT SCT035 BECMG 2106/2109 05018KT BECMG 2110/2113 CAVOK BECMG 2115/2118 02008KT",
    "taf_obs_time": "2025-06-20 16:40:00",
    "fetched_at": "2025-06-20T22:38:20.598206Z"
  }
}