{
  "LTFM": {
    "icao": "LTFM",
    "metar": "LTFM 120920Z 03010KT 350V050 9999 SCT014 24/15 Q1017 NOSIG",
    "metar_obs_time": "2025-06-12 09:20:00",
    "taf": "TAF LTFM 120440Z 1206/1312 35006KT 9999 BKN009 BECMG 1206/1209 05013KT SCT014 BECMG 1209/1212 CAVOK BECMG 1215/1218 SCT008 BECMG 1220/1223 BKN006 PROB30 1223/1303 4000 BR BKN004 BECMG 1304/1307 SCT012 BECMG 1307/1310 CAVOK",
    "taf_obs_time": "2025-06-12 04:40:00",
    "fetched_at": "2025-06-12T09:29:30.582902Z"
  },
  "LTFJ": {
    "icao": "LTFJ",
    "metar": "LTFJ 120920Z 04008KT 010V090 9999 FEW040 28/18 Q1015 NOSIG",
    "metar_obs_time": "2025-06-12 09:20:00",
    "taf": "TAF LTFJ 120440Z 1206/1306 04017KT CAVOK BECMG 1218/1221 04007KT SCT009 PROB30 TEMPO 1300/1304 3500 BCFG BKN004",
    "taf_obs_time": "2025-06-12 04:40:00",
    "fetched_at": "2025-06-12T09:29:30.582902Z"
  },
  "LTBA": {
    "icao": "LTBA",
    "metar": "LTBA 120920Z 26007KT 210V010 CAVOK 27/18 Q1015",
    "metar_obs_time": "2025-06-12 09:20:00",
    "taf": "TAF LTBA 120440Z 1206/1306 03007KT 9999 SCT012 BECMG 1208/1211 03017KT CAVOK BECMG 1217/1220 05007KT SCT012 BECMG 1220/1223 BKN006 BECMG 1304/1306 SCT012",
    "taf_obs_time": "2025-06-12 04:40:00",
    "fetched_at": "2025-06-12T09:29:30.582902Z"
  },
  "LTBU": {
    "icao": "LTBU",
    "metar": "LTBU 120920Z 04011KT 010V070 CAVOK 29/14 Q1016",
    "metar_obs_time": "2025-06-12 09:20:00",
    "taf": "TAF LTBU 120440Z 1206/1306 34006KT CAVOK BECMG 1207/1210 04017KT BECMG 1216/1219 03007KT SCT012 PROB30 1300/1304 2200 BCFG BKN008",
    "taf_obs_time": "2025-06-12 04:40:00",
    "fetched_at": "2025-06-12T09:29:30.582902Z"
  }
}