{
  "LTFM": {
    "icao": "LTFM",
    "metar": "LTFM 030720Z VRB04KT CAVOK 25/12 Q1020 NOSIG RMK RWY17L 03005KT 340V050 RWY34L VRB04KT RWY16R VRB04KT RWY36 VRB03KT RWY18 04005KT 360V060",
    "metar_obs_time": "2025-06-03 07:20:00",
    "taf": "TAF LTFM 030440Z 0306/0412 VRB02KT CAVOK BECMG 0306/0309 06012KT BECMG 0316/0319 18005KT BECMG 0407/0410 05010KT",
    "taf_obs_time": "2025-06-03 04:40:00",
    "fetched_at": "2025-06-03T07:57:31.187677Z"
  },
  "LTFJ": {
    "icao": "LTFJ",
    "metar": "LTFJ 030720Z 24005KT 180V280 CAVOK 24/12 Q1020 NOSIG RMK RWY24R 22003KT 160V270 RWY06R 22006KT 190V250 RWY24L 21004KT 150V250",
    "metar_obs_time": "2025-06-03 07:20:00",
    "taf": "TAF LTFJ 030440Z 0306/0406 24009KT CAVOK BECMG 0311/0315 03012KT BECMG 0316/0318 VRB02KT",
    "taf_obs_time": "2025-06-03 04:40:00",
    "fetched_at": "2025-06-03T07:57:31.187677Z"
  },
  "LTBA": {
    "icao": "LTBA",
    "metar": "LTBA 030720Z 16005KT 120V200 CAVOK 21/14 Q1020 RMK RWY23 19004KT 150V210",
    "metar_obs_time": "2025-06-03 07:20:00",
    "taf": "TAF LTBA 030440Z 0306/0406 VRB02KT CAVOK BECMG 0307/0310 21012KT BECMG 0313/0316 VRB02KT",
    "taf_obs_time": "2025-06-03 04:40:00",
    "fetched_at": "2025-06-03T07:57:31.187677Z"
  },
  "LTBU": {
    "icao": "LTBU",
    "metar": "LTBU 030720Z VRB04KT CAVOK 25/09 Q1020 RMK RWY22 15005KT 060V220",
    "metar_obs_time": "2025-06-03 07:20:00",
    "taf": "TAF LTBU 030440Z 0306/0406 VRB02KT CAVOK BECMG 0307/0310 17012KT BECMG 0316/0319 VRB02KT",
    "taf_obs_time": "2025-06-03 04:40:00",
    "fetched_at": "2025-06-03T07:57:31.187677Z"
  }
}