{
  "LTFM": {
    "icao": "LTFM",
    "metar": "LTFM 081420Z 03014KT 9999 SCT018 22/17 Q1015 NOSIG RMK RWY17L 03012KT RWY34L 01013KT 340V040 RWY16R 02012KT RWY36 03013KT RWY18 04011KT",
    "metar_obs_time": "2025-06-08 14:20:00",
    "taf": "TAF LTFM 081040Z 0812/0918 02015KT 9999 SCT018 BECMG 0818/0821 03005KT BKN012 PROB30 0901/0905 2500 BCFG BKN006 BECMG 0906/0909 36015KT SCT016 BECMG 0912/0915 CAVOK",
    "taf_obs_time": "2025-06-08 10:40:00",
    "fetched_at": "2025-06-08T14:49:30.446489Z"
  },
  "LTFJ": {
    "icao": "LTFJ",
    "metar": "LTFJ 081420Z 02009KT 350V050 CAVOK 25/16 Q1013 NOSIG RMK RWY24R 03009KT 360V060 RWY06R 02010KT RWY24L 01010KT 330V040",
    "metar_obs_time": "2025-06-08 14:20:00",
    "taf": "TAF LTFJ 081040Z 0812/0912 23010KT CAVOK BECMG 0812/0815 02009KT BECMG 0819/0822 SCT012 PROB30 TEMPO 0901/0904 2500 BCFG BKN005 BECMG 0905/0907 CAVOK",
    "taf_obs_time": "2025-06-08 10:40:00",
    "fetched_at": "2025-06-08T14:49:30.446489Z"
  },
  "LTBA": {
    "icao": "LTBA",
    "metar": "LTBA 081420Z 01008KT 330V050 CAVOK 26/17 Q1013 RMK RWY23 03009KT 340V070",
    "metar_obs_time": "2025-06-08 14:20:00",
    "taf": "TAF LTBA 081040Z 0812/0912 22008KT CAVOK BECMG 0812/0815 02012KT SCT016 BECMG 0820/0823 BKN012 PROB40 0823/0903 2200 BCFG BKN004",
    "taf_obs_time": "2025-06-08 10:40:00",
    "fetched_at": "2025-06-08T14:49:30.446489Z"
  },
  "LTBU": {
    "icao": "LTBU",
    "metar": "LTBU 081420Z 03010KT 350V080 CAVOK 26/15 Q1014 RMK RWY22 05009KT 010V100",
    "metar_obs_time": "2025-06-08 14:20:00",
    "taf": "TAF LTBU 081040Z 0812/0912 03015KT CAVOK BECMG 0819/0822 01005KT SCT016 BECMG 0822/0824 BKN012 PROB40 0901/0905 2200 BCFG BKN006 BECMG 0905/0908 CAVOK",
    "taf_obs_time": "2025-06-08 10:40:00",
    "fetched_at": "2025-06-08T14:49:30.446489Z"
  }
}