{
  "LTFM": {
    "icao": "LTFM",
    "metar": "LTFM 081250Z 02015KT 340V040 9999 SCT018 23/17 Q1015 NOSIG RMK RWY17L 01012KT RWY34L 35013KT 300V030 RWY16R 36012KT RWY36 01014KT RWY18 01013KT",
    "metar_obs_time": "2025-06-08 12:50:00",
    "taf": "TAF LTFM 081040Z 0812/0918 02015KT 9999 SCT018 BECMG 0818/0821 03005KT BKN012 PROB30 0901/0905 2500 BCFG BKN006 BECMG 0906/0909 36015KT SCT016 BECMG 0912/0915 CAVOK",
    "taf_obs_time": "2025-06-08 10:40:00",
    "fetched_at": "2025-06-08T13:15:20.520868Z"
  },
  "LTFJ": {
    "icao": "LTFJ",
    "metar": "LTFJ 081250Z 04008KT 330V100 CAVOK 26/17 Q1014 NOSIG RMK RWY24R 04011KT 010V070 RWY06R 22006KT 190V270 RWY24L 02010KT 340V040",
    "metar_obs_time": "2025-06-08 12:50:00",
    "taf": "TAF LTFJ 081040Z 0812/0912 23010KT CAVOK BECMG 0812/0815 02009KT BECMG 0819/0822 SCT012 PROB30 TEMPO 0901/0904 2500 BCFG BKN005 BECMG 0905/0907 CAVOK",
    "taf_obs_time": "2025-06-08 10:40:00",
    "fetched_at": "2025-06-08T13:15:20.520868Z"
  },
  "LTBA": {
    "icao": "LTBA",
    "metar": "LTBA 081250Z 02008KT 330V070 CAVOK 27/16 Q1014 RMK RWY23 03010KT 340V060",
    "metar_obs_time": "2025-06-08 12:50:00",
    "taf": "TAF LTBA 081040Z 0812/0912 22008KT CAVOK BECMG 0812/0815 02012KT SCT016 BECMG 0820/0823 BKN012 PROB40 0823/0903 2200 BCFG BKN004",
    "taf_obs_time": "2025-06-08 10:40:00",
    "fetched_at": "2025-06-08T13:15:20.520868Z"
  },
  "LTBU": {
    "icao": "LTBU",
    "metar": "LTBU 081250Z 04010KT CAVOK 28/10 Q1014 RMK RWY22 05010KT",
    "metar_obs_time": "2025-06-08 12:50:00",
    "taf": "TAF LTBU 081040Z 0812/0912 03015KT CAVOK BECMG 0819/0822 01005KT SCT016 BECMG 0822/0824 BKN012 PROB40 0901/0905 2200 BCFG BKN006 BECMG 0905/0908 CAVOK",
    "taf_obs_time": "2025-06-08 10:40:00",
    "fetched_at": "2025-06-08T13:15:20.520868Z"
  }
}