{
  "LTFM": {
    "icao": "LTFM",
    "metar": "LTFM 150520Z 01011KT 330V040 9999 SCT028 21/14 Q1018 NOSIG RMK RWY17L 01009KT RWY34L 32008KT RWY16R 34008KT 270V360 RWY36 36011KT RWY18 36010KT 330V030",
    "metar_obs_time": "2025-06-15 05:20:00",
    "taf": "TAF LTFM 150440Z 1506/1612 01014KT 9999 SCT028 BECMG 1512/1515 CAVOK BECMG 1516/1519 VRB02KT BECMG 1605/1608 01012KT",
    "taf_obs_time": "2025-06-15 04:40:00",
    "fetched_at": "2025-06-15T05:42:54.596598Z"
  },
  "LTFJ": {
    "icao": "LTFJ",
    "metar": "LTFJ 150520Z 05005KT 010V080 9999 FEW035 20/15 Q1018 NOSIG RMK RWY24R 05005KT RWY06R 04005KT 350V070 RWY24L 04004KT 360V060",
    "metar_obs_time": "2025-06-15 05:20:00",
    "taf": "TAF LTFJ 150440Z 1506/1606 04005KT 9999 SCT035 BECMG 1509/1512 04015KT PROB30 TEMPO 1509/1512 -SHRA BKN030 BECMG 1512/1514 CAVOK BECMG 1517/1520 04005KT",
    "taf_obs_time": "2025-06-15 04:40:00",
    "fetched_at": "2025-06-15T05:42:54.596598Z"
  },
  "LTBA": {
    "icao": "LTBA",
    "metar": "LTBA 150520Z 02008KT 360V060 CAVOK 22/13 Q1018 RMK RWY23 03008KT 340V070",
    "metar_obs_time": "2025-06-15 05:20:00",
    "taf": "TAF LTBA 150440Z 1506/1606 01015KT 9999 SCT032 BECMG 1511/1514 CAVOK BECMG 1516/1519 VRB02KT",
    "taf_obs_time": "2025-06-15 04:40:00",
    "fetched_at": "2025-06-15T05:42:54.596598Z"
  },
  "LTBU": {
    "icao": "LTBU",
    "metar": "LTBU 150520Z 03013KT CAVOK 20/14 Q1018 RMK RWY22 02010KT 010V070",
    "metar_obs_time": "2025-06-15 05:20:00",
    "taf": "TAF LTBU 150440Z 1506/1606 04015KT 9999 SCT032 BECMG 1511/1514 CAVOK BECMG 1516/1519 VRB02KT",
    "taf_obs_time": "2025-06-15 04:40:00",
    "fetched_at": "2025-06-15T05:42:54.596598Z"
  }
}