{
  "LTFM": {
    "icao": "LTFM",
    "metar": "LTFM 111120Z 01015KT CAVOK 23/17 Q1014 NOSIG RMK RWY17L 36014KT RWY34L 36014KT RWY16R 35014KT RWY36 01014KT RWY18 01012KT",
    "metar_obs_time": "2025-06-11 11:20:00",
    "taf": "TAF LTFM 111040Z 1112/1218 04015KT CAVOK BECMG 1117/1119 36005KT SCT008 BECMG 1119/1121 BKN006 PROB30 1121/1124 2500 BCFG BKN004 PROB40 1200/1203 1200 BCFG BKN004 BECMG 1204/1206 SCT014 BECMG 1206/1209 04015KT CAVOK",
    "taf_obs_time": "2025-06-11 10:40:00",
    "fetched_at": "2025-06-11T11:54:51.973952Z"
  },
  "LTFJ": {
    "icao": "LTFJ",
    "metar": "LTFJ 111120Z 03016KT 9999 SCT030 28/19 Q1012 NOSIG RMK RWY24R 06015KT RWY06R 04014KT 010V070 RWY24L 04014KT 010V070",
    "metar_obs_time": "2025-06-11 11:20:00",
    "taf": "TAF LTFJ 111040Z 1112/1212 05017KT 9999 SCT030 TEMPO 1112/1116 04019G29KT BECMG 1117/1120 05007KT BECMG 1120/1123 BKN012 PROB30 TEMPO 1201/1205 3500 BR BKN008 BECMG 1206/1209 SCT030 BECMG 1209/1212 04017KT",
    "taf_obs_time": "2025-06-11 10:40:00",
    "fetched_at": "2025-06-11T11:54:51.973952Z"
  },
  "LTBA": {
    "icao": "LTBA",
    "metar": "LTBA 111120Z 03015KT 350V050 CAVOK 28/18 Q1012 RMK RWY23 03015KT 350V060",
    "metar_obs_time": "2025-06-11 11:20:00",
    "taf": "TAF LTBA 111040Z 1112/1212 04016G26KT 9999 FEW030 BECMG 1112/1115 CAVOK BECMG 1116/1119 02007KT SCT012 BECMG 1120/1123 BKN006 PROB30 1123/1203 2800 BR BECMG 1208/1211 04017KT CAVOK",
    "taf_obs_time": "2025-06-11 10:40:00",
    "fetched_at": "2025-06-11T11:54:51.973952Z"
  },
  "LTBU": {
    "icao": "LTBU",
    "metar": "LTBU 111120Z 03014KT CAVOK 28/16 Q1014 RMK RWY22 04013KT 020V080",
    "metar_obs_time": "2025-06-11 11:20:00",
    "taf": "TAF LTBU 111040Z 1112/1212 03016KT CAVOK BECMG 1116/1119 01006KT BECMG 1120/1122 SCT012 PROB30 1122/1202 2500 BR BKN008 BECMG 1204/1207 CAVOK BECMG 1209/1212 03016KT",
    "taf_obs_time": "2025-06-11 10:40:00",
    "fetched_at": "2025-06-11T11:54:51.973952Z"
  }
}