{
  "LTFM": {
    "icao": "LTFM",
    "metar": "LTFM 200720Z 25006KT 210V290 CAVOK 29/13 Q1014 NOSIG RMK RWY17L 26005KT 220V290 RWY34L 22006KT RWY16R 26005KT 210V300 RWY36 22006KT 160V260 RWY18 VRB05KT",
    "metar_obs_time": "2025-06-20 07:20:00",
    "taf": "TAF LTFM 200440Z 2006/2112 23006KT CAVOK BECMG 2006/2009 34013KT SCT016 BECMG 2013/2016 04015KT BKN008 BECMG 2018/2021 SCT016",
    "taf_obs_time": "2025-06-20 04:40:00",
    "fetched_at": "2025-06-20T07:56:18.498172Z"
  },
  "LTFJ": {
    "icao": "LTFJ",
    "metar": "LTFJ 200720Z 23005KT 190V260 9999 FEW035 26/11 Q1014 NOSIG RMK RWY24R 23005KT RWY06R 21007KT RWY24L 23007KT 190V250",
    "metar_obs_time": "2025-06-20 07:20:00",
    "taf": "TAF LTFJ 200440Z 2006/2106 24007KT 9999 FEW035 BECMG 2009/2013 03012KT BECMG 2018/2022 BKN035 TEMPO 2023/2102 -SHRA",
    "taf_obs_time": "2025-06-20 04:40:00",
    "fetched_at": "2025-06-20T07:56:18.498172Z"
  },
  "LTBA": {
    "icao": "LTBA",
    "metar": "LTBA 200720Z 21006KT 180V240 CAVOK 24/18 Q1014 RMK RWY23 22006KT 190V250",
    "metar_obs_time": "2025-06-20 07:20:00",
    "taf": "TAF LTBA 200440Z 2006/2106 20006KT CAVOK BECMG 2009/2012 02015KT SCT016 BECMG 2015/2018 BKN009 BECMG 2022/2101 SCT016",
    "taf_obs_time": "2025-06-20 04:40:00",
    "fetched_at": "2025-06-20T07:56:18.498172Z"
  },
  "LTBU": {
    "icao": "LTBU",
    "metar": "LTBU 200720Z 30005KT 230V010 CAVOK 30/13 Q1014 RMK RWY22 30007KT 250V350",
    "metar_obs_time": "2025-06-20 07:20:00",
    "taf": "TAF LTBU 200440Z 2006/2106 VRB02KT CAVOK BECMG 2008/2011 03015KT SCT022 TEMPO 2011/2015 03016G26KT -SHRA FEW018CB BKN022 BECMG 2020/2023 03005KT",
    "taf_obs_time": "2025-06-20 04:40:00",
    "fetched_at": "2025-06-20T07:56:18.498172Z"
  }
}