{
  "LTFM": {
    "icao": "LTFM",
    "metar": "LTFM 061720Z 05015KT 9999 SCT014 21/18 Q1018 NOSIG RMK RWY17L 05010KT RWY34L 03012KT RWY16R 05012KT RWY36 05014KT RWY18 06011KT",
    "metar_obs_time": "2025-06-06 17:20:00",
    "taf": "TAF LTFM 061640Z 0618/0724 05015G25KT 9999 SCT009 BECMG 0618/0620 05008KT BECMG 0622/0701 BKN006 PROB30 TEMPO 0700/0703 2500 BCFG BECMG 0703/0706 04017G27KT BECMG 0709/0712 SCT012 BECMG 0716/0719 03009KT",
    "taf_obs_time": "2025-06-06 16:40:00",
    "fetched_at": "2025-06-06T17:55:18.838120Z"
  },
  "LTFJ": {
    "icao": "LTFJ",
    "metar": "LTFJ 061720Z 04016KT CAVOK 21/17 Q1016 NOSIG RMK RWY24R 05010KT RWY06R 03015KT RWY24L 03011KT",
    "metar_obs_time": "2025-06-06 17:20:00",
    "taf": "TAF LTFJ 061640Z 0618/0718 04009KT CAVOK BECMG 0618/0620 SCT012 BECMG 0620/0624 BKN007 PROB30 TEMPO 0700/0704 2500 BCFG BKN004 BECMG 0704/0708 SCT015 BECMG 0708/0710 03019KT CAVOK BECMG 0715/0718 05009KT",
    "taf_obs_time": "2025-06-06 16:40:00",
    "fetched_at": "2025-06-06T17:55:18.838120Z"
  },
  "LTBA": {
    "icao": "LTBA",
    "metar": "LTBA 061720Z 04015KT CAVOK 22/16 Q1017 RMK RWY23 03012KT",
    "metar_obs_time": "2025-06-06 17:20:00",
    "taf": "TAF LTBA 061640Z 0618/0718 05015G25KT CAVOK BECMG 0618/0621 05009KT SCT018 BECMG 0622/0701 BKN007 PROB30 TEMPO 0701/0704 4500 BR BECMG 0704/0706 02017G27KT SCT018",
    "taf_obs_time": "2025-06-06 16:40:00",
    "fetched_at": "2025-06-06T17:55:18.838120Z"
  },
  "LTBU": {
    "icao": "LTBU",
    "metar": "LTBU 061720Z 04014KT CAVOK 21/13 Q1017 RMK RWY22 04014KT",
    "metar_obs_time": "2025-06-06 17:20:00",
    "taf": "TAF LTBU 061640Z 0618/0718 04015G25KT CAVOK BECMG 0618/0621 03007KT FEW016 BECMG 0622/0701 2500 BCFG BKN007 BECMG 0703/0706 03017G27KT 9999 NSW SCT018 BECMG 0708/0711 CAVOK BECMG 0715/0718 03010KT",
    "taf_obs_time": "2025-06-06 16:40:00",
    "fetched_at": "2025-06-06T17:55:18.838120Z"
  }
}