{
  "LTFM": {
    "icao": "LTFM",
    "metar": "LTFM 040850Z 18005KT 130V220 CAVOK 29/15 Q1019 NOSIG RMK RWY17L 29005KT 190V360 RWY34L VRB03KT RWY16R VRB03KT RWY36 12005KT 030V180 RWY18 VRB04KT",
    "metar_obs_time": "2025-06-04 08:50:00",
    "taf": "TAF LTFM 040440Z 0406/0512 20006KT CAVOK BECMG 0407/0410 05010KT BECMG 0417/0420 11010KT BECMG 0421/0424 31005KT FEW006 BECMG 0505/0507 05012KT CAVOK",
    "taf_obs_time": "2025-06-04 04:40:00",
    "fetched_at": "2025-06-04T09:19:37.975871Z"
  },
  "LTFJ": {
    "icao": "LTFJ",
    "metar": "LTFJ 040850Z 23007KT 200V270 CAVOK 27/12 Q1019 NOSIG RMK RWY24R 25007KT RWY06R 22007KT RWY24L 24007KT 200V280",
    "metar_obs_time": "2025-06-04 08:50:00",
    "taf": "TAF LTFJ 040440Z 0406/0506 23007KT CAVOK BECMG 0410/0412 03010KT",
    "taf_obs_time": "2025-06-04 04:40:00",
    "fetched_at": "2025-06-04T09:19:37.975871Z"
  },
  "LTBA": {
    "icao": "LTBA",
    "metar": "LTBA 040850Z 23007KT CAVOK 24/17 Q1019 RMK RWY23 23009KT",
    "metar_obs_time": "2025-06-04 08:50:00",
    "taf": "TAF LTBA 040440Z 0406/0506 VRB02KT CAVOK BECMG 0407/0410 21012KT BECMG 0414/0417 01008KT",
    "taf_obs_time": "2025-06-04 04:40:00",
    "fetched_at": "2025-06-04T09:19:37.975871Z"
  },
  "LTBU": {
    "icao": "LTBU",
    "metar": "LTBU 040850Z VRB04KT CAVOK 29/14 Q1019 RMK RWY22 16008KT 130V190",
    "metar_obs_time": "2025-06-04 08:50:00",
    "taf": "TAF LTBU 040440Z 0406/0506 VRB02KT CAVOK BECMG 0407/0410 17012KT BECMG 0417/0420 01006KT",
    "taf_obs_time": "2025-06-04 04:40:00",
    "fetched_at": "2025-06-04T09:19:37.975871Z"
  }
}