{
  "LTFM": {
    "icao": "LTFM",
    "metar": "LTFM 152250Z 28004KT 260V330 CAVOK 18/12 Q1017 NOSIG RMK RWY17L 27005KT RWY34L 28002KT RWY16R 24005KT RWY36 VRB03KT RWY18 27006KT",
    "metar_obs_time": "2025-06-15 22:50:00",
    "taf": "TAF LTFM 152240Z 1600/1706 27007KT CAVOK TEMPO 1601/1605 FEW032 BECMG 1605/1607 01012KT BECMG 1616/1618 11007KT",
    "taf_obs_time": "2025-06-15 22:40:00",
    "fetched_at": "2025-06-15T23:24:04.660715Z"
  },
  "LTFJ": {
    "icao": "LTFJ",
    "metar": "LTFJ 152250Z 06005KT CAVOK 16/13 Q1017 NOSIG RMK RWY24R 07003KT RWY06R 03006KT RWY24L 04003KT",
    "metar_obs_time": "2025-06-15 22:50:00",
    "taf": "TAF LTFJ 152240Z 1600/1624 VRB02KT CAVOK BECMG 1609/1612 03012KT SCT035 BECMG 1612/1615 CAVOK BECMG 1615/1618 VRB02KT",
    "taf_obs_time": "2025-06-15 22:40:00",
    "fetched_at": "2025-06-15T23:24:04.660715Z"
  },
  "LTBA": {
    "icao": "LTBA",
    "metar": "LTBA 152250Z 03004KT 350V050 CAVOK 19/12 Q1016 RMK RWY23 02004KT",
    "metar_obs_time": "2025-06-15 22:50:00",
    "taf": "TAF LTBA 152240Z 1600/1624 03005KT CAVOK BECMG 1605/1607 19010KT FEW032 BECMG 1610/1612 02008KT CAVOK",
    "taf_obs_time": "2025-06-15 22:40:00",
    "fetched_at": "2025-06-15T23:24:04.660715Z"
  },
  "LTBU": {
    "icao": "LTBU",
    "metar": "LTBU 152250Z 36005KT CAVOK 14/08 Q1017 RMK RWY22 35004KT",
    "metar_obs_time": "2025-06-15 22:50:00",
    "taf": "TAF LTBU 152240Z 1600/1624 33007KT CAVOK BECMG 1606/1608 03012KT FEW032 BECMG 1615/1618 VRB02KT CAVOK",
    "taf_obs_time": "2025-06-15 22:40:00",
    "fetched_at": "2025-06-15T23:24:04.660715Z"
  }
}