{
  "LTFM": {
    "icao": "LTFM",
    "metar": "LTFM 010620Z 34010KT 9999 FEW010 BKN030 19/15 Q1018 NOSIG RMK RWY17L 33009KT RWY34L 33008KT 300V010 RWY16R 33007KT RWY36 34009KT RWY18 34009KT",
    "metar_obs_time": "2025-06-01 06:20:00",
    "taf": "TAF LTFM 010440Z 0106/0212 36012KT 9999 FEW010 BKN030 BECMG 0106/0109 SCT035 BECMG 0109/0112 CAVOK BECMG 0118/0121 30008KT FEW010 SCT025 BECMG 0206/0209 02010KT",
    "taf_obs_time": "2025-06-01 04:40:00",
    "fetched_at": "2025-06-01T06:47:49.574828Z"
  },
  "LTFJ": {
    "icao": "LTFJ",
    "metar": "LTFJ 010620Z 05008KT 020V080 9999 SCT035 SCT200 20/12 Q1018 NOSIG RMK RWY24R 04006KT 010V080 RWY06R 01006KT 330V070 RWY24L 03006KT 320V080",
    "metar_obs_time": "2025-06-01 06:20:00",
    "taf": "TAF LTFJ 010440Z 0106/0206 03015KT 9999 SCT035 BECMG 0113/0116 CAVOK BECMG 0118/0121 04005KT SCT006 BECMG 0121/0124 4000 BR BKN006 PROB40 TEMPO 0200/0204 0800 FG BKN002 BECMG 0204/0206 9999 NSW SCT035",
    "taf_obs_time": "2025-06-01 04:40:00",
    "fetched_at": "2025-06-01T06:47:49.574828Z"
  },
  "LTBA": {
    "icao": "LTBA",
    "metar": "LTBA 010620Z 21005KT 9999 SCT035 19/14 Q1018 RMK RWY23 21005KT",
    "metar_obs_time": "2025-06-01 06:20:00",
    "taf": "TAF LTBA 010440Z 0106/0206 02015KT 9999 SCT035 BECMG 0117/0120 34005KT PROB30 0201/0205 3200 BR BKN006",
    "taf_obs_time": "2025-06-01 04:40:00",
    "fetched_at": "2025-06-01T06:47:49.574828Z"
  },
  "LTBU": {
    "icao": "LTBU",
    "metar": "LTBU 010620Z 36010KT 9999 FEW040 BKN070 20/11 Q1018 RMK RWY22 02011KT",
    "metar_obs_time": "2025-06-01 06:20:00",
    "taf": "TAF LTBU 010440Z 0106/0206 33007KT 9999 SCT035 BKN080 BECMG 0106/0108 03015KT CAVOK BECMG 0115/0118 35005KT",
    "taf_obs_time": "2025-06-01 04:40:00",
    "fetched_at": "2025-06-01T06:47:49.574828Z"
  }
}