{
  "LTFM": {
    "icao": "LTFM",
    "metar": "LTFM 080750Z 02012KT 340V050 9999 SCT018 22/15 Q1016 NOSIG RMK RWY17L 02011KT RWY34L 02011KT 340V040 RWY16R 02011KT RWY36 04012KT RWY18 03011KT 350V060",
    "metar_obs_time": "2025-06-08 07:50:00",
    "taf": "TAF LTFM 080440Z 0806/0912 02016KT 9999 BKN016 BECMG 0807/0810 SCT018 BECMG 0817/0819 03006KT BECMG 0821/0824 BKN012 PROB30 0901/0905 2500 BCFG BKN006 BECMG 0906/0909 SCT016",
    "taf_obs_time": "2025-06-08 04:40:00",
    "fetched_at": "2025-06-08T08:25:11.945034Z"
  },
  "LTFJ": {
    "icao": "LTFJ",
    "metar": "LTFJ 080750Z VRB06KT CAVOK 24/16 Q1015 NOSIG RMK RWY24R VRB05KT RWY06R 01005KT 300V100 RWY24L 01008KT 330V070",
    "metar_obs_time": "2025-06-08 07:50:00",
    "taf": "TAF LTFJ 080440Z 0806/0906 04012KT 9999 SCT025 BECMG 0807/0810 CAVOK BECMG 0820/0824 SCT015 PROB30 TEMPO 0902/0905 3500 BCFG BKN012",
    "taf_obs_time": "2025-06-08 04:40:00",
    "fetched_at": "2025-06-08T08:25:11.945034Z"
  },
  "LTBA": {
    "icao": "LTBA",
    "metar": "LTBA 080750Z 34009KT 310V020 9999 FEW023 25/15 Q1016 RMK RWY23 04008KT 010V080",
    "metar_obs_time": "2025-06-08 07:50:00",
    "taf": "TAF LTBA 080440Z 0806/0906 04006KT 9999 BKN020 BECMG 0806/0809 03016KT SCT022 BECMG 0818/0820 04006KT BECMG 0820/0822 BKN012 PROB40 0823/0903 2800 BCFG BKN004",
    "taf_obs_time": "2025-06-08 04:40:00",
    "fetched_at": "2025-06-08T08:25:11.945034Z"
  },
  "LTBU": {
    "icao": "LTBU",
    "metar": "LTBU 080750Z 03008KT 340V100 CAVOK 25/15 Q1016 RMK RWY22 05007KT 010V100",
    "metar_obs_time": "2025-06-08 07:50:00",
    "taf": "TAF LTBU 080440Z 0806/0906 33005KT 9999 SCT012 BECMG 0806/0809 03015KT CAVOK BECMG 0819/0822 01005KT SCT016 BECMG 0822/0824 BKN012 PROB40 0901/0905 2200 BCFG BKN006",
    "taf_obs_time": "2025-06-08 04:40:00",
    "fetched_at": "2025-06-08T08:25:11.945034Z"
  }
}