{
  "LTFM": {
    "icao": "LTFM",
    "metar": "LTFM 161320Z 05009KT 020V080 CAVOK 25/13 Q1017 NOSIG RMK RWY17L 04008KT 360V070 RWY34L 02007KT 330V050 RWY16R 04008KT 010V070 RWY36 04009KT 360V060 RWY18 05008KT 010V070",
    "metar_obs_time": "2025-06-16 13:20:00",
    "taf": "TAF LTFM 161040Z 1612/1718 03012KT CAVOK BECMG 1615/1618 VRB02KT PROB30 1701/1705 4000 BR SCT008 BECMG 1705/1708 01012KT",
    "taf_obs_time": "2025-06-16 10:40:00",
    "fetched_at": "2025-06-16T13:50:51.150428Z"
  },
  "LTFJ": {
    "icao": "LTFJ",
    "metar": "LTFJ 161320Z 02010KT 340V050 9999 FEW035 26/11 Q1016 NOSIG RMK RWY24R 03011KT 010V070 RWY06R 04012KT RWY24L 36011KT",
    "metar_obs_time": "2025-06-16 13:20:00",
    "taf": "TAF LTFJ 161040Z 1612/1712 27012KT 9999 SCT040 BECMG 1612/1615 02012KT CAVOK BECMG 1619/1622 VRB02KT BECMG 1709/1712 01012KT",
    "taf_obs_time": "2025-06-16 10:40:00",
    "fetched_at": "2025-06-16T13:50:51.150428Z"
  },
  "LTBA": {
    "icao": "LTBA",
    "metar": "LTBA 161320Z 23007KT 9999 FEW035 24/15 Q1016 RMK RWY23 22007KT 190V250",
    "metar_obs_time": "2025-06-16 13:20:00",
    "taf": "TAF LTBA 161040Z 1612/1712 21007KT CAVOK BECMG 1612/1615 04012KT BECMG 1618/1621 VRB02KT BECMG 1705/1708 21012KT",
    "taf_obs_time": "2025-06-16 10:40:00",
    "fetched_at": "2025-06-16T13:50:51.150428Z"
  },
  "LTBU": {
    "icao": "LTBU",
    "metar": "LTBU 161320Z 17004KT 120V280 CAVOK 26/11 Q1016 RMK RWY22 VRB05KT",
    "metar_obs_time": "2025-06-16 13:20:00",
    "taf": "TAF LTBU 161040Z 1612/1712 04010KT CAVOK BECMG 1616/1619 20007KT BECMG 1707/1710 01012KT",
    "taf_obs_time": "2025-06-16 10:40:00",
    "fetched_at": "2025-06-16T13:50:51.150428Z"
  }
}