{
  "LTFM": {
    "icao": "LTFM",
    "metar": "LTFM 161550Z 11006KT 070V140 CAVOK 25/10 Q1016 NOSIG RMK RWY17L 07005KT RWY34L VRB03KT RWY16R 07005KT 030V110 RWY36 08006KT 040V110 RWY18 10005KT 070V130",
    "metar_obs_time": "2025-06-16 15:50:00",
    "taf": "TAF LTFM 161040Z 1612/1718 03012KT CAVOK BECMG 1615/1618 VRB02KT PROB30 1701/1705 4000 BR SCT008 BECMG 1705/1708 01012KT",
    "taf_obs_time": "2025-06-16 10:40:00",
    "fetched_at": "2025-06-16T16:27:33.301111Z"
  },
  "LTFJ": {
    "icao": "LTFJ",
    "metar": "LTFJ 161550Z 05009KT 010V070 CAVOK 25/10 Q1016 NOSIG RMK RWY24R 05008KT RWY06R 02010KT RWY24L 04008KT",
    "metar_obs_time": "2025-06-16 15:50:00",
    "taf": "TAF LTFJ 161040Z 1612/1712 27012KT 9999 SCT040 BECMG 1612/1615 02012KT CAVOK BECMG 1619/1622 VRB02KT BECMG 1709/1712 01012KT",
    "taf_obs_time": "2025-06-16 10:40:00",
    "fetched_at": "2025-06-16T16:27:33.301111Z"
  },
  "LTBA": {
    "icao": "LTBA",
    "metar": "LTBA 161550Z 21004KT 160V250 CAVOK 25/13 Q1016 RMK RWY23 VRB03KT",
    "metar_obs_time": "2025-06-16 15:50:00",
    "taf": "TAF LTBA 161040Z 1612/1712 21007KT CAVOK BECMG 1612/1615 04012KT BECMG 1618/1621 VRB02KT BECMG 1705/1708 21012KT",
    "taf_obs_time": "2025-06-16 10:40:00",
    "fetched_at": "2025-06-16T16:27:33.301111Z"
  },
  "LTBU": {
    "icao": "LTBU",
    "metar": "LTBU 161550Z 15008KT 120V180 CAVOK 25/11 Q1016 RMK RWY22 17007KT 140V220",
    "metar_obs_time": "2025-06-16 15:50:00",
    "taf": "TAF LTBU 161040Z 1612/1712 04010KT CAVOK BECMG 1616/1619 20007KT BECMG 1707/1710 01012KT",
    "taf_obs_time": "2025-06-16 10:40:00",
    "fetched_at": "2025-06-16T16:27:33.301111Z"
  }
}