{
  "LTFM": {
    "icao": "LTFM",
    "metar": "LTFM 091320Z 02012KT 340V040 9999 SCT013 23/17 Q1015 NOSIG RMK RWY17L 02011KT RWY34L 36012KT 330V030 RWY16R 02011KT RWY36 02012KT RWY18 02010KT 350V050",
    "metar_obs_time": "2025-06-09 13:20:00",
    "taf": "TAF LTFM 091040Z 0912/1018 02013KT 9999 SCT013 PROB30 TEMPO 0921/1001 4000 BR BKN006 BECMG 1005/1008 03018G28KT BKN009 BECMG 1012/1015 SCT015 BECMG 1015/1018 05012KT CAVOK",
    "taf_obs_time": "2025-06-09 10:40:00",
    "fetched_at": "2025-06-09T13:57:12.460621Z"
  },
  "LTFJ": {
    "icao": "LTFJ",
    "metar": "LTFJ 091320Z 03014KT 360V060 CAVOK 26/16 Q1014 NOSIG RMK RWY24R 03014KT RWY06R 02015KT RWY24L 01013KT 340V040",
    "metar_obs_time": "2025-06-09 13:20:00",
    "taf": "TAF LTFJ 091040Z 0912/1012 25008KT CAVOK BECMG 0912/0914 04015KT BECMG 0917/0920 04005KT BECMG 0920/0922 SCT008 BECMG 0922/1001 BKN006 PROB40 TEMPO 1001/1005 3200 BR BECMG 1004/1007 SCT017 BECMG 1007/1009 CAVOK BECMG 1009/1012 04018KT",
    "taf_obs_time": "2025-06-09 10:40:00",
    "fetched_at": "2025-06-09T13:57:12.460621Z"
  },
  "LTBA": {
    "icao": "LTBA",
    "metar": "LTBA 091320Z 05012KT 360V070 CAVOK 28/10 Q1014 RMK RWY23 03011KT",
    "metar_obs_time": "2025-06-09 13:20:00",
    "taf": "TAF LTBA 091040Z 0912/1012 24008KT CAVOK BECMG 0912/0914 02016KT BECMG 0918/0921 03006KT PROB30 0921/1001 2500 BR SCT005 BECMG 1003/1006 03016KT BECMG 1007/1010 03018G28KT SCT025",
    "taf_obs_time": "2025-06-09 10:40:00",
    "fetched_at": "2025-06-09T13:57:12.460621Z"
  },
  "LTBU": {
    "icao": "LTBU",
    "metar": "LTBU 091320Z 05011KT 350V080 CAVOK 29/12 Q1014 RMK RWY22 06009KT 030V100",
    "metar_obs_time": "2025-06-09 13:20:00",
    "taf": "TAF LTBU 091040Z 0912/1012 03012KT CAVOK BECMG 1005/1008 03020G32KT SCT025",
    "taf_obs_time": "2025-06-09 10:40:00",
    "fetched_at": "2025-06-09T13:57:12.460621Z"
  }
}