{
  "LTFM": {
    "icao": "LTFM",
    "metar": "LTFM 191120Z 06010KT 030V090 CAVOK 26/17 Q1018 NOSIG RMK RWY17L 07010KT RWY34L 06010KT 010V080 RWY16R 06010KT RWY36 05011KT 020V080 RWY18 06010KT",
    "metar_obs_time": "2025-06-19 11:20:00",
    "taf": "TAF LTFM 191040Z 1912/2018 07012KT CAVOK BECMG 1917/1919 13006KT BECMG 1923/2001 21010KT BECMG 2006/2009 02015KT SCT016 BECMG 2012/2015 BKN008",
    "taf_obs_time": "2025-06-19 10:40:00",
    "fetched_at": "2025-06-19T11:38:59.677303Z"
  },
  "LTFJ": {
    "icao": "LTFJ",
    "metar": "LTFJ 191120Z 05011KT 010V070 CAVOK 29/12 Q1016 NOSIG RMK RWY24R 06011KT 010V100 RWY06R 02013KT RWY24L 06011KT 020V080",
    "metar_obs_time": "2025-06-19 11:20:00",
    "taf": "TAF LTFJ 191040Z 1912/2012 04015KT CAVOK BECMG 1919/1922 05005KT BECMG 2004/2007 24010KT SCT035 BECMG 2009/2012 02013KT CAVOK",
    "taf_obs_time": "2025-06-19 10:40:00",
    "fetched_at": "2025-06-19T11:38:59.677303Z"
  },
  "LTBA": {
    "icao": "LTBA",
    "metar": "LTBA 191120Z 03011KT 360V070 CAVOK 30/11 Q1016 RMK RWY23 04012KT 010V080",
    "metar_obs_time": "2025-06-19 11:20:00",
    "taf": "TAF LTBA 191040Z 1912/2012 04015KT CAVOK BECMG 1917/1920 04005KT BECMG 2003/2006 20010KT BECMG 2010/2012 02015KT",
    "taf_obs_time": "2025-06-19 10:40:00",
    "fetched_at": "2025-06-19T11:38:59.677303Z"
  },
  "LTBU": {
    "icao": "LTBU",
    "metar": "LTBU 191120Z 03011KT 350V070 CAVOK 31/13 Q1017 RMK RWY22 06009KT 360V120",
    "metar_obs_time": "2025-06-19 11:20:00",
    "taf": "TAF LTBU 191040Z 1912/2012 06012KT CAVOK BECMG 1917/1920 34006KT BECMG 2006/2009 04012KT SCT022 TEMPO 2009/2012 -SHRA FEW018CB BKN022",
    "taf_obs_time": "2025-06-19 10:40:00",
    "fetched_at": "2025-06-19T11:38:59.677303Z"
  }
}