{
  "LTFM": {
    "icao": "LTFM",
    "metar": "LTFM 081620Z 02013KT 9999 SCT016 21/17 Q1014 NOSIG RMK RWY17L 03011KT RWY34L 02011KT 340V040 RWY16R 02010KT RWY36 02013KT RWY18 03009KT",
    "metar_obs_time": "2025-06-08 16:20:00",
    "taf": "TAF LTFM 081040Z 0812/0918 02015KT 9999 SCT018 BECMG 0818/0821 03005KT BKN012 PROB30 0901/0905 2500 BCFG BKN006 BECMG 0906/0909 36015KT SCT016 BECMG 0912/0915 CAVOK",
    "taf_obs_time": "2025-06-08 10:40:00",
    "fetched_at": "2025-06-08T16:55:25.668242Z"
  },
  "LTFJ": {
    "icao": "LTFJ",
    "metar": "LTFJ 081620Z 02011KT CAVOK 23/17 Q1013 NOSIG RMK RWY24R 02010KT RWY06R 02012KT RWY24L 36010KT",
    "metar_obs_time": "2025-06-08 16:20:00",
    "taf": "TAF LTFJ 081040Z 0812/0912 23010KT CAVOK BECMG 0812/0815 02009KT BECMG 0819/0822 SCT012 PROB30 TEMPO 0901/0904 2500 BCFG BKN005 BECMG 0905/0907 CAVOK",
    "taf_obs_time": "2025-06-08 10:40:00",
    "fetched_at": "2025-06-08T16:55:25.668242Z"
  },
  "LTBA": {
    "icao": "LTBA",
    "metar": "LTBA 081620Z 02012KT 9999 SCT021 22/16 Q1013 RMK RWY23 02010KT 340V040",
    "metar_obs_time": "2025-06-08 16:20:00",
    "taf": "TAF LTBA 081040Z 0812/0912 22008KT CAVOK BECMG 0812/0815 02012KT SCT016 BECMG 0820/0823 BKN012 PROB40 0823/0903 2200 BCFG BKN004",
    "taf_obs_time": "2025-06-08 10:40:00",
    "fetched_at": "2025-06-08T16:55:25.668242Z"
  },
  "LTBU": {
    "icao": "LTBU",
    "metar": "LTBU 081620Z 04010KT CAVOK 23/14 Q1014 RMK RWY22 05010KT",
    "metar_obs_time": "2025-06-08 16:20:00",
    "taf": "TAF LTBU 081040Z 0812/0912 03015KT CAVOK BECMG 0819/0822 01005KT SCT016 BECMG 0822/0824 BKN012 PROB40 0901/0905 2200 BCFG BKN006 BECMG 0905/0908 CAVOK",
    "taf_obs_time": "2025-06-08 10:40:00",
    "fetched_at": "2025-06-08T16:55:25.668242Z"
  }
}