{
  "LTFM": {
    "icao": "LTFM",
    "metar": "LTFM 081050Z 03012KT 350V060 9999 SCT018 22/16 Q1016 NOSIG RMK RWY17L 36011KT RWY34L 36012KT 330V030 RWY16R 36011KT 320V040 RWY36 01012KT 330V030 RWY18 01010KT 330V040",
    "metar_obs_time": "2025-06-08 10:50:00",
    "taf": "TAF LTFM 081040Z 0812/0918 02015KT 9999 SCT018 BECMG 0818/0821 03005KT BKN012 PROB30 0901/0905 2500 BCFG BKN006 BECMG 0906/0909 36015KT SCT016 BECMG 0912/0915 CAVOK",
    "taf_obs_time": "2025-06-08 10:40:00",
    "fetched_at": "2025-06-08T11:20:17.132321Z"
  },
  "LTFJ": {
    "icao": "LTFJ",
    "metar": "LTFJ 081050Z 24008KT CAVOK 25/16 Q1015 NOSIG RMK RWY24R VRB03KT RWY06R 22009KT RWY24L 34005KT 240V030",
    "metar_obs_time": "2025-06-08 10:50:00",
    "taf": "TAF LTFJ 081040Z 0812/0912 23010KT CAVOK BECMG 0812/0815 02009KT BECMG 0819/0822 SCT012 PROB30 TEMPO 0901/0904 2500 BCFG BKN005 BECMG 0905/0907 CAVOK",
    "taf_obs_time": "2025-06-08 10:40:00",
    "fetched_at": "2025-06-08T11:20:17.132321Z"
  },
  "LTBA": {
    "icao": "LTBA",
    "metar": "LTBA 081050Z 23008KT CAVOK 24/16 Q1015 RMK RWY23 21007KT 170V250",
    "metar_obs_time": "2025-06-08 10:50:00",
    "taf": "TAF LTBA 081040Z 0812/0912 22008KT CAVOK BECMG 0812/0815 02012KT SCT016 BECMG 0820/0823 BKN012 PROB40 0823/0903 2200 BCFG BKN004",
    "taf_obs_time": "2025-06-08 10:40:00",
    "fetched_at": "2025-06-08T11:20:17.132321Z"
  },
  "LTBU": {
    "icao": "LTBU",
    "metar": "LTBU 081050Z 05009KT 010V100 CAVOK 28/15 Q1015 RMK RWY22 04007KT 360V080",
    "metar_obs_time": "2025-06-08 10:50:00",
    "taf": "TAF LTBU 081040Z 0812/0912 03015KT CAVOK BECMG 0819/0822 01005KT SCT016 BECMG 0822/0824 BKN012 PROB40 0901/0905 2200 BCFG BKN006 BECMG 0905/0908 CAVOK",
    "taf_obs_time": "2025-06-08 10:40:00",
    "fetched_at": "2025-06-08T11:20:17.132321Z"
  }
}