{
  "LTFM": {
    "icao": "LTFM",
    "metar": "LTFM 062320Z 06008KT 010V100 9999 BKN009 20/17 Q1018 NOSIG RMK RWY17L 07007KT RWY34L 06008KT 020V080 RWY16R 06010KT RWY36 06008KT 030V090 RWY18 07007KT",
    "metar_obs_time": "2025-06-06 23:20:00",
    "taf": "TAF LTFM 062240Z 0700/0806 05009KT 9999 BKN006 TEMPO 0700/0703 2500 BCFG BECMG 0703/0706 03017G27KT BECMG 0709/0712 SCT012 BECMG 0716/0719 04009KT",
    "taf_obs_time": "2025-06-06 22:40:00",
    "fetched_at": "2025-06-06T23:59:08.034230Z"
  },
  "LTFJ": {
    "icao": "LTFJ",
    "metar": "LTFJ 062320Z 07007KT 9999 SCT015 18/16 Q1017 NOSIG RMK RWY24R 07004KT RWY06R 06005KT RWY24L 07005KT",
    "metar_obs_time": "2025-06-06 23:20:00",
    "taf": "TAF LTFJ 062240Z 0700/0724 04009KT 9999 SCT012 TEMPO 0700/0704 2500 BCFG BKN006 BECMG 0707/0710 03019KT CAVOK BECMG 0716/0719 05009KT SCT012",
    "taf_obs_time": "2025-06-06 22:40:00",
    "fetched_at": "2025-06-06T23:59:08.034230Z"
  },
  "LTBA": {
    "icao": "LTBA",
    "metar": "LTBA 062320Z 06008KT CAVOK 19/16 Q1017 RMK RWY23 07008KT",
    "metar_obs_time": "2025-06-06 23:20:00",
    "taf": "TAF LTBA 062240Z 0700/0724 05012KT 9999 BKN007 BECMG 0704/0706 02017G27KT SCT018 BECMG 0718/0721 03008KT",
    "taf_obs_time": "2025-06-06 22:40:00",
    "fetched_at": "2025-06-06T23:59:08.034230Z"
  },
  "LTBU": {
    "icao": "LTBU",
    "metar": "LTBU 062320Z VRB02KT 8000 NSC 16/15 Q1018 RMK RWY22 02005KT",
    "metar_obs_time": "2025-06-06 23:20:00",
    "taf": "TAF LTBU 062240Z 0700/0724 03007KT 9999 SCT016 BECMG 0700/0702 BKN006 TEMPO 0700/0704 2500 BCFG BECMG 0703/0706 03017G27KT SCT018 BECMG 0708/0711 CAVOK BECMG 0716/0719 03008KT",
    "taf_obs_time": "2025-06-06 22:40:00",
    "fetched_at": "2025-06-06T23:59:08.034230Z"
  }
}