{
  "LTFM": {
    "icao": "LTFM",
    "metar": "LTFM 190820Z 06011KT 020V080 9999 FEW011 24/18 Q1019 NOSIG RMK RWY17L 07008KT RWY34L 05008KT 360V090 RWY16R 05008KT 010V090 RWY36 05010KT 350V090 RWY18 05009KT 010V070",
    "metar_obs_time": "2025-06-19 08:20:00",
    "taf": "TAF LTFM 190440Z 1906/2012 05012KT 9999 SCT011 BECMG 1910/1913 CAVOK BECMG 1917/1920 VRB02KT BECMG 2006/2009 36012KT SCT016",
    "taf_obs_time": "2025-06-19 04:40:00",
    "fetched_at": "2025-06-19T08:49:15.153348Z"
  },
  "LTFJ": {
    "icao": "LTFJ",
    "metar": "LTFJ 190820Z 06011KT 360V100 CAVOK 27/14 Q1018 NOSIG RMK RWY24R 07009KT 010V130 RWY06R 04011KT 010V080 RWY24L 06011KT",
    "metar_obs_time": "2025-06-19 08:20:00",
    "taf": "TAF LTFJ 190440Z 1906/2006 04009KT 9999 SCT005 BECMG 1906/1908 CAVOK TEMPO 1911/1915 05015G25KT",
    "taf_obs_time": "2025-06-19 04:40:00",
    "fetched_at": "2025-06-19T08:49:15.153348Z"
  },
  "LTBA": {
    "icao": "LTBA",
    "metar": "LTBA 190820Z 06008KT 010V100 CAVOK 28/15 Q1018 RMK RWY23 06008KT 010V100",
    "metar_obs_time": "2025-06-19 08:20:00",
    "taf": "TAF LTBA 190440Z 1906/2006 04012KT CAVOK BECMG 1919/1922 VRB02KT",
    "taf_obs_time": "2025-06-19 04:40:00",
    "fetched_at": "2025-06-19T08:49:15.153348Z"
  },
  "LTBU": {
    "icao": "LTBU",
    "metar": "LTBU 190820Z 08007KT 050V120 CAVOK 29/13 Q1018 RMK RWY22 06006KT 350V110",
    "metar_obs_time": "2025-06-19 08:20:00",
    "taf": "TAF LTBU 190440Z 1906/2006 06013KT CAVOK BECMG 1919/1922 VRB02KT",
    "taf_obs_time": "2025-06-19 04:40:00",
    "fetched_at": "2025-06-19T08:49:15.153348Z"
  }
}