{
  "LTFM": {
    "icao": "LTFM",
    "metar": "LTFM 181920Z 07011KT 9999 SCT012 23/20 Q1019 NOSIG RMK RWY17L 08010KT RWY34L 07011KT RWY16R 07010KT RWY36 07010KT RWY18 08010KT",
    "metar_obs_time": "2025-06-18 19:20:00",
    "taf": "TAF LTFM 181640Z 1818/1924 06012KT 9999 SCT012 BECMG 1818/1820 VRB02KT BECMG 1821/1824 BKN004 TEMPO 1900/1904 1400 BCFG BECMG 1903/1905 SCT014 BECMG 1905/1907 05012KT CAVOK BECMG 1917/1920 VRB02KT",
    "taf_obs_time": "2025-06-18 16:40:00",
    "fetched_at": "2025-06-18T19:55:15.200305Z"
  },
  "LTFJ": {
    "icao": "LTFJ",
    "metar": "LTFJ 181920Z 04011KT CAVOK 22/19 Q1019 NOSIG RMK RWY24R 05008KT RWY06R 04009KT RWY24L 04009KT",
    "metar_obs_time": "2025-06-18 19:20:00",
    "taf": "TAF LTFJ 181640Z 1818/1918 04009KT CAVOK",
    "taf_obs_time": "2025-06-18 16:40:00",
    "fetched_at": "2025-06-18T19:55:15.200305Z"
  },
  "LTBA": {
    "icao": "LTBA",
    "metar": "LTBA 181920Z 04011KT CAVOK 24/19 Q1018 RMK RWY23 05010KT 010V090",
    "metar_obs_time": "2025-06-18 19:20:00",
    "taf": "TAF LTBA 181640Z 1818/1918 03015KT CAVOK BECMG 1818/1820 05005KT BECMG 1822/1901 SCT022 BECMG 1904/1907 04015KT CAVOK",
    "taf_obs_time": "2025-06-18 16:40:00",
    "fetched_at": "2025-06-18T19:55:15.200305Z"
  },
  "LTBU": {
    "icao": "LTBU",
    "metar": "LTBU 181920Z 04010KT CAVOK 20/18 Q1019 RMK RWY22 03006KT",
    "metar_obs_time": "2025-06-18 19:20:00",
    "taf": "TAF LTBU 181640Z 1818/1918 04015KT CAVOK BECMG 1818/1821 02005KT FEW010 TEMPO 1822/1902 2500 BCFG BKN006 BECMG 1906/1909 05015KT CAVOK BECMG 1916/1918 VRB02KT",
    "taf_obs_time": "2025-06-18 16:40:00",
    "fetched_at": "2025-06-18T19:55:15.200305Z"
  }
}