{
  "LTFM": {
    "icao": "LTFM",
    "metar": "LTFM 040920Z VRB04KT CAVOK 29/15 Q1019 NOSIG RMK RWY17L VRB04KT RWY34L VRB04KT RWY16R VRB05KT RWY36 VRB02KT RWY18 04006KT 360V070",
    "metar_obs_time": "2025-06-04 09:20:00",
    "taf": "TAF LTFM 040440Z 0406/0512 20006KT CAVOK BECMG 0407/0410 05010KT BECMG 0417/0420 11010KT BECMG 0421/0424 31005KT FEW006 BECMG 0505/0507 05012KT CAVOK",
    "taf_obs_time": "2025-06-04 04:40:00",
    "fetched_at": "2025-06-04T09:39:00.481611Z"
  },
  "LTFJ": {
    "icao": "LTFJ",
    "metar": "LTFJ 040920Z 25007KT 210V290 CAVOK 27/13 Q1019 NOSIG RMK RWY24R 26007KT RWY06R 24007KT 200V270 RWY24L 26008KT 230V290",
    "metar_obs_time": "2025-06-04 09:20:00",
    "taf": "TAF LTFJ 040440Z 0406/0506 23007KT CAVOK BECMG 0410/0412 03010KT",
    "taf_obs_time": "2025-06-04 04:40:00",
    "fetched_at": "2025-06-04T09:39:00.481611Z"
  },
  "LTBA": {
    "icao": "LTBA",
    "metar": "LTBA 040920Z 21008KT CAVOK 24/15 Q1019 RMK RWY23 23007KT 200V260",
    "metar_obs_time": "2025-06-04 09:20:00",
    "taf": "TAF LTBA 040440Z 0406/0506 VRB02KT CAVOK BECMG 0407/0410 21012KT BECMG 0414/0417 01008KT",
    "taf_obs_time": "2025-06-04 04:40:00",
    "fetched_at": "2025-06-04T09:39:00.481611Z"
  },
  "LTBU": {
    "icao": "LTBU",
    "metar": "LTBU 040920Z 15009KT 110V200 CAVOK 29/15 Q1018 RMK RWY22 15008KT 110V210",
    "metar_obs_time": "2025-06-04 09:20:00",
    "taf": "TAF LTBU 040440Z 0406/0506 VRB02KT CAVOK BECMG 0407/0410 17012KT BECMG 0417/0420 01006KT",
    "taf_obs_time": "2025-06-04 04:40:00",
    "fetched_at": "2025-06-04T09:39:00.481611Z"
  }
}