{
  "LTFM": {
    "icao": "LTFM",
    "metar": "LTFM 010750Z 36013KT 9999 SCT030 SCT090 20/14 Q1018 NOSIG RMK RWY17L 35011KT RWY34L 34012KT RWY16R 35012KT RWY36 35012KT RWY18 35010KT",
    "metar_obs_time": "2025-06-01 07:50:00",
    "taf": "TAF LTFM 010440Z 0106/0212 36012KT 9999 FEW010 BKN030 BECMG 0106/0109 SCT035 BECMG 0109/0112 CAVOK BECMG 0118/0121 30008KT FEW010 SCT025 BECMG 0206/0209 02010KT",
    "taf_obs_time": "2025-06-01 04:40:00",
    "fetched_at": "2025-06-01T08:20:16.670875Z"
  },
  "LTFJ": {
    "icao": "LTFJ",
    "metar": "LTFJ 010750Z VRB05KT 9999 SCT035 BKN100 21/14 Q1018 NOSIG RMK RWY24R 03007KT 340V090 RWY06R VRB06KT RWY24L 01008KT 340V060",
    "metar_obs_time": "2025-06-01 07:50:00",
    "taf": "TAF LTFJ 010440Z 0106/0206 03015KT 9999 SCT035 BECMG 0113/0116 CAVOK BECMG 0118/0121 04005KT SCT006 BECMG 0121/0124 4000 BR BKN006 PROB40 TEMPO 0200/0204 0800 FG BKN002 BECMG 0204/0206 9999 NSW SCT035",
    "taf_obs_time": "2025-06-01 04:40:00",
    "fetched_at": "2025-06-01T08:20:16.670875Z"
  },
  "LTBA": {
    "icao": "LTBA",
    "metar": "LTBA 010750Z 22008KT 9999 SCT035 19/15 Q1018 RMK RWY23 22009KT",
    "metar_obs_time": "2025-06-01 07:50:00",
    "taf": "TAF LTBA 010440Z 0106/0206 02015KT 9999 SCT035 BECMG 0117/0120 34005KT PROB30 0201/0205 3200 BR BKN006",
    "taf_obs_time": "2025-06-01 04:40:00",
    "fetched_at": "2025-06-01T08:20:16.670875Z"
  },
  "LTBU": {
    "icao": "LTBU",
    "metar": "LTBU 010750Z 02012KT 9999 SCT040 BKN070 23/10 Q1018 RMK RWY22 03012KT",
    "metar_obs_time": "2025-06-01 07:50:00",
    "taf": "TAF LTBU 010440Z 0106/0206 33007KT 9999 SCT035 BKN080 BECMG 0106/0108 03015KT CAVOK BECMG 0115/0118 35005KT",
    "taf_obs_time": "2025-06-01 04:40:00",
    "fetched_at": "2025-06-01T08:20:16.670875Z"
  }
}