{
  "LTFM": {
    "icao": "LTFM",
    "metar": "LTFM 160820Z 04008KT 360V070 CAVOK 25/12 Q1017 NOSIG RMK RWY17L 35008KT 320V020 RWY34L 01008KT 320V050 RWY16R 01008KT 340V040 RWY36 03009KT 360V060 RWY18 36007KT 300V030",
    "metar_obs_time": "2025-06-16 08:20:00",
    "taf": "TAF LTFM 160440Z 1606/1712 28005KT CAVOK BECMG 1606/1609 36010KT BECMG 1614/1616 07010KT BECMG 1618/1621 18007KT BECMG 1705/1708 36012KT",
    "taf_obs_time": "2025-06-16 04:40:00",
    "fetched_at": "2025-06-16T08:51:04.620237Z"
  },
  "LTFJ": {
    "icao": "LTFJ",
    "metar": "LTFJ 160820Z 24006KT 190V270 9999 FEW035 23/13 Q1016 NOSIG RMK RWY24R 24007KT RWY06R 22008KT 190V250 RWY24L 24009KT 200V260",
    "metar_obs_time": "2025-06-16 08:20:00",
    "taf": "TAF AMD LTFJ 160821Z 1608/1706 24009KT 9999 FEW035 BECMG 1609/1612 03012KT CAVOK BECMG 1619/1623 VRB02KT",
    "taf_obs_time": "2025-06-16 08:21:00",
    "fetched_at": "2025-06-16T08:51:04.620237Z"
  },
  "LTBA": {
    "icao": "LTBA",
    "metar": "LTBA 160820Z 18007KT 150V230 9999 FEW035 22/14 Q1017 RMK RWY23 17006KT 140V230",
    "metar_obs_time": "2025-06-16 08:20:00",
    "taf": "TAF LTBA 160440Z 1606/1706 VRB02KT CAVOK BECMG 1609/1612 03012KT BECMG 1700/1703 VRB02KT",
    "taf_obs_time": "2025-06-16 04:40:00",
    "fetched_at": "2025-06-16T08:51:04.620237Z"
  },
  "LTBU": {
    "icao": "LTBU",
    "metar": "LTBU 160820Z 03009KT 330V050 9999 FEW040 26/08 Q1017 RMK RWY22 04009KT 010V070",
    "metar_obs_time": "2025-06-16 08:20:00",
    "taf": "TAF LTBU 160440Z 1606/1706 32007KT CAVOK BECMG 1606/1608 04012KT BECMG 1616/1617 VRB02KT",
    "taf_obs_time": "2025-06-16 04:40:00",
    "fetched_at": "2025-06-16T08:51:04.620237Z"
  }
}