{
  "LTFM": {
    "icao": "LTFM",
    "metar": "LTFM 031120Z 06010KT CAVOK 26/12 Q1019 NOSIG",
    "metar_obs_time": "2025-06-03 11:20:00",
    "taf": "TAF LTFM 031040Z 0312/0418 06012KT CAVOK BECMG 0316/0319 18005KT BECMG 0407/0410 05010KT",
    "taf_obs_time": "2025-06-03 10:40:00",
    "fetched_at": "2025-06-03T11:31:40.132549Z"
  },
  "LTFJ": {
    "icao": "LTFJ",
    "metar": "LTFJ 031120Z 21008KT 170V230 CAVOK 26/14 Q1019 NOSIG",
    "metar_obs_time": "2025-06-03 11:20:00",
    "taf": "TAF LTFJ 031040Z 0312/0412 23010KT CAVOK BECMG 0312/0315 04009KT BECMG 0405/0408 23010KT BECMG 0409/0412 04009KT",
    "taf_obs_time": "2025-06-03 10:40:00",
    "fetched_at": "2025-06-03T11:31:40.132549Z"
  },
  "LTBA": {
    "icao": "LTBA",
    "metar": "LTBA 031120Z 23008KT 9999 FEW025 24/14 Q1019",
    "metar_obs_time": "2025-06-03 11:20:00",
    "taf": "TAF LTBA 031040Z 0312/0412 21010KT CAVOK BECMG 0312/0315 05008KT BECMG 0406/0409 21010KT",
    "taf_obs_time": "2025-06-03 10:40:00",
    "fetched_at": "2025-06-03T11:31:40.132549Z"
  },
  "LTBU": {
    "icao": "LTBU",
    "metar": "LTBU 031120Z 16008KT 120V210 9999 FEW040 27/12 Q1019",
    "metar_obs_time": "2025-06-03 11:20:00",
    "taf": "TAF LTBU 031040Z 0312/0412 VRB02KT CAVOK BECMG 0407/0410 17012KT",
    "taf_obs_time": "2025-06-03 10:40:00",
    "fetched_at": "2025-06-03T11:31:40.132549Z"
  }
}