{
  "LTFM": {
    "icao": "LTFM",
    "metar": "LTFM 152120Z 10003KT 050V170 CAVOK 20/12 Q1017 NOSIG",
    "metar_obs_time": "2025-06-15 21:20:00",
    "taf": "TAF LTFM 151640Z 1518/1624 04012KT CAVOK BECMG 1518/1520 17007KT BECMG 1523/1601 25010KT TEMPO 1601/1605 FEW032 BECMG 1605/1607 01011KT BECMG 1617/1620 17007KT",
    "taf_obs_time": "2025-06-15 16:40:00",
    "fetched_at": "2025-06-15T21:31:17.641767Z"
  },
  "LTFJ": {
    "icao": "LTFJ",
    "metar": "LTFJ 152120Z 04005KT CAVOK 17/13 Q1017 NOSIG",
    "metar_obs_time": "2025-06-15 21:20:00",
    "taf": "TAF AMD LTFJ 151911Z 1519/1618 06012KT CAVOK BECMG 1521/1524 VRB02KT BECMG 1609/1612 03012KT",
    "taf_obs_time": "2025-06-15 19:11:00",
    "fetched_at": "2025-06-15T21:31:17.641767Z"
  },
  "LTBA": {
    "icao": "LTBA",
    "metar": "LTBA 152120Z 08004KT CAVOK 19/12 Q1017",
    "metar_obs_time": "2025-06-15 21:20:00",
    "taf": "TAF LTBA 151640Z 1518/1618 01015KT CAVOK BECMG 1518/1520 03005KT BECMG 1605/1608 18010KT SCT032 BECMG 1610/1612 01012KT CAVOK",
    "taf_obs_time": "2025-06-15 16:40:00",
    "fetched_at": "2025-06-15T21:31:17.641767Z"
  },
  "LTBU": {
    "icao": "LTBU",
    "metar": "LTBU 152120Z 36003KT CAVOK 14/09 Q1017",
    "metar_obs_time": "2025-06-15 21:20:00",
    "taf": "TAF LTBU 151640Z 1518/1618 05015G25KT CAVOK BECMG 1518/1520 03007KT BECMG 1523/1601 33010KT BECMG 1606/1608 03012KT SCT032 BECMG 1615/1618 VRB02KT",
    "taf_obs_time": "2025-06-15 16:40:00",
    "fetched_at": "2025-06-15T21:31:17.641767Z"
  }
}