{
  "LTFM": {
    "icao": "LTFM",
    "metar": "LTFM 162150Z 22004KT 200V260 CAVOK 21/11 Q1016 NOSIG RMK RWY17L 27004KT 230V300 RWY34L 22004KT RWY16R 28003KT 240V310 RWY36 20005KT RWY18 21007KT 180V240",
    "metar_obs_time": "2025-06-16 21:50:00",
    "taf": "TAF LTFM 161640Z 1618/1724 VRB02KT CAVOK BECMG 1705/1708 01012KT BECMG 1715/1718 VRB02KT",
    "taf_obs_time": "2025-06-16 16:40:00",
    "fetched_at": "2025-06-16T22:19:15.261201Z"
  },
  "LTFJ": {
    "icao": "LTFJ",
    "metar": "LTFJ 162150Z 08003KT 050V110 CAVOK 21/11 Q1016 NOSIG RMK RWY24R 02003KT 350V050 RWY06R 05004KT RWY24L 05004KT",
    "metar_obs_time": "2025-06-16 21:50:00",
    "taf": "TAF LTFJ 161640Z 1618/1718 05012KT CAVOK BECMG 1619/1622 VRB02KT BECMG 1710/1714 01012KT",
    "taf_obs_time": "2025-06-16 16:40:00",
    "fetched_at": "2025-06-16T22:19:15.261201Z"
  },
  "LTBA": {
    "icao": "LTBA",
    "metar": "LTBA 162150Z 11003KT CAVOK 22/13 Q1016 RMK RWY23 VRB02KT",
    "metar_obs_time": "2025-06-16 21:50:00",
    "taf": "TAF LTBA 161640Z 1618/1718 VRB02KT CAVOK BECMG 1705/1708 21012KT BECMG 1711/1714 03009KT",
    "taf_obs_time": "2025-06-16 16:40:00",
    "fetched_at": "2025-06-16T22:19:15.261201Z"
  },
  "LTBU": {
    "icao": "LTBU",
    "metar": "LTBU 162150Z 00000KT CAVOK 16/12 Q1016 RMK RWY22 23002KT",
    "metar_obs_time": "2025-06-16 21:50:00",
    "taf": "TAF LTBU 161640Z 1618/1718 VRB02KT CAVOK BECMG 1621/1624 35012KT BECMG 1710/1713 13007KT",
    "taf_obs_time": "2025-06-16 16:40:00",
    "fetched_at": "2025-06-16T22:19:15.261201Z"
  }
}