{
  "LTFM": {
    "icao": "LTFM",
    "metar": "LTFM 171050Z 01009KT CAVOK 28/11 Q1017 NOSIG RMK RWY17L 03007KT RWY34L 02008KT 340V040 RWY16R 01007KT 330V040 RWY36 01009KT 340V040 RWY18 02006KT 340V050",
    "metar_obs_time": "2025-06-17 10:50:00",
    "taf": "TAF LTFM 171040Z 1712/1818 04012KT CAVOK BECMG 1715/1718 VRB02KT BECMG 1721/1724 SCT008 PROB30 TEMPO 1800/1803 2000 BCFG BKN004 BECMG 1804/1806 02012KT CAVOK BECMG 1815/1818 08007KT SCT008",
    "taf_obs_time": "2025-06-17 10:40:00",
    "fetched_at": "2025-06-17T11:17:45.465833Z"
  },
  "LTFJ": {
    "icao": "LTFJ",
    "metar": "LTFJ 171050Z 23007KT 180V270 CAVOK 27/10 Q1017 NOSIG RMK RWY24R 24010KT 210V270 RWY06R 22008KT 180V250 RWY24L 24011KT",
    "metar_obs_time": "2025-06-17 10:50:00",
    "taf": "TAF LTFJ 171040Z 1712/1812 24009KT CAVOK BECMG 1712/1714 04012KT BECMG 1718/1721 VRB02KT",
    "taf_obs_time": "2025-06-17 10:40:00",
    "fetched_at": "2025-06-17T11:17:45.465833Z"
  },
  "LTBA": {
    "icao": "LTBA",
    "metar": "LTBA 171050Z 23008KT CAVOK 25/14 Q1017 RMK RWY23 24009KT 210V270",
    "metar_obs_time": "2025-06-17 10:50:00",
    "taf": "TAF LTBA 171040Z 1712/1812 23007KT CAVOK BECMG 1713/1716 04012KT BECMG 1805/1808 18007KT",
    "taf_obs_time": "2025-06-17 10:40:00",
    "fetched_at": "2025-06-17T11:17:45.465833Z"
  },
  "LTBU": {
    "icao": "LTBU",
    "metar": "LTBU 171050Z 16006KT 060V230 9999 FEW040 29/12 Q1017 RMK RWY22 VRB05KT",
    "metar_obs_time": "2025-06-17 10:50:00",
    "taf": "TAF LTBU 171040Z 1712/1812 16007KT 9999 SCT040 BECMG 1712/1715 CAVOK BECMG 1715/1718 35010KT BECMG 1804/1807 05012KT",
    "taf_obs_time": "2025-06-17 10:40:00",
    "fetched_at": "2025-06-17T11:17:45.465833Z"
  }
}