{
  "LTFM": {
    "icao": "LTFM",
    "metar": "LTFM 041550Z 06009KT 020V090 CAVOK 29/13 Q1017 NOSIG",
    "metar_obs_time": "2025-06-04 15:50:00",
    "taf": "TAF LTFM 041040Z 0412/0518 05012KT CAVOK BECMG 0416/0419 VRB02KT BECMG 0506/0509 05012KT",
    "taf_obs_time": "2025-06-04 10:40:00",
    "fetched_at": "2025-06-04T16:01:29.349919Z"
  },
  "LTFJ": {
    "icao": "LTFJ",
    "metar": "LTFJ 041550Z 04010KT 350V070 CAVOK 29/13 Q1017 NOSIG",
    "metar_obs_time": "2025-06-04 15:50:00",
    "taf": "TAF LTFJ 041040Z 0412/0512 25012KT CAVOK BECMG 0412/0414 03008KT",
    "taf_obs_time": "2025-06-04 10:40:00",
    "fetched_at": "2025-06-04T16:01:29.349919Z"
  },
  "LTBA": {
    "icao": "LTBA",
    "metar": "LTBA 041550Z 24004KT 210V270 CAVOK 26/13 Q1016",
    "metar_obs_time": "2025-06-04 15:50:00",
    "taf": "TAF LTBA 041040Z 0412/0512 21012KT CAVOK BECMG 0412/0415 VRB02KT BECMG 0416/0419 04012KT",
    "taf_obs_time": "2025-06-04 10:40:00",
    "fetched_at": "2025-06-04T16:01:29.349919Z"
  },
  "LTBU": {
    "icao": "LTBU",
    "metar": "LTBU 041550Z 14006KT CAVOK 28/12 Q1017",
    "metar_obs_time": "2025-06-04 15:50:00",
    "taf": "TAF LTBU 041040Z 0412/0512 17006KT CAVOK BECMG 0417/0420 01010KT",
    "taf_obs_time": "2025-06-04 10:40:00",
    "fetched_at": "2025-06-04T16:01:29.349919Z"
  }
}