{
  "LTFM": {
    "icao": "LTFM",
    "metar": "LTFM 200850Z 34014G24KT CAVOK 27/17 Q1015 NOSIG RMK RWY17L 34013KT RWY34L 33015KT 290V360 RWY16R 33012KT 290V350 RWY36 34014KT 310V010 RWY18 34014KT",
    "metar_obs_time": "2025-06-20 08:50:00",
    "taf": "TAF LTFM 200440Z 2006/2112 23006KT CAVOK BECMG 2006/2009 34013KT SCT016 BECMG 2013/2016 04015KT BKN008 BECMG 2018/2021 SCT016",
    "taf_obs_time": "2025-06-20 04:40:00",
    "fetched_at": "2025-06-20T09:19:21.514130Z"
  },
  "LTFJ": {
    "icao": "LTFJ",
    "metar": "LTFJ 200850Z 22008KT 9999 FEW035 28/14 Q1013 NOSIG RMK RWY24R 23008KT RWY06R 22010KT RWY24L 22009KT",
    "metar_obs_time": "2025-06-20 08:50:00",
    "taf": "TAF LTFJ 200440Z 2006/2106 24007KT 9999 FEW035 BECMG 2009/2013 03012KT BECMG 2018/2022 BKN035 TEMPO 2023/2102 -SHRA",
    "taf_obs_time": "2025-06-20 04:40:00",
    "fetched_at": "2025-06-20T09:19:21.514130Z"
  },
  "LTBA": {
    "icao": "LTBA",
    "metar": "LTBA 200850Z 23008KT CAVOK 25/18 Q1014 RMK RWY23 24008KT",
    "metar_obs_time": "2025-06-20 08:50:00",
    "taf": "TAF LTBA 200440Z 2006/2106 20006KT CAVOK BECMG 2009/2012 02015KT SCT016 BECMG 2015/2018 BKN009 BECMG 2022/2101 SCT016",
    "taf_obs_time": "2025-06-20 04:40:00",
    "fetched_at": "2025-06-20T09:19:21.514130Z"
  },
  "LTBU": {
    "icao": "LTBU",
    "metar": "LTBU 200850Z 03011KT 340V110 CAVOK 30/16 Q1014 RMK RWY22 10009KT 050V150",
    "metar_obs_time": "2025-06-20 08:50:00",
    "taf": "TAF LTBU 200440Z 2006/2106 VRB02KT CAVOK BECMG 2008/2011 03015KT SCT022 TEMPO 2011/2015 03016G26KT -SHRA FEW018CB BKN022 BECMG 2020/2023 03005KT",
    "taf_obs_time": "2025-06-20 04:40:00",
    "fetched_at": "2025-06-20T09:19:21.514130Z"
  }
}