{
  "LTFM": {
    "icao": "LTFM",
    "metar": "LTFM 180920Z 01008KT 280V050 9999 FEW025 25/16 Q1020 NOSIG RMK RWY17L 35010KT 320V020 RWY34L 01008KT 330V040 RWY16R 36008KT 330V030 RWY36 01008KT 320V050 RWY18 34009KT",
    "metar_obs_time": "2025-06-18 09:20:00",
    "taf": "TAF LTFM 180440Z 1806/1912 03010KT CAVOK BECMG 1818/1821 09006KT SCT008 PROB30 TEMPO 1823/1903 2000 BCFG BKN004 BECMG 1905/1908 03010KT CAVOK",
    "taf_obs_time": "2025-06-18 04:40:00",
    "fetched_at": "2025-06-18T09:43:20.523612Z"
  },
  "LTFJ": {
    "icao": "LTFJ",
    "metar": "LTFJ 180920Z 07009KT 030V100 CAVOK 29/13 Q1019 NOSIG RMK RWY24R 06009KT 010V090 RWY06R 07010KT RWY24L 07009KT 020V110",
    "metar_obs_time": "2025-06-18 09:20:00",
    "taf": "TAF LTFJ 180440Z 1806/1906 04008KT CAVOK BECMG 1806/1808 24010KT BECMG 1810/1813 03016KT BECMG 1818/1821 04006KT PROB30 TEMPO 1901/1904 3500 PRFG",
    "taf_obs_time": "2025-06-18 04:40:00",
    "fetched_at": "2025-06-18T09:43:20.523612Z"
  },
  "LTBA": {
    "icao": "LTBA",
    "metar": "LTBA 180920Z 08008KT 040V130 CAVOK 29/14 Q1018 RMK RWY23 05010KT 360V140",
    "metar_obs_time": "2025-06-18 09:20:00",
    "taf": "TAF LTBA 180440Z 1806/1906 04010KT CAVOK BECMG 1806/1808 19007KT BECMG 1808/1811 04013KT",
    "taf_obs_time": "2025-06-18 04:40:00",
    "fetched_at": "2025-06-18T09:43:20.523612Z"
  },
  "LTBU": {
    "icao": "LTBU",
    "metar": "LTBU 180920Z 06010KT 350V090 CAVOK 30/13 Q1019 RMK RWY22 07009KT 010V140",
    "metar_obs_time": "2025-06-18 09:20:00",
    "taf": "TAF LTBU 180440Z 1806/1906 04005KT CAVOK BECMG 1806/1808 04015KT BECMG 1816/1819 03005KT",
    "taf_obs_time": "2025-06-18 04:40:00",
    "fetched_at": "2025-06-18T09:43:20.523612Z"
  }
}