{
  "LTFM": {
    "icao": "LTFM",
    "metar": "LTFM 041420Z 06009KT CAVOK 30/12 Q1017 NOSIG RMK RWY17L 08008KT RWY34L 06008KT RWY16R 06009KT RWY36 06009KT RWY18 08008KT",
    "metar_obs_time": "2025-06-04 14:20:00",
    "taf": "TAF LTFM 041040Z 0412/0518 05012KT CAVOK BECMG 0416/0419 VRB02KT BECMG 0506/0509 05012KT",
    "taf_obs_time": "2025-06-04 10:40:00",
    "fetched_at": "2025-06-04T14:55:23.355881Z"
  },
  "LTFJ": {
    "icao": "LTFJ",
    "metar": "LTFJ 041420Z 02010KT 360V120 CAVOK 30/13 Q1017 NOSIG RMK RWY24R 07007KT 020V140 RWY06R 20007KT RWY24L 05010KT 030V090",
    "metar_obs_time": "2025-06-04 14:20:00",
    "taf": "TAF LTFJ 041040Z 0412/0512 25012KT CAVOK BECMG 0412/0414 03008KT",
    "taf_obs_time": "2025-06-04 10:40:00",
    "fetched_at": "2025-06-04T14:55:23.355881Z"
  },
  "LTBA": {
    "icao": "LTBA",
    "metar": "LTBA 041420Z 23005KT CAVOK 28/12 Q1017 RMK RWY23 24006KT",
    "metar_obs_time": "2025-06-04 14:20:00",
    "taf": "TAF LTBA 041040Z 0412/0512 21012KT CAVOK BECMG 0412/0415 VRB02KT BECMG 0416/0419 04012KT",
    "taf_obs_time": "2025-06-04 10:40:00",
    "fetched_at": "2025-06-04T14:55:23.355881Z"
  },
  "LTBU": {
    "icao": "LTBU",
    "metar": "LTBU 041420Z 14009KT 9999 FEW035 29/12 Q1017 RMK RWY22 16008KT 130V190",
    "metar_obs_time": "2025-06-04 14:20:00",
    "taf": "TAF LTBU 041040Z 0412/0512 17006KT CAVOK BECMG 0417/0420 01010KT",
    "taf_obs_time": "2025-06-04 10:40:00",
    "fetched_at": "2025-06-04T14:55:23.355881Z"
  }
}