{
  "LTFM": {
    "icao": "LTFM",
    "metar": "LTFM 031520Z 09007KT 050V120 CAVOK 27/09 Q1018 NOSIG",
    "metar_obs_time": "2025-06-03 15:20:00",
    "taf": "TAF LTFM 031040Z 0312/0418 06012KT CAVOK BECMG 0316/0319 18005KT BECMG 0407/0410 05010KT",
    "taf_obs_time": "2025-06-03 10:40:00",
    "fetched_at": "2025-06-03T15:30:51.126466Z"
  },
  "LTFJ": {
    "icao": "LTFJ",
    "metar": "LTFJ 031520Z 04012KT CAVOK 26/12 Q1018 NOSIG",
    "metar_obs_time": "2025-06-03 15:20:00",
    "taf": "TAF LTFJ 031040Z 0312/0412 23010KT CAVOK BECMG 0312/0315 04009KT BECMG 0405/0408 23010KT BECMG 0409/0412 04009KT",
    "taf_obs_time": "2025-06-03 10:40:00",
    "fetched_at": "2025-06-03T15:30:51.126466Z"
  },
  "LTBA": {
    "icao": "LTBA",
    "metar": "LTBA 031520Z 22004KT CAVOK 26/12 Q1018",
    "metar_obs_time": "2025-06-03 15:20:00",
    "taf": "TAF LTBA 031040Z 0312/0412 21010KT CAVOK BECMG 0312/0315 05008KT BECMG 0406/0409 21010KT",
    "taf_obs_time": "2025-06-03 10:40:00",
    "fetched_at": "2025-06-03T15:30:51.126466Z"
  },
  "LTBU": {
    "icao": "LTBU",
    "metar": "LTBU 031520Z 15007KT CAVOK 27/11 Q1018",
    "metar_obs_time": "2025-06-03 15:20:00",
    "taf": "TAF LTBU 031040Z 0312/0412 VRB02KT CAVOK BECMG 0407/0410 17012KT",
    "taf_obs_time": "2025-06-03 10:40:00",
    "fetched_at": "2025-06-03T15:30:51.126466Z"
  }
}