{
  "LTFM": {
    "icao": "LTFM",
    "metar": "LTFM 180120Z 32006KT 9999 BKN004 20/18 Q1018 NOSIG RMK RWY17L 29005KT RWY34L 31006KT RWY16R 28003KT RWY36 31006KT 270V330 RWY18 30006G16KT 270V010",
    "metar_obs_time": "2025-06-18 01:20:00",
    "taf": "TAF LTFM 172240Z 1800/1906 32006KT 9999 FEW008 TEMPO 1800/1804 2000 BCFG BKN004 BECMG 1804/1807 02012KT CAVOK BECMG 1816/1819 08006KT SCT008 PROB40 TEMPO 1900/1904 2000 BCFG BKN004",
    "taf_obs_time": "2025-06-17 22:40:00",
    "fetched_at": "2025-06-18T01:42:28.225392Z"
  },
  "LTFJ": {
    "icao": "LTFJ",
    "metar": "LTFJ 180120Z 04005KT CAVOK 18/15 Q1018 NOSIG RMK RWY24R 06004KT RWY06R 05007KT RWY24L 05008KT",
    "metar_obs_time": "2025-06-18 01:20:00",
    "taf": "TAF LTFJ 172240Z 1800/1824 03007KT CAVOK BECMG 1805/1808 24010KT BECMG 1811/1814 03015KT BECMG 1817/1820 03005KT",
    "taf_obs_time": "2025-06-17 22:40:00",
    "fetched_at": "2025-06-18T01:42:28.225392Z"
  },
  "LTBA": {
    "icao": "LTBA",
    "metar": "LTBA 180120Z 32004KT 270V340 CAVOK 21/17 Q1017 RMK RWY23 VRB01KT",
    "metar_obs_time": "2025-06-18 01:20:00",
    "taf": "TAF LTBA 172240Z 1800/1824 03010KT CAVOK TEMPO 1800/1804 SCT010",
    "taf_obs_time": "2025-06-17 22:40:00",
    "fetched_at": "2025-06-18T01:42:28.225392Z"
  },
  "LTBU": {
    "icao": "LTBU",
    "metar": "LTBU 180120Z 02003KT CAVOK 19/10 Q1018 RMK RWY22 01006KT",
    "metar_obs_time": "2025-06-18 01:20:00",
    "taf": "TAF LTBU 172240Z 1800/1824 36007KT CAVOK BECMG 1804/1807 06012KT",
    "taf_obs_time": "2025-06-17 22:40:00",
    "fetched_at": "2025-06-18T01:42:28.225392Z"
  }
}