{
  "LTFM": {
    "icao": "LTFM",
    "metar": "LTFM 020650Z 04004KT 320V090 CAVOK 21/12 Q1020 NOSIG RMK RWY17L 04003KT 320V100 RWY34L 01004KT 280V050 RWY16R 01004KT 310V070 RWY36 02005KT 340V100 RWY18 07004KT 010V120",
    "metar_obs_time": "2025-06-02 06:50:00",
    "taf": "TAF LTFM 020440Z 0206/0312 02010KT CAVOK BECMG 0217/0220 15005KT BECMG 0305/0308 05010KT",
    "taf_obs_time": "2025-06-02 04:40:00",
    "fetched_at": "2025-06-02T07:19:03.658964Z"
  },
  "LTFJ": {
    "icao": "LTFJ",
    "metar": "LTFJ 020650Z VRB03KT 9999 FEW017 20/14 Q1020 NOSIG RMK RWY24R 24003KT 210V310 RWY06R 21005KT 180V240 RWY24L VRB03KT",
    "metar_obs_time": "2025-06-02 06:50:00",
    "taf": "TAF LTFJ 020440Z 0206/0306 VRB02KT 9999 SCT017 BECMG 0208/0212 02015KT CAVOK BECMG 0217/0220 03005KT",
    "taf_obs_time": "2025-06-02 04:40:00",
    "fetched_at": "2025-06-02T07:19:03.658964Z"
  },
  "LTBA": {
    "icao": "LTBA",
    "metar": "LTBA 020650Z 20006KT 160V230 CAVOK 19/15 Q1020 RMK RWY23 19006KT 170V230",
    "metar_obs_time": "2025-06-02 06:50:00",
    "taf": "TAF LTBA 020440Z 0206/0306 22008KT CAVOK BECMG 0211/0213 02010KT",
    "taf_obs_time": "2025-06-02 04:40:00",
    "fetched_at": "2025-06-02T07:19:03.658964Z"
  },
  "LTBU": {
    "icao": "LTBU",
    "metar": "LTBU 020650Z 07005KT 010V120 CAVOK 22/09 Q1020 RMK RWY22 09004KT 040V170",
    "metar_obs_time": "2025-06-02 06:50:00",
    "taf": "TAF LTBU 020440Z 0206/0306 VRB02KT CAVOK TEMPO 0209/0213 17012KT SCT040 BECMG 0213/0215 04012KT BECMG 0217/0220 VRB02KT",
    "taf_obs_time": "2025-06-02 04:40:00",
    "fetched_at": "2025-06-02T07:19:03.658964Z"
  }
}