{
  "LTFM": {
    "icao": "LTFM",
    "metar": "LTFM 151050Z 36012KT 330V030 9999 SCT027 23/15 Q1018 NOSIG RMK RWY17L 01012KT RWY34L 36011KT 320V030 RWY16R 01012KT 310V030 RWY36 01012KT 340V040 RWY18 36011KT 330V030",
    "metar_obs_time": "2025-06-15 10:50:00",
    "taf": "TAF LTFM 151040Z 1512/1618 01012KT 9999 SCT028 BECMG 1512/1514 CAVOK BECMG 1518/1520 17007KT BECMG 1523/1601 25010KT TEMPO 1601/1605 FEW032 BECMG 1605/1607 01011KT",
    "taf_obs_time": "2025-06-15 10:40:00",
    "fetched_at": "2025-06-15T11:28:44.325179Z"
  },
  "LTFJ": {
    "icao": "LTFJ",
    "metar": "LTFJ 151050Z 26008KT 240V300 9999 SCT030 24/14 Q1017 NOSIG RMK RWY24R VRB06KT RWY06R 24009KT 210V270 RWY24L VRB04KT",
    "metar_obs_time": "2025-06-15 10:50:00",
    "taf": "TAF LTFJ 151040Z 1512/1612 03012KT 9999 SCT035 BECMG 1514/1517 CAVOK BECMG 1520/1523 VRB02KT BECMG 1604/1607 24012KT SCT035 BECMG 1609/1612 03012KT",
    "taf_obs_time": "2025-06-15 10:40:00",
    "fetched_at": "2025-06-15T11:28:44.325179Z"
  },
  "LTBA": {
    "icao": "LTBA",
    "metar": "LTBA 151050Z 22009KT 9999 SCT040 23/16 Q1017 RMK RWY23 23008KT 190V270",
    "metar_obs_time": "2025-06-15 10:50:00",
    "taf": "TAF LTBA 151040Z 1512/1612 01015KT 9999 SCT032 BECMG 1512/1514 CAVOK BECMG 1516/1519 03005KT BECMG 1605/1608 18010KT SCT032",
    "taf_obs_time": "2025-06-15 10:40:00",
    "fetched_at": "2025-06-15T11:28:44.325179Z"
  },
  "LTBU": {
    "icao": "LTBU",
    "metar": "LTBU 151050Z 04011KT 9999 SCT035 25/10 Q1018 RMK RWY22 01009KT 340V060",
    "metar_obs_time": "2025-06-15 10:50:00",
    "taf": "TAF LTBU 151040Z 1512/1612 03015G25KT 9999 SCT032 BECMG 1512/1514 CAVOK BECMG 1516/1518 03007KT BECMG 1523/1601 33010KT BECMG 1606/1608 03008KT SCT032",
    "taf_obs_time": "2025-06-15 10:40:00",
    "fetched_at": "2025-06-15T11:28:44.325179Z"
  }
}