{
  "LTFM": {
    "icao": "LTFM",
    "metar": "LTFM 030420Z 19004KT 150V300 CAVOK 18/11 Q1020 NOSIG RMK RWY17L 17003KT RWY34L VRB02KT RWY16R VRB01KT RWY36 VRB02KT RWY18 17005KT 140V200",
    "metar_obs_time": "2025-06-03 04:20:00",
    "taf": "TAF LTFM 022240Z 0300/0406 VRB02KT CAVOK BECMG 0305/0308 06012KT BECMG 0316/0319 19007KT",
    "taf_obs_time": "2025-06-02 22:40:00",
    "fetched_at": "2025-06-03T04:48:01.453083Z"
  },
  "LTFJ": {
    "icao": "LTFJ",
    "metar": "LTFJ 030420Z 06005KT CAVOK 17/12 Q1020 NOSIG RMK RWY24R 08003KT 040V100 RWY06R 08005KT RWY24L 06005KT 020V120",
    "metar_obs_time": "2025-06-03 04:20:00",
    "taf": "TAF LTFJ 022240Z 0300/0324 03007KT CAVOK BECMG 0304/0307 24010KT BECMG 0309/0312 02010KT",
    "taf_obs_time": "2025-06-02 22:40:00",
    "fetched_at": "2025-06-03T04:48:01.453083Z"
  },
  "LTBA": {
    "icao": "LTBA",
    "metar": "LTBA 030420Z 11003KT CAVOK 19/12 Q1020 RMK RWY23 14003KT",
    "metar_obs_time": "2025-06-03 04:20:00",
    "taf": "TAF LTBA 022240Z 0300/0324 VRB02KT CAVOK BECMG 0306/0309 21012KT BECMG 0313/0316 05007KT",
    "taf_obs_time": "2025-06-02 22:40:00",
    "fetched_at": "2025-06-03T04:48:01.453083Z"
  },
  "LTBU": {
    "icao": "LTBU",
    "metar": "LTBU 030420Z 05003KT CAVOK 20/11 Q1020 RMK RWY22 VRB02KT",
    "metar_obs_time": "2025-06-03 04:20:00",
    "taf": "TAF LTBU 022240Z 0300/0324 VRB02KT CAVOK BECMG 0308/0310 17012KT BECMG 0316/0319 VRB02KT",
    "taf_obs_time": "2025-06-02 22:40:00",
    "fetched_at": "2025-06-03T04:48:01.453083Z"
  }
}