{
  "LTFM": {
    "icao": "LTFM",
    "metar": "LTFM 102120Z 03012KT 9999 FEW014 20/16 Q1017 NOSIG RMK RWY17L 03010KT RWY34L 02012KT RWY16R 02010KT RWY36 03012KT RWY18 03009KT",
    "metar_obs_time": "2025-06-10 21:20:00",
    "taf": "TAF LTFM 101640Z 1018/1124 03018G28KT 9999 FEW014 SCT020 BECMG 1018/1021 04012KT BECMG 1103/1106 03015G25KT BECMG 1108/1111 CAVOK BECMG 1117/1120 36005KT BKN006 TEMPO 1120/1124 2500 BR",
    "taf_obs_time": "2025-06-10 16:40:00",
    "fetched_at": "2025-06-10T21:55:19.074743Z"
  },
  "LTFJ": {
    "icao": "LTFJ",
    "metar": "LTFJ 102120Z 05008KT 9999 SCT019 19/17 Q1016 NOSIG RMK RWY24R 05007KT RWY06R 04009KT RWY24L 04007KT",
    "metar_obs_time": "2025-06-10 21:20:00",
    "taf": "TAF LTFJ 101640Z 1018/1118 04012KT 9999 BKN015 BECMG 1110/1113 SCT035 TEMPO 1112/1116 04015G25KT",
    "taf_obs_time": "2025-06-10 16:40:00",
    "fetched_at": "2025-06-10T21:55:19.074743Z"
  },
  "LTBA": {
    "icao": "LTBA",
    "metar": "LTBA 102120Z 04011KT CAVOK 21/16 Q1016 RMK RWY23 05009KT 010V080",
    "metar_obs_time": "2025-06-10 21:20:00",
    "taf": "TAF LTBA 101640Z 1018/1118 03016G26KT 9999 SCT023 BECMG 1019/1022 04014KT BECMG 1023/1102 BKN022 BECMG 1104/1107 03018G28KT SCT025 BECMG 1109/1112 CAVOK",
    "taf_obs_time": "2025-06-10 16:40:00",
    "fetched_at": "2025-06-10T21:55:19.074743Z"
  },
  "LTBU": {
    "icao": "LTBU",
    "metar": "LTBU 102120Z 03009KT CAVOK 18/13 Q1017 RMK RWY22 01007KT",
    "metar_obs_time": "2025-06-10 21:20:00",
    "taf": "TAF LTBU 101640Z 1018/1118 04022G32KT 9999 FEW025 BECMG 1018/1021 04014KT BECMG 1106/1109 04018G28KT",
    "taf_obs_time": "2025-06-10 16:40:00",
    "fetched_at": "2025-06-10T21:55:19.074743Z"
  }
}