{
  "LTFM": {
    "icao": "LTFM",
    "metar": "LTFM 120350Z 36007KT 9999 BKN006 20/19 Q1015 NOSIG RMK RWY17L 35005KT 310V010 RWY34L 34005KT RWY16R 32003KT 280V340 RWY36 01007KT RWY18 01006KT",
    "metar_obs_time": "2025-06-12 03:50:00",
    "taf": "TAF LTFM 112240Z 1200/1306 35006KT 9999 BKN006 TEMPO 1200/1204 2000 BCFG BKN004 BECMG 1204/1206 SCT012 BECMG 1206/1209 05013KT CAVOK BECMG 1213/1215 SCT008",
    "taf_obs_time": "2025-06-11 22:40:00",
    "fetched_at": "2025-06-12T04:28:22.653943Z"
  },
  "LTFJ": {
    "icao": "LTFJ",
    "metar": "LTFJ 120350Z 05008KT 020V080 9999 SCT009 21/18 Q1015 NOSIG RMK RWY24R 05005KT 020V090 RWY06R 04007KT 010V070 RWY24L 05006KT",
    "metar_obs_time": "2025-06-12 03:50:00",
    "taf": "TAF LTFJ 112240Z 1200/1224 04007KT 9999 BKN003 TEMPO 1200/1204 2500 BCFG BECMG 1205/1207 SCT012 BECMG 1207/1211 04017KT CAVOK BECMG 1217/1220 04007KT SCT004",
    "taf_obs_time": "2025-06-11 22:40:00",
    "fetched_at": "2025-06-12T04:28:22.653943Z"
  },
  "LTBA": {
    "icao": "LTBA",
    "metar": "LTBA 120350Z 03007KT 9999 FEW009 21/18 Q1015 RMK RWY23 05008KT",
    "metar_obs_time": "2025-06-12 03:50:00",
    "taf": "TAF LTBA 112240Z 1200/1224 03007KT CAVOK BECMG 1200/1202 SCT012 TEMPO 1200/1204 2800 BR BECMG 1208/1211 03017KT CAVOK BECMG 1217/1220 05007KT",
    "taf_obs_time": "2025-06-11 22:40:00",
    "fetched_at": "2025-06-12T04:28:22.653943Z"
  },
  "LTBU": {
    "icao": "LTBU",
    "metar": "LTBU 120350Z 35009KT CAVOK 20/10 Q1015 RMK RWY22 34008KT",
    "metar_obs_time": "2025-06-12 03:50:00",
    "taf": "TAF LTBU 112240Z 1200/1224 03007KT CAVOK BECMG 1200/1202 SCT012 TEMPO 1200/1204 2500 BR BKN008 BECMG 1204/1207 CAVOK BECMG 1209/1211 03017KT BECMG 1216/1219 03007KT",
    "taf_obs_time": "2025-06-11 22:40:00",
    "fetched_at": "2025-06-12T04:28:22.653943Z"
  }
}