{
  "LTFM": {
    "icao": "LTFM",
    "metar": "LTFM 042320Z 34006KT 300V360 CAVOK 21/14 Q1018 NOSIG RMK RWY17L 29005KT RWY34L 32006KT RWY16R 29003KT RWY36 33006KT RWY18 31005KT",
    "metar_obs_time": "2025-06-04 23:20:00",
    "taf": "TAF LTFM 042240Z 0500/0606 VRB02KT CAVOK BECMG 0504/0507 06012KT BECMG 0517/0520 SCT020 PROB30 TEMPO 0520/0524 3200 BR BKN004",
    "taf_obs_time": "2025-06-04 22:40:00",
    "fetched_at": "2025-06-04T23:59:07.961447Z"
  },
  "LTFJ": {
    "icao": "LTFJ",
    "metar": "LTFJ 042320Z 04006KT CAVOK 22/05 Q1017 NOSIG RMK RWY24R 01006KT RWY06R 03008KT RWY24L 04007KT",
    "metar_obs_time": "2025-06-04 23:20:00",
    "taf": "TAF LTFJ 042240Z 0500/0524 04006KT CAVOK BECMG 0506/0509 03016KT",
    "taf_obs_time": "2025-06-04 22:40:00",
    "fetched_at": "2025-06-04T23:59:07.961447Z"
  },
  "LTBA": {
    "icao": "LTBA",
    "metar": "LTBA 042321Z 03006KT CAVOK 23/07 Q1017 RMK RWY23 01006KT",
    "metar_obs_time": "2025-06-04 23:21:00",
    "taf": "TAF LTBA 042240Z 0500/0524 03008KT CAVOK BECMG 0506/0509 04015G25KT",
    "taf_obs_time": "2025-06-04 22:40:00",
    "fetched_at": "2025-06-04T23:59:07.961447Z"
  },
  "LTBU": {
    "icao": "LTBU",
    "metar": "LTBU 042320Z 02006KT CAVOK 19/12 Q1018 RMK RWY22 01004KT",
    "metar_obs_time": "2025-06-04 23:20:00",
    "taf": "TAF LTBU 042240Z 0500/0524 02008KT CAVOK BECMG 0507/0510 05015G25KT BECMG 0515/0518 03008KT SCT035",
    "taf_obs_time": "2025-06-04 22:40:00",
    "fetched_at": "2025-06-04T23:59:07.961447Z"
  }
}