{
  "LTFM": {
    "icao": "LTFM",
    "metar": "LTFM 070320Z 05008KT 9999 BKN011 19/17 Q1018 NOSIG RMK RWY17L 05007KT RWY34L 03007KT RWY16R 05007KT RWY36 05008KT RWY18 06007KT",
    "metar_obs_time": "2025-06-07 03:20:00",
    "taf": "TAF LTFM 062240Z 0700/0806 05009KT 9999 BKN006 TEMPO 0700/0703 2500 BCFG BECMG 0703/0706 03017G27KT BECMG 0709/0712 SCT012 BECMG 0716/0719 04009KT",
    "taf_obs_time": "2025-06-06 22:40:00",
    "fetched_at": "2025-06-07T03:52:41.639398Z"
  },
  "LTFJ": {
    "icao": "LTFJ",
    "metar": "LTFJ 070320Z 04008KT 9999 SCT017 19/16 Q1017 NOSIG RMK RWY24R 02007KT 010V070 RWY06R 03009KT RWY24L 01004KT",
    "metar_obs_time": "2025-06-07 03:20:00",
    "taf": "TAF LTFJ 062240Z 0700/0724 04009KT 9999 SCT012 TEMPO 0700/0704 2500 BCFG BKN006 BECMG 0707/0710 03019KT CAVOK BECMG 0716/0719 05009KT SCT012",
    "taf_obs_time": "2025-06-06 22:40:00",
    "fetched_at": "2025-06-07T03:52:41.639398Z"
  },
  "LTBA": {
    "icao": "LTBA",
    "metar": "LTBA 070320Z 05009KT 9999 SCT017 20/16 Q1017 RMK RWY23 05007KT 020V080",
    "metar_obs_time": "2025-06-07 03:20:00",
    "taf": "TAF LTBA 062240Z 0700/0724 05012KT 9999 BKN007 BECMG 0704/0706 02017G27KT SCT018 BECMG 0718/0721 03008KT",
    "taf_obs_time": "2025-06-06 22:40:00",
    "fetched_at": "2025-06-07T03:52:41.639398Z"
  },
  "LTBU": {
    "icao": "LTBU",
    "metar": "LTBU 070320Z 01008KT 6000 NSC 16/16 Q1018 RMK RWY22 01008KT",
    "metar_obs_time": "2025-06-07 03:20:00",
    "taf": "TAF LTBU 062240Z 0700/0724 03007KT 9999 SCT016 BECMG 0700/0702 BKN006 TEMPO 0700/0704 2500 BCFG BECMG 0703/0706 03017G27KT SCT018 BECMG 0708/0711 CAVOK BECMG 0716/0719 03008KT",
    "taf_obs_time": "2025-06-06 22:40:00",
    "fetched_at": "2025-06-07T03:52:41.639398Z"
  }
}