{
  "LTFM": {
    "icao": "LTFM",
    "metar": "LTFM 150720Z 01012KT 9999 SCT028 22/14 Q1019 NOSIG RMK RWY17L 02012KT RWY34L 36011KT RWY16R 36011KT 320V020 RWY36 02012KT RWY18 02010KT 340V040",
    "metar_obs_time": "2025-06-15 07:20:00",
    "taf": "TAF LTFM 150440Z 1506/1612 01014KT 9999 SCT028 BECMG 1512/1515 CAVOK BECMG 1516/1519 VRB02KT BECMG 1605/1608 01012KT",
    "taf_obs_time": "2025-06-15 04:40:00",
    "fetched_at": "2025-06-15T07:57:29.669171Z"
  },
  "LTFJ": {
    "icao": "LTFJ",
    "metar": "LTFJ 150720Z 03007KT 340V060 9999 SCT028 21/14 Q1018 NOSIG RMK RWY24R 09008KT 030V120 RWY06R 07006KT 010V100 RWY24L 04007KT 350V090",
    "metar_obs_time": "2025-06-15 07:20:00",
    "taf": "TAF LTFJ 150440Z 1506/1606 04005KT 9999 SCT035 BECMG 1509/1512 04015KT PROB30 TEMPO 1509/1512 -SHRA BKN030 BECMG 1512/1514 CAVOK BECMG 1517/1520 04005KT",
    "taf_obs_time": "2025-06-15 04:40:00",
    "fetched_at": "2025-06-15T07:57:29.669171Z"
  },
  "LTBA": {
    "icao": "LTBA",
    "metar": "LTBA 150720Z 17007KT 140V200 9999 BKN025 21/15 Q1018 RMK RWY23 17007KT 120V210",
    "metar_obs_time": "2025-06-15 07:20:00",
    "taf": "TAF LTBA 150440Z 1506/1606 01015KT 9999 SCT032 BECMG 1511/1514 CAVOK BECMG 1516/1519 VRB02KT",
    "taf_obs_time": "2025-06-15 04:40:00",
    "fetched_at": "2025-06-15T07:57:29.669171Z"
  },
  "LTBU": {
    "icao": "LTBU",
    "metar": "LTBU 150720Z 04008KT 360V080 9999 SCT030 23/13 Q1019 RMK RWY22 06009KT 020V110",
    "metar_obs_time": "2025-06-15 07:20:00",
    "taf": "TAF LTBU 150440Z 1506/1606 04015KT 9999 SCT032 BECMG 1511/1514 CAVOK BECMG 1516/1519 VRB02KT",
    "taf_obs_time": "2025-06-15 04:40:00",
    "fetched_at": "2025-06-15T07:57:29.669171Z"
  }
}