{
  "LTFM": {
    "icao": "LTFM",
    "metar": "LTFM 202250Z 06014KT 9999 FEW018 SCT025 21/17 Q1016 NOSIG RMK RWY17L 06010KT RWY34L 05009KT RWY16R 05010KT RWY36 06013KT RWY18 06011KT",
    "metar_obs_time": "2025-06-20 22:50:00",
    "taf": "TAF LTFM 202240Z 2100/2206 05015KT 9999 SCT018 BKN025 BECMG 2100/2103 SCT025 BECMG 2104/2107 04018G28KT BECMG 2115/2118 04012KT CAVOK BECMG 2122/2201 SCT025",
    "taf_obs_time": "2025-06-20 22:40:00",
    "fetched_at": "2025-06-20T23:17:39.511956Z"
  },
  "LTFJ": {
    "icao": "LTFJ",
    "metar": "LTFJ 202250Z 03014KT 9999 SCT015 BKN030 22/18 Q1015 NOSIG RMK RWY24R 04012KT RWY06R 02015KT RWY24L 03014KT",
    "metar_obs_time": "2025-06-20 22:50:00",
    "taf": "TAF LTFJ 202240Z 2100/2124 04009KT 9999 SCT012 BKN030 TEMPO 2100/2104 -SHRA BECMG 2104/2107 04019KT SCT030 BKN090 TEMPO 2112/2116 04020G30KT BECMG 2116/2118 CAVOK BECMG 2118/2121 05009KT",
    "taf_obs_time": "2025-06-20 22:40:00",
    "fetched_at": "2025-06-20T23:17:39.511956Z"
  },
  "LTBA": {
    "icao": "LTBA",
    "metar": "LTBA 202250Z 03017KT CAVOK 22/17 Q1015 RMK RWY23 03014KT 010V070",
    "metar_obs_time": "2025-06-20 22:50:00",
    "taf": "TAF LTBA 202240Z 2100/2124 03014KT CAVOK BECMG 2104/2107 04018G28KT SCT025 BECMG 2112/2115 CAVOK BECMG 2116/2119 03008KT",
    "taf_obs_time": "2025-06-20 22:40:00",
    "fetched_at": "2025-06-20T23:17:39.511956Z"
  },
  "LTBU": {
    "icao": "LTBU",
    "metar": "LTBU 202250Z 02006KT 9999 SCT035 BKN100 19/16 Q1016 RMK RWY22 02006KT",
    "metar_obs_time": "2025-06-20 22:50:00",
    "taf": "TAF LTBU 202240Z 2100/2124 04007KT 9999 SCT035 BKN100 BECMG 2105/2108 05018KT BECMG 2110/2113 CAVOK BECMG 2116/2119 02008KT",
    "taf_obs_time": "2025-06-20 22:40:00",
    "fetched_at": "2025-06-20T23:17:39.511956Z"
  }
}