{
  "LTFM": {
    "icao": "LTFM",
    "metar": "LTFM 190720Z 07008KT 030V090 9999 SCT011 24/18 Q1019 NOSIG RMK RWY17L 06007KT 010V090 RWY34L 06007KT 010V090 RWY16R 04008KT 360V060 RWY36 05009KT 020V080 RWY18 05008KT 010V080",
    "metar_obs_time": "2025-06-19 07:20:00",
    "taf": "TAF LTFM 190440Z 1906/2012 05012KT 9999 SCT011 BECMG 1910/1913 CAVOK BECMG 1917/1920 VRB02KT BECMG 2006/2009 36012KT SCT016",
    "taf_obs_time": "2025-06-19 04:40:00",
    "fetched_at": "2025-06-19T07:34:56.652780Z"
  },
  "LTFJ": {
    "icao": "LTFJ",
    "metar": "LTFJ 190720Z 05010KT 020V090 CAVOK 26/16 Q1018 NOSIG RMK RWY24R 06008KT 030V090 RWY06R 04010KT 020V080 RWY24L 04010KT",
    "metar_obs_time": "2025-06-19 07:20:00",
    "taf": "TAF LTFJ 190440Z 1906/2006 04009KT 9999 SCT005 BECMG 1906/1908 CAVOK TEMPO 1911/1915 05015G25KT",
    "taf_obs_time": "2025-06-19 04:40:00",
    "fetched_at": "2025-06-19T07:34:56.652780Z"
  },
  "LTBA": {
    "icao": "LTBA",
    "metar": "LTBA 190720Z 07010KT CAVOK 27/14 Q1018 RMK RWY23 06009KT 030V090",
    "metar_obs_time": "2025-06-19 07:20:00",
    "taf": "TAF LTBA 190440Z 1906/2006 04012KT CAVOK BECMG 1919/1922 VRB02KT",
    "taf_obs_time": "2025-06-19 04:40:00",
    "fetched_at": "2025-06-19T07:34:56.652780Z"
  },
  "LTBU": {
    "icao": "LTBU",
    "metar": "LTBU 190720Z 06006KT 360V110 CAVOK 28/13 Q1018 RMK RWY22 09005KT 010V160",
    "metar_obs_time": "2025-06-19 07:20:00",
    "taf": "TAF LTBU 190440Z 1906/2006 06013KT CAVOK BECMG 1919/1922 VRB02KT",
    "taf_obs_time": "2025-06-19 04:40:00",
    "fetched_at": "2025-06-19T07:34:56.652780Z"
  }
}