{
  "LTFM": {
    "icao": "LTFM",
    "metar": "LTFM 031850Z 17005KT 140V200 CAVOK 23/11 Q1018 NOSIG RMK RWY17L 14004KT RWY34L VRB05KT RWY16R 16005KT RWY36 16005KT 110V190 RWY18 18003KT",
    "metar_obs_time": "2025-06-03 18:50:00",
    "taf": "TAF LTFM 031640Z 0318/0424 10010KT CAVOK BECMG 0318/0320 18006KT BECMG 0407/0410 07012KT BECMG 0418/0420 VRB02KT",
    "taf_obs_time": "2025-06-03 16:40:00",
    "fetched_at": "2025-06-03T19:14:12.650568Z"
  },
  "LTFJ": {
    "icao": "LTFJ",
    "metar": "LTFJ 031850Z 05005KT CAVOK 21/12 Q1018 NOSIG RMK RWY24R 04004KT RWY06R 05006KT RWY24L 03004KT 360V080",
    "metar_obs_time": "2025-06-03 18:50:00",
    "taf": "TAF LTFJ 031640Z 0318/0418 05006KT CAVOK BECMG 0405/0408 23010KT BECMG 0409/0412 03009KT SCT040 BECMG 0413/0416 CAVOK",
    "taf_obs_time": "2025-06-03 16:40:00",
    "fetched_at": "2025-06-03T19:14:12.650568Z"
  },
  "LTBA": {
    "icao": "LTBA",
    "metar": "LTBA 031850Z 09004KT CAVOK 23/13 Q1018 RMK RWY23 VRB02KT",
    "metar_obs_time": "2025-06-03 18:50:00",
    "taf": "TAF LTBA 031640Z 0318/0418 05005KT CAVOK BECMG 0406/0409 22010KT BECMG 0416/0418 05007KT",
    "taf_obs_time": "2025-06-03 16:40:00",
    "fetched_at": "2025-06-03T19:14:12.650568Z"
  },
  "LTBU": {
    "icao": "LTBU",
    "metar": "LTBU 031850Z VRB02KT CAVOK 20/13 Q1018 RMK RWY22 24005KT",
    "metar_obs_time": "2025-06-03 18:50:00",
    "taf": "TAF LTBU 031640Z 0318/0418 VRB02KT CAVOK BECMG 0407/0410 17012KT FEW040 BECMG 0416/0418 VRB02KT CAVOK",
    "taf_obs_time": "2025-06-03 16:40:00",
    "fetched_at": "2025-06-03T19:14:12.650568Z"
  }
}