{
  "LTFM": {
    "icao": "LTFM",
    "metar": "LTFM 052220Z 08009KT 040V100 9999 BKN004 21/19 Q1017 NOSIG RMK RWY17L 07008KT RWY34L 06008KT RWY16R 06008KT RWY36 07010KT 020V080 RWY18 08009KT",
    "metar_obs_time": "2025-06-05 22:20:00",
    "taf": "TAF LTFM 051640Z 0518/0624 04009KT CAVOK BECMG 0518/0521 SCT008 PROB30 0521/0601 1200 BCFG BKN004 PROB30 0601/0605 1200 BCFG BKN004 BECMG 0605/0608 04015G25KT BECMG 0608/0611 CAVOK BECMG 0617/0620 04012KT SCT008",
    "taf_obs_time": "2025-06-05 16:40:00",
    "fetched_at": "2025-06-05T22:36:57.584948Z"
  },
  "LTFJ": {
    "icao": "LTFJ",
    "metar": "LTFJ 052220Z 03012KT CAVOK 20/17 Q1016 NOSIG RMK RWY24R 03009KT RWY06R 03012KT RWY24L 03008KT",
    "metar_obs_time": "2025-06-05 22:20:00",
    "taf": "TAF LTFJ 051640Z 0518/0618 04015KT CAVOK PROB30 TEMPO 0601/0605 2400 BCFG TEMPO 0609/0613 04020G30KT TEMPO 0613/0617 04018G28KT",
    "taf_obs_time": "2025-06-05 16:40:00",
    "fetched_at": "2025-06-05T22:36:57.584948Z"
  },
  "LTBA": {
    "icao": "LTBA",
    "metar": "LTBA 052220Z 05009KT CAVOK 21/17 Q1016 RMK RWY23 04008KT",
    "metar_obs_time": "2025-06-05 22:20:00",
    "taf": "TAF LTBA 051640Z 0518/0618 04012KT CAVOK BECMG 0605/0608 04017G28KT",
    "taf_obs_time": "2025-06-05 16:40:00",
    "fetched_at": "2025-06-05T22:36:57.584948Z"
  },
  "LTBU": {
    "icao": "LTBU",
    "metar": "LTBU 052220Z 05007KT CAVOK 18/16 Q1017 RMK RWY22 06007KT",
    "metar_obs_time": "2025-06-05 22:20:00",
    "taf": "TAF LTBU 051640Z 0518/0618 02009KT CAVOK BECMG 0605/0608 04015G25KT BECMG 0616/0618 03012KT SCT008",
    "taf_obs_time": "2025-06-05 16:40:00",
    "fetched_at": "2025-06-05T22:36:57.584948Z"
  }
}