{
  "LTFM": {
    "icao": "LTFM",
    "metar": "LTFM 022250Z VRB02KT CAVOK 17/10 Q1020 NOSIG RMK RWY17L 30006KT RWY34L 28003KT 230V330 RWY16R VRB02KT RWY36 VRB02KT RWY18 25003KT 200V270",
    "metar_obs_time": "2025-06-02 22:50:00",
    "taf": "TAF LTFM 022240Z 0300/0406 VRB02KT CAVOK BECMG 0305/0308 06012KT BECMG 0316/0319 19007KT",
    "taf_obs_time": "2025-06-02 22:40:00",
    "fetched_at": "2025-06-02T23:17:11.881294Z"
  },
  "LTFJ": {
    "icao": "LTFJ",
    "metar": "LTFJ 022250Z 06007KT CAVOK 16/13 Q1019 NOSIG RMK RWY24R 08004KT RWY06R 06007KT RWY24L 04007KT",
    "metar_obs_time": "2025-06-02 22:50:00",
    "taf": "TAF LTFJ 022240Z 0300/0324 03007KT CAVOK BECMG 0304/0307 24010KT BECMG 0309/0312 02010KT",
    "taf_obs_time": "2025-06-02 22:40:00",
    "fetched_at": "2025-06-02T23:17:11.881294Z"
  },
  "LTBA": {
    "icao": "LTBA",
    "metar": "LTBA 022250Z 06004KT CAVOK 19/11 Q1019 RMK RWY23 07004KT",
    "metar_obs_time": "2025-06-02 22:50:00",
    "taf": "TAF LTBA 022240Z 0300/0324 VRB02KT CAVOK BECMG 0306/0309 21012KT BECMG 0313/0316 05007KT",
    "taf_obs_time": "2025-06-02 22:40:00",
    "fetched_at": "2025-06-02T23:17:11.881294Z"
  },
  "LTBU": {
    "icao": "LTBU",
    "metar": "LTBU 022250Z 36003KT CAVOK 14/09 Q1020 RMK RWY22 35004KT",
    "metar_obs_time": "2025-06-02 22:50:00",
    "taf": "TAF LTBU 022240Z 0300/0324 VRB02KT CAVOK BECMG 0308/0310 17012KT BECMG 0316/0319 VRB02KT",
    "taf_obs_time": "2025-06-02 22:40:00",
    "fetched_at": "2025-06-02T23:17:11.881294Z"
  }
}