{
  "LTFM": {
    "icao": "LTFM",
    "metar": "LTFM 212320Z 06011KT 020V090 CAVOK 21/12 Q1020 NOSIG RMK RWY17L 06010KT RWY34L 05007KT RWY16R 06011KT RWY36 06010KT 020V080 RWY18 07010KT",
    "metar_obs_time": "2025-06-21 23:20:00",
    "taf": "TAF LTFM 212240Z 2200/2306 05013KT CAVOK BECMG 2201/2204 SCT035 BECMG 2204/2206 04016G26KT TEMPO 2207/2211 BKN025 BECMG 2214/2216 CAVOK BECMG 2217/2220 17008KT",
    "taf_obs_time": "2025-06-21 22:40:00",
    "fetched_at": "2025-06-21T23:48:11.369558Z"
  },
  "LTFJ": {
    "icao": "LTFJ",
    "metar": "LTFJ 212320Z 03008KT CAVOK 18/13 Q1019 NOSIG RMK RWY24R 04007KT RWY06R 05006KT RWY24L 03006KT",
    "metar_obs_time": "2025-06-21 23:20:00",
    "taf": "TAF LTFJ 212240Z 2200/2224 05006KT CAVOK BECMG 2203/2207 SCT035 BECMG 2207/2210 04017KT BECMG 2212/2215 CAVOK BECMG 2216/2218 05007KT",
    "taf_obs_time": "2025-06-21 22:40:00",
    "fetched_at": "2025-06-21T23:48:11.369558Z"
  },
  "LTBA": {
    "icao": "LTBA",
    "metar": "LTBA 212320Z 06009KT CAVOK 20/12 Q1019 RMK RWY23 07009KT",
    "metar_obs_time": "2025-06-21 23:20:00",
    "taf": "TAF LTBA 212240Z 2200/2224 04009KT CAVOK BECMG 2204/2206 04016G26KT SCT035 BECMG 2212/2215 CAVOK BECMG 2215/2218 06006KT",
    "taf_obs_time": "2025-06-21 22:40:00",
    "fetched_at": "2025-06-21T23:48:11.369558Z"
  },
  "LTBU": {
    "icao": "LTBU",
    "metar": "LTBU 212320Z 02007KT CAVOK 16/12 Q1020 RMK RWY22 03007KT",
    "metar_obs_time": "2025-06-21 23:20:00",
    "taf": "TAF LTBU 212240Z 2200/2224 02008KT CAVOK BECMG 2204/2206 04016G26KT BECMG 2206/2208 SCT040 BECMG 2212/2214 CAVOK BECMG 2215/2218 06007KT",
    "taf_obs_time": "2025-06-21 22:40:00",
    "fetched_at": "2025-06-21T23:48:11.369558Z"
  }
}