{
  "LTFM": {
    "icao": "LTFM",
    "metar": "LTFM 030850Z 05008KT 360V080 CAVOK 25/13 Q1020 NOSIG RMK RWY17L 05007KT 010V070 RWY34L 07007KT 020V090 RWY16R 05007KT RWY36 03008KT RWY18 04006KT 010V070",
    "metar_obs_time": "2025-06-03 08:50:00",
    "taf": "TAF LTFM 030440Z 0306/0412 VRB02KT CAVOK BECMG 0306/0309 06012KT BECMG 0316/0319 18005KT BECMG 0407/0410 05010KT",
    "taf_obs_time": "2025-06-03 04:40:00",
    "fetched_at": "2025-06-03T09:19:58.647160Z"
  },
  "LTFJ": {
    "icao": "LTFJ",
    "metar": "LTFJ 030850Z 22007KT CAVOK 24/12 Q1019 NOSIG RMK RWY24R 24008KT RWY06R 23008KT RWY24L 23008KT 200V260",
    "metar_obs_time": "2025-06-03 08:50:00",
    "taf": "TAF LTFJ 030440Z 0306/0406 24009KT CAVOK BECMG 0311/0315 03012KT BECMG 0316/0318 VRB02KT",
    "taf_obs_time": "2025-06-03 04:40:00",
    "fetched_at": "2025-06-03T09:19:58.647160Z"
  },
  "LTBA": {
    "icao": "LTBA",
    "metar": "LTBA 030850Z 23006KT CAVOK 22/15 Q1020 RMK RWY23 22005KT 190V260",
    "metar_obs_time": "2025-06-03 08:50:00",
    "taf": "TAF LTBA 030440Z 0306/0406 VRB02KT CAVOK BECMG 0307/0310 21012KT BECMG 0313/0316 VRB02KT",
    "taf_obs_time": "2025-06-03 04:40:00",
    "fetched_at": "2025-06-03T09:19:58.647160Z"
  },
  "LTBU": {
    "icao": "LTBU",
    "metar": "LTBU 030850Z 16006KT 100V220 CAVOK 26/11 Q1020 RMK RWY22 16005KT 090V240",
    "metar_obs_time": "2025-06-03 08:50:00",
    "taf": "TAF LTBU 030440Z 0306/0406 VRB02KT CAVOK BECMG 0307/0310 17012KT BECMG 0316/0319 VRB02KT",
    "taf_obs_time": "2025-06-03 04:40:00",
    "fetched_at": "2025-06-03T09:19:58.647160Z"
  }
}