{
  "LTFM": {
    "icao": "LTFM",
    "metar": "LTFM 190550Z 04007KT 020V090 9999 SCT010 23/19 Q1019 NOSIG RMK RWY17L 03006KT 350V060 RWY34L 02007KT 340V070 RWY16R 03006KT 360V080 RWY36 03008KT RWY18 06006KT 010V110",
    "metar_obs_time": "2025-06-19 05:50:00",
    "taf": "TAF LTFM 190440Z 1906/2012 05012KT 9999 SCT011 BECMG 1910/1913 CAVOK BECMG 1917/1920 VRB02KT BECMG 2006/2009 36012KT SCT016",
    "taf_obs_time": "2025-06-19 04:40:00",
    "fetched_at": "2025-06-19T06:27:37.759634Z"
  },
  "LTFJ": {
    "icao": "LTFJ",
    "metar": "LTFJ 190550Z 04012KT 9999 SCT008 22/18 Q1018 NOSIG RMK RWY24R 05009KT RWY06R 02010KT RWY24L 04010KT 360V080",
    "metar_obs_time": "2025-06-19 05:50:00",
    "taf": "TAF LTFJ 190440Z 1906/2006 04009KT 9999 SCT005 BECMG 1906/1908 CAVOK TEMPO 1911/1915 05015G25KT",
    "taf_obs_time": "2025-06-19 04:40:00",
    "fetched_at": "2025-06-19T06:27:37.759634Z"
  },
  "LTBA": {
    "icao": "LTBA",
    "metar": "LTBA 190550Z 04010KT CAVOK 25/16 Q1018 RMK RWY23 06009KT 020V080",
    "metar_obs_time": "2025-06-19 05:50:00",
    "taf": "TAF LTBA 190440Z 1906/2006 04012KT CAVOK BECMG 1919/1922 VRB02KT",
    "taf_obs_time": "2025-06-19 04:40:00",
    "fetched_at": "2025-06-19T06:27:37.759634Z"
  },
  "LTBU": {
    "icao": "LTBU",
    "metar": "LTBU 190550Z 06008KT 9999 SCT040 25/14 Q1019 RMK RWY22 07005KT 030V130",
    "metar_obs_time": "2025-06-19 05:50:00",
    "taf": "TAF LTBU 190440Z 1906/2006 06013KT CAVOK BECMG 1919/1922 VRB02KT",
    "taf_obs_time": "2025-06-19 04:40:00",
    "fetched_at": "2025-06-19T06:27:37.759634Z"
  }
}