{
  "LTFM": {
    "icao": "LTFM",
    "metar": "LTFM 170450Z VRB03KT CAVOK 24/11 Q1017 NOSIG RMK RWY17L 28005KT RWY34L 23003KT 160V280 RWY16R 26004KT RWY36 VRB03KT RWY18 VRB05G15KT",
    "metar_obs_time": "2025-06-17 04:50:00",
    "taf": "TAF LTFM 170440Z 1706/1812 VRB02KT CAVOK BECMG 1706/1709 02012KT BECMG 1715/1718 VRB02KT BECMG 1803/1806 02012KT",
    "taf_obs_time": "2025-06-17 04:40:00",
    "fetched_at": "2025-06-17T05:18:20.843211Z"
  },
  "LTFJ": {
    "icao": "LTFJ",
    "metar": "LTFJ 170450Z VRB01KT CAVOK 21/12 Q1017 NOSIG RMK RWY24R VRB02KT RWY06R VRB02KT RWY24L 02003KT",
    "metar_obs_time": "2025-06-17 04:50:00",
    "taf": "TAF LTFJ 170440Z 1706/1806 VRB02KT CAVOK BECMG 1708/1711 03012KT BECMG 1718/1721 VRB02KT",
    "taf_obs_time": "2025-06-17 04:40:00",
    "fetched_at": "2025-06-17T05:18:20.843211Z"
  },
  "LTBA": {
    "icao": "LTBA",
    "metar": "LTBA 170450Z 11005KT CAVOK 22/14 Q1017 RMK RWY23 13005KT",
    "metar_obs_time": "2025-06-17 04:50:00",
    "taf": "TAF LTBA 170440Z 1706/1806 18005KT CAVOK BECMG 1711/1714 03010KT",
    "taf_obs_time": "2025-06-17 04:40:00",
    "fetched_at": "2025-06-17T05:18:20.843211Z"
  },
  "LTBU": {
    "icao": "LTBU",
    "metar": "LTBU 170450Z 32005KT CAVOK 22/11 Q1017 RMK RWY22 36004KT",
    "metar_obs_time": "2025-06-17 04:50:00",
    "taf": "TAF LTBU 170440Z 1706/1806 36005KT CAVOK BECMG 1710/1713 06012KT BECMG 1717/1720 34008KT",
    "taf_obs_time": "2025-06-17 04:40:00",
    "fetched_at": "2025-06-17T05:18:20.843211Z"
  }
}