{
  "LTFM": {
    "icao": "LTFM",
    "metar": "LTFM 172220Z 04005KT CAVOK 22/20 Q1018 NOSIG RMK RWY17L 05004KT RWY34L 03005KT RWY16R VRB01KT RWY36 04006KT RWY18 07002KT",
    "metar_obs_time": "2025-06-17 22:20:00",
    "taf": "TAF LTFM 171640Z 1718/1824 07010KT CAVOK BECMG 1720/1723 30006KT SCT008 PROB30 TEMPO 1800/1803 2000 BCFG BKN004 BECMG 1804/1806 02012KT CAVOK BECMG 1816/1819 08007KT SCT008 BECMG 1819/1822 BKN004 PROB40 TEMPO 1822/1824 2000 BCFG",
    "taf_obs_time": "2025-06-17 16:40:00",
    "fetched_at": "2025-06-17T22:43:00.001178Z"
  },
  "LTFJ": {
    "icao": "LTFJ",
    "metar": "LTFJ 172220Z 03009KT CAVOK 21/14 Q1017 NOSIG RMK RWY24R 01004KT 350V050 RWY06R 02010KT RWY24L 05009KT",
    "metar_obs_time": "2025-06-17 22:20:00",
    "taf": "TAF LTFJ 171640Z 1718/1818 06006KT CAVOK BECMG 1806/1810 04016KT TEMPO 1810/1814 04016G26KT TEMPO 1814/1818 04016G26KT",
    "taf_obs_time": "2025-06-17 16:40:00",
    "fetched_at": "2025-06-17T22:43:00.001178Z"
  },
  "LTBA": {
    "icao": "LTBA",
    "metar": "LTBA 172220Z 03008KT CAVOK 23/13 Q1017 RMK RWY23 03007KT",
    "metar_obs_time": "2025-06-17 22:20:00",
    "taf": "TAF LTBA 171640Z 1718/1818 03009KT CAVOK",
    "taf_obs_time": "2025-06-17 16:40:00",
    "fetched_at": "2025-06-17T22:43:00.001178Z"
  },
  "LTBU": {
    "icao": "LTBU",
    "metar": "LTBU 172220Z 02005KT CAVOK 19/10 Q1018 RMK RWY22 36005KT",
    "metar_obs_time": "2025-06-17 22:20:00",
    "taf": "TAF LTBU 171640Z 1718/1818 36007KT CAVOK BECMG 1804/1807 06012KT",
    "taf_obs_time": "2025-06-17 16:40:00",
    "fetched_at": "2025-06-17T22:43:00.001178Z"
  }
}