{
  "LTFM": {
    "icao": "LTFM",
    "metar": "LTFM 160750Z 01007KT 320V050 CAVOK 24/11 Q1017 NOSIG RMK RWY17L 34007KT 300V020 RWY34L 03006KT 330V070 RWY16R 36007KT 320V030 RWY36 02006KT 330V060 RWY18 01006KT 320V050",
    "metar_obs_time": "2025-06-16 07:50:00",
    "taf": "TAF LTFM 160440Z 1606/1712 28005KT CAVOK BECMG 1606/1609 36010KT BECMG 1614/1616 07010KT BECMG 1618/1621 18007KT BECMG 1705/1708 36012KT",
    "taf_obs_time": "2025-06-16 04:40:00",
    "fetched_at": "2025-06-16T08:26:37.350132Z"
  },
  "LTFJ": {
    "icao": "LTFJ",
    "metar": "LTFJ 160750Z 23006KT 190V260 CAVOK 22/14 Q1017 NOSIG RMK RWY24R 24007KT 210V270 RWY06R 23006KT 180V260 RWY24L 23008KT 200V260",
    "metar_obs_time": "2025-06-16 07:50:00",
    "taf": "TAF AMD LTFJ 160821Z 1608/1706 24009KT 9999 FEW035 BECMG 1609/1612 03012KT CAVOK BECMG 1619/1623 VRB02KT",
    "taf_obs_time": "2025-06-16 08:21:00",
    "fetched_at": "2025-06-16T08:26:37.350132Z"
  },
  "LTBA": {
    "icao": "LTBA",
    "metar": "LTBA 160750Z 19007KT 150V210 CAVOK 21/13 Q1017 RMK RWY23 21006KT 180V240",
    "metar_obs_time": "2025-06-16 07:50:00",
    "taf": "TAF LTBA 160440Z 1606/1706 VRB02KT CAVOK BECMG 1609/1612 03012KT BECMG 1700/1703 VRB02KT",
    "taf_obs_time": "2025-06-16 04:40:00",
    "fetched_at": "2025-06-16T08:26:37.350132Z"
  },
  "LTBU": {
    "icao": "LTBU",
    "metar": "LTBU 160750Z 04009KT 360V080 CAVOK 27/09 Q1017 RMK RWY22 07009KT 030V110",
    "metar_obs_time": "2025-06-16 07:50:00",
    "taf": "TAF LTBU 160440Z 1606/1706 32007KT CAVOK BECMG 1606/1608 04012KT BECMG 1616/1617 VRB02KT",
    "taf_obs_time": "2025-06-16 04:40:00",
    "fetched_at": "2025-06-16T08:26:37.350132Z"
  }
}