{
  "LTFM": {
    "icao": "LTFM",
    "metar": "LTFM 131220Z 05017KT 020V080 9999 FEW025 24/16 Q1018 NOSIG RMK RWY17L 04016KT RWY34L 03016KT 360V060 RWY16R 04016KT RWY36 05017KT 020V080 RWY18 05015KT",
    "metar_obs_time": "2025-06-13 12:20:00",
    "taf": "TAF LTFM 131040Z 1312/1418 05018KT CAVOK BECMG 1316/1319 06008KT BECMG 1405/1408 03018KT SCT025 BECMG 1415/1418 VRB02KT",
    "taf_obs_time": "2025-06-13 10:40:00",
    "fetched_at": "2025-06-13T12:37:21.186927Z"
  },
  "LTFJ": {
    "icao": "LTFJ",
    "metar": "LTFJ 131220Z 05021KT 9999 FEW035 26/12 Q1016 NOSIG RMK RWY24R 05018KT RWY06R 03021KT RWY24L 05018G31KT",
    "metar_obs_time": "2025-06-13 12:20:00",
    "taf": "TAF LTFJ 131040Z 1312/1412 06017KT 9999 FEW035 TEMPO 1312/1316 06020G30KT BECMG 1313/1315 CAVOK BECMG 1318/1321 04007KT TEMPO 1400/1404 SCT008 BECMG 1406/1409 04017KT SCT040",
    "taf_obs_time": "2025-06-13 10:40:00",
    "fetched_at": "2025-06-13T12:37:21.186927Z"
  },
  "LTBA": {
    "icao": "LTBA",
    "metar": "LTBA 131220Z 03020KT CAVOK 27/12 Q1017 RMK RWY23 04018KT",
    "metar_obs_time": "2025-06-13 12:20:00",
    "taf": "TAF LTBA 131040Z 1312/1412 04018KT CAVOK BECMG 1316/1319 05008KT BECMG 1405/1408 SCT040",
    "taf_obs_time": "2025-06-13 10:40:00",
    "fetched_at": "2025-06-13T12:37:21.186927Z"
  },
  "LTBU": {
    "icao": "LTBU",
    "metar": "LTBU 131220Z 04016KT 010V080 CAVOK 26/13 Q1017 RMK RWY22 05015KT",
    "metar_obs_time": "2025-06-13 12:20:00",
    "taf": "TAF LTBU 131040Z 1312/1412 05016KT 9999 SCT025 BECMG 1312/1314 CAVOK BECMG 1316/1319 03006KT BECMG 1404/1407 04016KT SCT040",
    "taf_obs_time": "2025-06-13 10:40:00",
    "fetched_at": "2025-06-13T12:37:21.186927Z"
  }
}