{
  "LTFM": {
    "icao": "LTFM",
    "metar": "LTFM 140520Z 05012KT 9999 SCT018 21/16 Q1019 NOSIG RMK RWY17L 06011KT RWY34L 05010KT RWY16R 06012KT RWY36 05012KT RWY18 06011KT",
    "metar_obs_time": "2025-06-14 05:20:00",
    "taf": "TAF LTFM 140440Z 1406/1512 04014KT 9999 BKN020 BECMG 1410/1413 SCT022 BECMG 1415/1418 VRB02KT CAVOK BECMG 1504/1507 01012KT SCT025 PROB40 TEMPO 1507/1511 -SHRA FEW022TCU BKN028",
    "taf_obs_time": "2025-06-14 04:40:00",
    "fetched_at": "2025-06-14T05:55:16.178145Z"
  },
  "LTFJ": {
    "icao": "LTFJ",
    "metar": "LTFJ 140520Z 07008KT CAVOK 21/16 Q1018 NOSIG RMK RWY24R 06006KT 030V090 RWY06R 04008KT RWY24L 04007KT",
    "metar_obs_time": "2025-06-14 05:20:00",
    "taf": "TAF LTFJ 140440Z 1406/1506 04006KT CAVOK BECMG 1406/1409 04016KT SCT035 BECMG 1414/1418 04005KT CAVOK BECMG 1503/1506 SCT035",
    "taf_obs_time": "2025-06-14 04:40:00",
    "fetched_at": "2025-06-14T05:55:16.178145Z"
  },
  "LTBA": {
    "icao": "LTBA",
    "metar": "LTBA 140520Z 05010KT 030V090 9999 SCT035 23/15 Q1018 RMK RWY23 07011KT",
    "metar_obs_time": "2025-06-14 05:20:00",
    "taf": "TAF LTBA 140440Z 1406/1506 04009KT CAVOK BECMG 1406/1409 03015G25KT SCT035 BECMG 1413/1415 CAVOK BECMG 1415/1418 03007KT",
    "taf_obs_time": "2025-06-14 04:40:00",
    "fetched_at": "2025-06-14T05:55:16.178145Z"
  },
  "LTBU": {
    "icao": "LTBU",
    "metar": "LTBU 140520Z 04013KT 9999 FEW020 BKN070 20/16 Q1019 RMK RWY22 05012KT",
    "metar_obs_time": "2025-06-14 05:20:00",
    "taf": "TAF LTBU 140440Z 1406/1506 03010KT CAVOK BECMG 1406/1408 04015G25KT SCT035 PROB30 TEMPO 1409/1412 -SHRA FEW025TCU BKN030 BECMG 1412/1415 CAVOK BECMG 1416/1419 35007KT",
    "taf_obs_time": "2025-06-14 04:40:00",
    "fetched_at": "2025-06-14T05:55:16.178145Z"
  }
}