{
  "LTFM": {
    "icao": "LTFM",
    "metar": "LTFM 051050Z 06013KT 020V080 CAVOK 25/13 Q1019 NOSIG RMK RWY17L 06012KT RWY34L 05011KT 020V080 RWY16R 06012KT RWY36 06014KT 020V080 RWY18 05012KT",
    "metar_obs_time": "2025-06-05 10:50:00",
    "taf": "TAF LTFM 051040Z 0512/0618 04011KT CAVOK BECMG 0517/0520 SCT008 PROB30 0521/0601 3200 BR BKN004 PROB30 0601/0605 3200 BR BKN004 BECMG 0605/0608 04015G25KT BECMG 0608/0611 CAVOK",
    "taf_obs_time": "2025-06-05 10:40:00",
    "fetched_at": "2025-06-05T11:18:16.592173Z"
  },
  "LTFJ": {
    "icao": "LTFJ",
    "metar": "LTFJ 051050Z 06015KT 020V090 CAVOK 30/13 Q1017 NOSIG RMK RWY24R 08014KT 050V110 RWY06R 04016KT RWY24L 05016KT",
    "metar_obs_time": "2025-06-05 10:50:00",
    "taf": "TAF LTFJ 051040Z 0512/0612 05014KT CAVOK TEMPO 0512/0516 05015G25KT PROB30 TEMPO 0601/0605 2400 BCFG TEMPO 0609/0612 04016G28KT",
    "taf_obs_time": "2025-06-05 10:40:00",
    "fetched_at": "2025-06-05T11:18:16.592173Z"
  },
  "LTBA": {
    "icao": "LTBA",
    "metar": "LTBA 051050Z 03014KT CAVOK 30/13 Q1017 RMK RWY23 04011KT 360V080",
    "metar_obs_time": "2025-06-05 10:50:00",
    "taf": "TAF LTBA 051040Z 0512/0612 04017KT CAVOK BECMG 0517/0520 04007KT BECMG 0605/0608 04018KT",
    "taf_obs_time": "2025-06-05 10:40:00",
    "fetched_at": "2025-06-05T11:18:16.592173Z"
  },
  "LTBU": {
    "icao": "LTBU",
    "metar": "LTBU 051050Z 06012KT CAVOK 30/12 Q1018 RMK RWY22 07011KT 040V110",
    "metar_obs_time": "2025-06-05 10:50:00",
    "taf": "TAF LTBU 051040Z 0512/0612 04013KT CAVOK",
    "taf_obs_time": "2025-06-05 10:40:00",
    "fetched_at": "2025-06-05T11:18:16.592173Z"
  }
}