{
  "LTFM": {
    "icao": "LTFM",
    "metar": "LTFM 191350Z 07010KT 020V090 CAVOK 26/14 Q1017 NOSIG RMK RWY17L 07009KT RWY34L 07010KT RWY16R 06010KT RWY36 06011KT 020V080 RWY18 07009KT",
    "metar_obs_time": "2025-06-19 13:50:00",
    "taf": "TAF LTFM 191040Z 1912/2018 07012KT CAVOK BECMG 1917/1919 13006KT BECMG 1923/2001 21010KT BECMG 2006/2009 02015KT SCT016 BECMG 2012/2015 BKN008",
    "taf_obs_time": "2025-06-19 10:40:00",
    "fetched_at": "2025-06-19T14:17:22.524260Z"
  },
  "LTFJ": {
    "icao": "LTFJ",
    "metar": "LTFJ 191350Z 02015KT CAVOK 28/10 Q1015 NOSIG RMK RWY24R 04014KT RWY06R 03016KT RWY24L 05014KT",
    "metar_obs_time": "2025-06-19 13:50:00",
    "taf": "TAF LTFJ 191040Z 1912/2012 04015KT CAVOK BECMG 1919/1922 05005KT BECMG 2004/2007 24010KT SCT035 BECMG 2009/2012 02013KT CAVOK",
    "taf_obs_time": "2025-06-19 10:40:00",
    "fetched_at": "2025-06-19T14:17:22.524260Z"
  },
  "LTBA": {
    "icao": "LTBA",
    "metar": "LTBA 191350Z 04015KT 010V070 CAVOK 30/10 Q1015 RMK RWY23 05013KT 020V080",
    "metar_obs_time": "2025-06-19 13:50:00",
    "taf": "TAF LTBA 191040Z 1912/2012 04015KT CAVOK BECMG 1917/1920 04005KT BECMG 2003/2006 20010KT BECMG 2010/2012 02015KT",
    "taf_obs_time": "2025-06-19 10:40:00",
    "fetched_at": "2025-06-19T14:17:22.524260Z"
  },
  "LTBU": {
    "icao": "LTBU",
    "metar": "LTBU 191350Z 06011KT 030V100 CAVOK 30/13 Q1016 RMK RWY22 07010KT 040V130",
    "metar_obs_time": "2025-06-19 13:50:00",
    "taf": "TAF LTBU 191040Z 1912/2012 06012KT CAVOK BECMG 1917/1920 34006KT BECMG 2006/2009 04012KT SCT022 TEMPO 2009/2012 -SHRA FEW018CB BKN022",
    "taf_obs_time": "2025-06-19 10:40:00",
    "fetched_at": "2025-06-19T14:17:22.524260Z"
  }
}