{
  "LTFM": {
    "icao": "LTFM",
    "metar": "LTFM 070420Z 04011KT 9999 BKN011 20/17 Q1018 NOSIG RMK RWY17L 05010KT RWY34L 03010KT RWY16R 05010KT RWY36 04010KT RWY18 06010KT",
    "metar_obs_time": "2025-06-07 04:20:00",
    "taf": "TAF LTFM 062240Z 0700/0806 05009KT 9999 BKN006 TEMPO 0700/0703 2500 BCFG BECMG 0703/0706 03017G27KT BECMG 0709/0712 SCT012 BECMG 0716/0719 04009KT",
    "taf_obs_time": "2025-06-06 22:40:00",
    "fetched_at": "2025-06-07T04:56:57.184483Z"
  },
  "LTFJ": {
    "icao": "LTFJ",
    "metar": "LTFJ 070420Z 05011KT 9999 FEW017 20/16 Q1017 NOSIG RMK RWY24R 05006KT 020V080 RWY06R 04010KT RWY24L 04007KT",
    "metar_obs_time": "2025-06-07 04:20:00",
    "taf": "TAF LTFJ 062240Z 0700/0724 04009KT 9999 SCT012 TEMPO 0700/0704 2500 BCFG BKN006 BECMG 0707/0710 03019KT CAVOK BECMG 0716/0719 05009KT SCT012",
    "taf_obs_time": "2025-06-06 22:40:00",
    "fetched_at": "2025-06-07T04:56:57.184483Z"
  },
  "LTBA": {
    "icao": "LTBA",
    "metar": "LTBA 070420Z 04010KT 9999 SCT017 20/17 Q1017 RMK RWY23 05009KT",
    "metar_obs_time": "2025-06-07 04:20:00",
    "taf": "TAF LTBA 062240Z 0700/0724 05012KT 9999 BKN007 BECMG 0704/0706 02017G27KT SCT018 BECMG 0718/0721 03008KT",
    "taf_obs_time": "2025-06-06 22:40:00",
    "fetched_at": "2025-06-07T04:56:57.184483Z"
  },
  "LTBU": {
    "icao": "LTBU",
    "metar": "LTBU 070420Z 01010KT CAVOK 18/17 Q1018 RMK RWY22 02009KT",
    "metar_obs_time": "2025-06-07 04:20:00",
    "taf": "TAF LTBU 062240Z 0700/0724 03007KT 9999 SCT016 BECMG 0700/0702 BKN006 TEMPO 0700/0704 2500 BCFG BECMG 0703/0706 03017G27KT SCT018 BECMG 0708/0711 CAVOK BECMG 0716/0719 03008KT",
    "taf_obs_time": "2025-06-06 22:40:00",
    "fetched_at": "2025-06-07T04:56:57.184483Z"
  }
}