{
  "LTFM": {
    "icao": "LTFM",
    "metar": "LTFM 101420Z 02021KT 9999 SCT018 23/18 Q1018 NOSIG RMK RWY17L 02020KT RWY34L 02019KT RWY16R 01019KT RWY36 02021KT RWY18 03018KT",
    "metar_obs_time": "2025-06-10 14:20:00",
    "taf": "TAF LTFM 101040Z 1012/1118 03022G32KT 9999 FEW014 BKN022 BECMG 1012/1014 SCT028 BECMG 1016/1019 04012KT BECMG 1103/1106 03015G25KT",
    "taf_obs_time": "2025-06-10 10:40:00",
    "fetched_at": "2025-06-10T14:47:23.599119Z"
  },
  "LTFJ": {
    "icao": "LTFJ",
    "metar": "LTFJ 101420Z 04020KT 9999 SCT025 23/18 Q1016 NOSIG RMK RWY24R 05019KT RWY06R 03019KT RWY24L 04020KT",
    "metar_obs_time": "2025-06-10 14:20:00",
    "taf": "TAF LTFJ 101040Z 1012/1112 03018KT 9999 SCT025 TEMPO 1012/1016 03020G30KT BECMG 1016/1020 04008KT BECMG 1020/1023 BKN012 BECMG 1104/1108 FEW035 BECMG 1108/1111 04018KT",
    "taf_obs_time": "2025-06-10 10:40:00",
    "fetched_at": "2025-06-10T14:47:23.599119Z"
  },
  "LTBA": {
    "icao": "LTBA",
    "metar": "LTBA 101420Z 02021KT 9999 BKN024 25/18 Q1016 RMK RWY23 03020KT 360V060",
    "metar_obs_time": "2025-06-10 14:20:00",
    "taf": "TAF LTBA 101040Z 1012/1112 03022G32KT 9999 SCT025 BECMG 1017/1020 04014KT BECMG 1103/1106 03018G28KT",
    "taf_obs_time": "2025-06-10 10:40:00",
    "fetched_at": "2025-06-10T14:47:23.599119Z"
  },
  "LTBU": {
    "icao": "LTBU",
    "metar": "LTBU 101420Z 03025KT CAVOK 24/16 Q1016 RMK RWY22 04020KT",
    "metar_obs_time": "2025-06-10 14:20:00",
    "taf": "TAF LTBU 101040Z 1012/1112 04025G35KT 9999 SCT025 BECMG 1018/1021 04014KT BECMG 1106/1109 04018G28KT",
    "taf_obs_time": "2025-06-10 10:40:00",
    "fetched_at": "2025-06-10T14:47:23.599119Z"
  }
}