{
  "LTFM": {
    "icao": "LTFM",
    "metar": "LTFM 170920Z 02010KT CAVOK 28/12 Q1017 NOSIG RMK RWY17L 01009KT 330V030 RWY34L 36009KT 320V020 RWY16R 01009KT RWY36 36009KT RWY18 36009KT",
    "metar_obs_time": "2025-06-17 09:20:00",
    "taf": "TAF LTFM 170440Z 1706/1812 VRB02KT CAVOK BECMG 1706/1709 02012KT BECMG 1715/1718 VRB02KT BECMG 1803/1806 02012KT",
    "taf_obs_time": "2025-06-17 04:40:00",
    "fetched_at": "2025-06-17T09:43:22.441772Z"
  },
  "LTFJ": {
    "icao": "LTFJ",
    "metar": "LTFJ 170920Z 24008KT 200V280 CAVOK 27/09 Q1017 NOSIG RMK RWY24R 27006KT 240V310 RWY06R 23009KT RWY24L 24007KT 210V300",
    "metar_obs_time": "2025-06-17 09:20:00",
    "taf": "TAF LTFJ 170440Z 1706/1806 VRB02KT CAVOK BECMG 1708/1711 03012KT BECMG 1718/1721 VRB02KT",
    "taf_obs_time": "2025-06-17 04:40:00",
    "fetched_at": "2025-06-17T09:43:22.441772Z"
  },
  "LTBA": {
    "icao": "LTBA",
    "metar": "LTBA 170920Z 21007KT 180V240 CAVOK 25/14 Q1017 RMK RWY23 21007KT",
    "metar_obs_time": "2025-06-17 09:20:00",
    "taf": "TAF LTBA 170440Z 1706/1806 18005KT CAVOK BECMG 1711/1714 03010KT",
    "taf_obs_time": "2025-06-17 04:40:00",
    "fetched_at": "2025-06-17T09:43:22.441772Z"
  },
  "LTBU": {
    "icao": "LTBU",
    "metar": "LTBU 170931Z 14009G19KT 090V180 9999 FEW040 29/12 Q1017 RMK RWY22 VRB05KT",
    "metar_obs_time": "2025-06-17 09:31:00",
    "taf": "TAF LTBU 170440Z 1706/1806 36005KT CAVOK BECMG 1710/1713 06012KT BECMG 1717/1720 34008KT",
    "taf_obs_time": "2025-06-17 04:40:00",
    "fetched_at": "2025-06-17T09:43:22.441772Z"
  }
}