{
  "LTFM": {
    "icao": "LTFM",
    "metar": "LTFM 161950Z 14008KT CAVOK 23/12 Q1016 NOSIG RMK RWY17L 13005KT RWY34L 13006KT RWY16R 11006KT RWY36 13009KT 100V170 RWY18 13005KT",
    "metar_obs_time": "2025-06-16 19:50:00",
    "taf": "TAF LTFM 161640Z 1618/1724 VRB02KT CAVOK BECMG 1705/1708 01012KT BECMG 1715/1718 VRB02KT",
    "taf_obs_time": "2025-06-16 16:40:00",
    "fetched_at": "2025-06-16T20:20:14.022410Z"
  },
  "LTFJ": {
    "icao": "LTFJ",
    "metar": "LTFJ 161950Z 08003KT 050V140 CAVOK 22/11 Q1016 NOSIG RMK RWY24R VRB02KT RWY06R 06003KT RWY24L 35003KT",
    "metar_obs_time": "2025-06-16 19:50:00",
    "taf": "TAF LTFJ 161640Z 1618/1718 05012KT CAVOK BECMG 1619/1622 VRB02KT BECMG 1710/1714 01012KT",
    "taf_obs_time": "2025-06-16 16:40:00",
    "fetched_at": "2025-06-16T20:20:14.022410Z"
  },
  "LTBA": {
    "icao": "LTBA",
    "metar": "LTBA 161950Z 08006KT CAVOK 23/12 Q1016 RMK RWY23 09006KT",
    "metar_obs_time": "2025-06-16 19:50:00",
    "taf": "TAF LTBA 161640Z 1618/1718 VRB02KT CAVOK BECMG 1705/1708 21012KT BECMG 1711/1714 03009KT",
    "taf_obs_time": "2025-06-16 16:40:00",
    "fetched_at": "2025-06-16T20:20:14.022410Z"
  },
  "LTBU": {
    "icao": "LTBU",
    "metar": "LTBU 161950Z 00000KT CAVOK 18/11 Q1016 RMK RWY22 18002KT",
    "metar_obs_time": "2025-06-16 19:50:00",
    "taf": "TAF LTBU 161640Z 1618/1718 VRB02KT CAVOK BECMG 1621/1624 35012KT BECMG 1710/1713 13007KT",
    "taf_obs_time": "2025-06-16 16:40:00",
    "fetched_at": "2025-06-16T20:20:14.022410Z"
  }
}