{
  "LTFM": {
    "icao": "LTFM",
    "metar": "LTFM 031020Z 05010KT 020V080 CAVOK 26/13 Q1019 NOSIG RMK RWY17L 07009KT RWY34L 05009KT 010V080 RWY16R 05009KT RWY36 06010KT 020V080 RWY18 06009KT 030V090",
    "metar_obs_time": "2025-06-03 10:20:00",
    "taf": "TAF LTFM 030440Z 0306/0412 VRB02KT CAVOK BECMG 0306/0309 06012KT BECMG 0316/0319 18005KT BECMG 0407/0410 05010KT",
    "taf_obs_time": "2025-06-03 04:40:00",
    "fetched_at": "2025-06-03T10:56:24.112564Z"
  },
  "LTFJ": {
    "icao": "LTFJ",
    "metar": "LTFJ 031020Z 22008KT 200V260 CAVOK 25/12 Q1019 NOSIG RMK RWY24R 24010KT RWY06R 22010KT RWY24L 23009KT",
    "metar_obs_time": "2025-06-03 10:20:00",
    "taf": "TAF LTFJ 030440Z 0306/0406 24009KT CAVOK BECMG 0311/0315 03012KT BECMG 0316/0318 VRB02KT",
    "taf_obs_time": "2025-06-03 04:40:00",
    "fetched_at": "2025-06-03T10:56:24.112564Z"
  },
  "LTBA": {
    "icao": "LTBA",
    "metar": "LTBA 031020Z 24008KT CAVOK 24/15 Q1019 RMK RWY23 23009KT",
    "metar_obs_time": "2025-06-03 10:20:00",
    "taf": "TAF LTBA 030440Z 0306/0406 VRB02KT CAVOK BECMG 0307/0310 21012KT BECMG 0313/0316 VRB02KT",
    "taf_obs_time": "2025-06-03 04:40:00",
    "fetched_at": "2025-06-03T10:56:24.112564Z"
  },
  "LTBU": {
    "icao": "LTBU",
    "metar": "LTBU 031020Z 15008KT 110V210 9999 FEW040 27/12 Q1019 RMK RWY22 13008KT 080V180",
    "metar_obs_time": "2025-06-03 10:20:00",
    "taf": "TAF LTBU 030440Z 0306/0406 VRB02KT CAVOK BECMG 0307/0310 17012KT BECMG 0316/0319 VRB02KT",
    "taf_obs_time": "2025-06-03 04:40:00",
    "fetched_at": "2025-06-03T10:56:24.112564Z"
  }
}