{
  "LTFM": {
    "icao": "LTFM",
    "metar": "LTFM 181520Z 05014KT 9999 FEW018 25/20 Q1019 NOSIG RMK RWY17L 05012KT RWY34L 04012KT RWY16R 04013KT RWY36 05014KT 010V070 RWY18 04012KT",
    "metar_obs_time": "2025-06-18 15:20:00",
    "taf": "TAF LTFM 181040Z 1812/1918 05012KT CAVOK BECMG 1817/1820 VRB02KT BECMG 1821/1824 1400 BCFG BKN004 BECMG 1902/1904 9999 NSW FEW020 BECMG 1905/1907 05012KT",
    "taf_obs_time": "2025-06-18 10:40:00",
    "fetched_at": "2025-06-18T15:57:15.405171Z"
  },
  "LTFJ": {
    "icao": "LTFJ",
    "metar": "LTFJ 181520Z 04015KT CAVOK 26/16 Q1018 NOSIG RMK RWY24R 04013KT RWY06R 03017KT RWY24L 02014KT",
    "metar_obs_time": "2025-06-18 15:20:00",
    "taf": "TAF LTFJ 181040Z 1812/1912 03015KT CAVOK BECMG 1816/1820 03005KT BECMG 1907/1910 03015KT",
    "taf_obs_time": "2025-06-18 10:40:00",
    "fetched_at": "2025-06-18T15:57:15.405171Z"
  },
  "LTBA": {
    "icao": "LTBA",
    "metar": "LTBA 181520Z 02015KT CAVOK 28/16 Q1018 RMK RWY23 02013KT",
    "metar_obs_time": "2025-06-18 15:20:00",
    "taf": "TAF LTBA 181040Z 1812/1912 03015KT CAVOK BECMG 1817/1820 05005KT BECMG 1904/1907 04015KT",
    "taf_obs_time": "2025-06-18 10:40:00",
    "fetched_at": "2025-06-18T15:57:15.405171Z"
  },
  "LTBU": {
    "icao": "LTBU",
    "metar": "LTBU 181520Z 05014KT CAVOK 27/16 Q1018 RMK RWY22 05010KT 020V080",
    "metar_obs_time": "2025-06-18 15:20:00",
    "taf": "TAF COR LTBU 181040Z 1812/1912 05015KT CAVOK BECMG 1817/1820 02005KT TEMPO 1822/1902 2500 BCFG BKN006 BECMG 1906/1909 05015KT",
    "taf_obs_time": "2025-06-18 10:40:00",
    "fetched_at": "2025-06-18T15:57:15.405171Z"
  }
}