{
  "LTFM": {
    "icao": "LTFM",
    "metar": "LTFM 021820Z 09005KT 060V120 CAVOK 21/08 Q1020 NOSIG RMK RWY17L 08001KT RWY34L 07004KT RWY16R 08002KT RWY36 07003KT 340V140 RWY18 VRB02KT",
    "metar_obs_time": "2025-06-02 18:20:00",
    "taf": "TAF LTFM 021640Z 0218/0324 VRB02KT CAVOK BECMG 0305/0308 06012KT BECMG 0316/0319 19007KT",
    "taf_obs_time": "2025-06-02 16:40:00",
    "fetched_at": "2025-06-02T18:34:44.302458Z"
  },
  "LTFJ": {
    "icao": "LTFJ",
    "metar": "LTFJ 021820Z 03009KT CAVOK 20/13 Q1019 NOSIG RMK RWY24R 02006KT 360V100 RWY06R 02010KT RWY24L 36005KT",
    "metar_obs_time": "2025-06-02 18:20:00",
    "taf": "TAF LTFJ 021640Z 0218/0318 03007KT CAVOK BECMG 0304/0307 24010KT BECMG 0309/0312 02010KT",
    "taf_obs_time": "2025-06-02 16:40:00",
    "fetched_at": "2025-06-02T18:34:44.302458Z"
  },
  "LTBA": {
    "icao": "LTBA",
    "metar": "LTBA 021820Z 13003KT CAVOK 21/12 Q1019 RMK RWY23 16003KT",
    "metar_obs_time": "2025-06-02 18:20:00",
    "taf": "TAF LTBA 021640Z 0218/0318 04008KT CAVOK BECMG 0306/0309 21010KT BECMG 0313/0316 05007KT",
    "taf_obs_time": "2025-06-02 16:40:00",
    "fetched_at": "2025-06-02T18:34:44.302458Z"
  },
  "LTBU": {
    "icao": "LTBU",
    "metar": "LTBU 021820Z 01002KT CAVOK 18/12 Q1019 RMK RWY22 08003KT",
    "metar_obs_time": "2025-06-02 18:20:00",
    "taf": "TAF LTBU 021640Z 0218/0318 VRB02KT CAVOK BECMG 0308/0311 17012KT BECMG 0315/0318 VRB02KT",
    "taf_obs_time": "2025-06-02 16:40:00",
    "fetched_at": "2025-06-02T18:34:44.302458Z"
  }
}