{
  "LTFM": {
    "icao": "LTFM",
    "metar": "LTFM 150150Z 33005KT 270V030 9999 FEW028 18/13 Q1018 NOSIG RMK RWY17L 33003KT 280V020 RWY34L 32003KT RWY16R 26004KT RWY36 03006KT 010V070 RWY18 02005KT",
    "metar_obs_time": "2025-06-15 01:50:00",
    "taf": "TAF LTFM 142240Z 1500/1606 VRB02KT 9999 FEW028 BECMG 1504/1507 01014KT BKN020 PROB40 TEMPO 1505/1508 -SHRA FEW018TCU BKN022 BECMG 1508/1510 SCT032 BECMG 1512/1515 CAVOK BECMG 1516/1519 VRB02KT",
    "taf_obs_time": "2025-06-14 22:40:00",
    "fetched_at": "2025-06-15T02:25:23.475214Z"
  },
  "LTFJ": {
    "icao": "LTFJ",
    "metar": "LTFJ 150150Z 06005KT CAVOK 15/13 Q1017 NOSIG RMK RWY24R VRB02KT RWY06R 08005KT 050V110 RWY24L 04006KT",
    "metar_obs_time": "2025-06-15 01:50:00",
    "taf": "TAF LTFJ 142240Z 1500/1524 04005KT CAVOK BECMG 1502/1505 FEW035 PROB30 TEMPO 1506/1509 -SHRA BKN030 BECMG 1509/1512 04015KT CAVOK BECMG 1517/1520 04005KT",
    "taf_obs_time": "2025-06-14 22:40:00",
    "fetched_at": "2025-06-15T02:25:23.475214Z"
  },
  "LTBA": {
    "icao": "LTBA",
    "metar": "LTBA 150150Z 05006KT CAVOK 17/14 Q1017 RMK RWY23 06006KT",
    "metar_obs_time": "2025-06-15 01:50:00",
    "taf": "TAF LTBA 142240Z 1500/1524 03005KT CAVOK BECMG 1501/1504 SCT032 BECMG 1504/1507 02015KT PROB40 TEMPO 1505/1509 -SHRA FEW020TCU BKN025 BECMG 1511/1514 CAVOK BECMG 1516/1519 04005KT",
    "taf_obs_time": "2025-06-14 22:40:00",
    "fetched_at": "2025-06-15T02:25:23.475214Z"
  },
  "LTBU": {
    "icao": "LTBU",
    "metar": "LTBU 150150Z 34009KT CAVOK 15/12 Q1018 RMK RWY22 35008KT",
    "metar_obs_time": "2025-06-15 01:50:00",
    "taf": "TAF LTBU 142240Z 1500/1524 36005KT 9999 SCT032 BECMG 1506/1509 04015KT PROB30 TEMPO 1510/1514 -SHRA FEW025TCU BKN032 BECMG 1516/1519 VRB02KT CAVOK",
    "taf_obs_time": "2025-06-14 22:40:00",
    "fetched_at": "2025-06-15T02:25:23.475214Z"
  }
}