{
  "LTFM": {
    "icao": "LTFM",
    "metar": "LTFM 021720Z 08005KT CAVOK 21/07 Q1019 NOSIG RMK RWY17L 09005KT RWY34L 06005KT 020V080 RWY16R 07004KT RWY36 09004KT 010V100 RWY18 07004KT",
    "metar_obs_time": "2025-06-02 17:20:00",
    "taf": "TAF LTFM 021640Z 0218/0324 VRB02KT CAVOK BECMG 0305/0308 06012KT BECMG 0316/0319 19007KT",
    "taf_obs_time": "2025-06-02 16:40:00",
    "fetched_at": "2025-06-02T17:47:58.119972Z"
  },
  "LTFJ": {
    "icao": "LTFJ",
    "metar": "LTFJ 021720Z 04010KT CAVOK 21/12 Q1019 NOSIG RMK RWY24R 02007KT RWY06R 02011KT RWY24L 36005KT 320V040",
    "metar_obs_time": "2025-06-02 17:20:00",
    "taf": "TAF LTFJ 021640Z 0218/0318 03007KT CAVOK BECMG 0304/0307 24010KT BECMG 0309/0312 02010KT",
    "taf_obs_time": "2025-06-02 16:40:00",
    "fetched_at": "2025-06-02T17:47:58.119972Z"
  },
  "LTBA": {
    "icao": "LTBA",
    "metar": "LTBA 021720Z 23003KT CAVOK 20/14 Q1019 RMK RWY23 15003KT 100V180",
    "metar_obs_time": "2025-06-02 17:20:00",
    "taf": "TAF LTBA 021640Z 0218/0318 04008KT CAVOK BECMG 0306/0309 21010KT BECMG 0313/0316 05007KT",
    "taf_obs_time": "2025-06-02 16:40:00",
    "fetched_at": "2025-06-02T17:47:58.119972Z"
  },
  "LTBU": {
    "icao": "LTBU",
    "metar": "LTBU 021720Z VRB02KT CAVOK 22/12 Q1019 RMK RWY22 07004KT",
    "metar_obs_time": "2025-06-02 17:20:00",
    "taf": "TAF LTBU 021640Z 0218/0318 VRB02KT CAVOK BECMG 0308/0311 17012KT BECMG 0315/0318 VRB02KT",
    "taf_obs_time": "2025-06-02 16:40:00",
    "fetched_at": "2025-06-02T17:47:58.119972Z"
  }
}