{
  "LTFM": {
    "icao": "LTFM",
    "metar": "LTFM 040450Z 20008KT 170V260 CAVOK 23/13 Q1018 NOSIG RMK RWY17L 20006KT 160V220 RWY34L 18005KT 140V250 RWY16R 23003KT 190V260 RWY36 18007KT RWY18 20009KT",
    "metar_obs_time": "2025-06-04 04:50:00",
    "taf": "TAF LTFM 040440Z 0406/0512 20006KT CAVOK BECMG 0407/0410 05010KT BECMG 0417/0420 11010KT BECMG 0421/0424 31005KT FEW006 BECMG 0505/0507 05012KT CAVOK",
    "taf_obs_time": "2025-06-04 04:40:00",
    "fetched_at": "2025-06-04T05:26:52.508661Z"
  },
  "LTFJ": {
    "icao": "LTFJ",
    "metar": "LTFJ 040450Z 18003KT 140V220 CAVOK 21/12 Q1019 NOSIG RMK RWY24R VRB02KT RWY06R 00000KT RWY24L 00000KT",
    "metar_obs_time": "2025-06-04 04:50:00",
    "taf": "TAF LTFJ 040440Z 0406/0506 23007KT CAVOK BECMG 0410/0412 03010KT",
    "taf_obs_time": "2025-06-04 04:40:00",
    "fetched_at": "2025-06-04T05:26:52.508661Z"
  },
  "LTBA": {
    "icao": "LTBA",
    "metar": "LTBA 040450Z 11003KT 090V160 CAVOK 21/15 Q1018 RMK RWY23 12004KT 090V160",
    "metar_obs_time": "2025-06-04 04:50:00",
    "taf": "TAF LTBA 040440Z 0406/0506 VRB02KT CAVOK BECMG 0407/0410 21012KT BECMG 0414/0417 01008KT",
    "taf_obs_time": "2025-06-04 04:40:00",
    "fetched_at": "2025-06-04T05:26:52.508661Z"
  },
  "LTBU": {
    "icao": "LTBU",
    "metar": "LTBU 040450Z 17003KT 140V200 CAVOK 22/13 Q1018 RMK RWY22 19003KT 160V230",
    "metar_obs_time": "2025-06-04 04:50:00",
    "taf": "TAF LTBU 040440Z 0406/0506 VRB02KT CAVOK BECMG 0407/0410 17012KT BECMG 0417/0420 01006KT",
    "taf_obs_time": "2025-06-04 04:40:00",
    "fetched_at": "2025-06-04T05:26:52.508661Z"
  }
}