{
  "LTFM": {
    "icao": "LTFM",
    "metar": "LTFM 171450Z 06009KT 030V090 CAVOK 27/12 Q1017 NOSIG RMK RWY17L 07008KT RWY34L 06008KT 010V080 RWY16R 06009KT 020V080 RWY36 07009KT 030V090 RWY18 06007KT",
    "metar_obs_time": "2025-06-17 14:50:00",
    "taf": "TAF LTFM 171040Z 1712/1818 04012KT CAVOK BECMG 1715/1718 VRB02KT BECMG 1721/1724 SCT008 PROB30 TEMPO 1800/1803 2000 BCFG BKN004 BECMG 1804/1806 02012KT CAVOK BECMG 1815/1818 08007KT SCT008",
    "taf_obs_time": "2025-06-17 10:40:00",
    "fetched_at": "2025-06-17T15:28:42.552089Z"
  },
  "LTFJ": {
    "icao": "LTFJ",
    "metar": "LTFJ 171450Z 05013KT 010V070 CAVOK 28/12 Q1017 NOSIG RMK RWY24R 04010KT 350V070 RWY06R 02011KT RWY24L 02011KT",
    "metar_obs_time": "2025-06-17 14:50:00",
    "taf": "TAF LTFJ 171040Z 1712/1812 24009KT CAVOK BECMG 1712/1714 04012KT BECMG 1718/1721 VRB02KT",
    "taf_obs_time": "2025-06-17 10:40:00",
    "fetched_at": "2025-06-17T15:28:42.552089Z"
  },
  "LTBA": {
    "icao": "LTBA",
    "metar": "LTBA 171450Z 25007KT CAVOK 27/13 Q1016 RMK RWY23 24007KT",
    "metar_obs_time": "2025-06-17 14:50:00",
    "taf": "TAF LTBA 171040Z 1712/1812 23007KT CAVOK BECMG 1713/1716 04012KT BECMG 1805/1808 18007KT",
    "taf_obs_time": "2025-06-17 10:40:00",
    "fetched_at": "2025-06-17T15:28:42.552089Z"
  },
  "LTBU": {
    "icao": "LTBU",
    "metar": "LTBU 171450Z 13006KT 080V180 CAVOK 29/11 Q1017 RMK RWY22 13006KT 090V160",
    "metar_obs_time": "2025-06-17 14:50:00",
    "taf": "TAF LTBU 171040Z 1712/1812 16007KT 9999 SCT040 BECMG 1712/1715 CAVOK BECMG 1715/1718 35010KT BECMG 1804/1807 05012KT",
    "taf_obs_time": "2025-06-17 10:40:00",
    "fetched_at": "2025-06-17T15:28:42.552089Z"
  }
}