{
  "LTFM": {
    "icao": "LTFM",
    "metar": "LTFM 140820Z 05014KT 010V070 9999 BKN025 23/15 Q1019 NOSIG RMK RWY17L 05013KT 010V070 RWY34L 04012KT 360V060 RWY16R 05013KT 010V070 RWY36 04014KT 010V080 RWY18 06012KT",
    "metar_obs_time": "2025-06-14 08:20:00",
    "taf": "TAF LTFM 140440Z 1406/1512 04014KT 9999 BKN020 BECMG 1410/1413 SCT022 BECMG 1415/1418 VRB02KT CAVOK BECMG 1504/1507 01012KT SCT025 PROB40 TEMPO 1507/1511 -SHRA FEW022TCU BKN028",
    "taf_obs_time": "2025-06-14 04:40:00",
    "fetched_at": "2025-06-14T08:44:19.930070Z"
  },
  "LTFJ": {
    "icao": "LTFJ",
    "metar": "LTFJ 140820Z 05011KT 010V100 9999 SCT035 25/12 Q1018 NOSIG RMK RWY24R 05010KT 020V080 RWY06R 03013KT RWY24L 02012KT 360V070",
    "metar_obs_time": "2025-06-14 08:20:00",
    "taf": "TAF LTFJ 140440Z 1406/1506 04006KT CAVOK BECMG 1406/1409 04016KT SCT035 BECMG 1414/1418 04005KT CAVOK BECMG 1503/1506 SCT035",
    "taf_obs_time": "2025-06-14 04:40:00",
    "fetched_at": "2025-06-14T08:44:19.930070Z"
  },
  "LTBA": {
    "icao": "LTBA",
    "metar": "LTBA 140820Z 03011KT 360V070 9999 SCT035 26/12 Q1019 RMK RWY23 07012KT 040V100",
    "metar_obs_time": "2025-06-14 08:20:00",
    "taf": "TAF LTBA 140440Z 1406/1506 04009KT CAVOK BECMG 1406/1409 03015G25KT SCT035 BECMG 1413/1415 CAVOK BECMG 1415/1418 03007KT",
    "taf_obs_time": "2025-06-14 04:40:00",
    "fetched_at": "2025-06-14T08:44:19.930070Z"
  },
  "LTBU": {
    "icao": "LTBU",
    "metar": "LTBU 140820Z 02013KT 9999 SCT030 BKN080 23/15 Q1019 RMK RWY22 05011KT 020V090",
    "metar_obs_time": "2025-06-14 08:20:00",
    "taf": "TAF LTBU 140440Z 1406/1506 03010KT CAVOK BECMG 1406/1408 04015G25KT SCT035 PROB30 TEMPO 1409/1412 -SHRA FEW025TCU BKN030 BECMG 1412/1415 CAVOK BECMG 1416/1419 35007KT",
    "taf_obs_time": "2025-06-14 04:40:00",
    "fetched_at": "2025-06-14T08:44:19.930070Z"
  }
}