{
  "LTFM": {
    "icao": "LTFM",
    "metar": "LTFM 172020Z 03006KT CAVOK 22/19 Q1018 NOSIG",
    "metar_obs_time": "2025-06-17 20:20:00",
    "taf": "TAF LTFM 171640Z 1718/1824 07010KT CAVOK BECMG 1720/1723 30006KT SCT008 PROB30 TEMPO 1800/1803 2000 BCFG BKN004 BECMG 1804/1806 02012KT CAVOK BECMG 1816/1819 08007KT SCT008 BECMG 1819/1822 BKN004 PROB40 TEMPO 1822/1824 2000 BCFG",
    "taf_obs_time": "2025-06-17 16:40:00",
    "fetched_at": "2025-06-17T20:29:24.142937Z"
  },
  "LTFJ": {
    "icao": "LTFJ",
    "metar": "LTFJ 172020Z 02008KT CAVOK 22/14 Q1017 NOSIG",
    "metar_obs_time": "2025-06-17 20:20:00",
    "taf": "TAF LTFJ 171640Z 1718/1818 06006KT CAVOK BECMG 1806/1810 04016KT TEMPO 1810/1814 04016G26KT TEMPO 1814/1818 04016G26KT",
    "taf_obs_time": "2025-06-17 16:40:00",
    "fetched_at": "2025-06-17T20:29:24.142937Z"
  },
  "LTBA": {
    "icao": "LTBA",
    "metar": "LTBA 172020Z 36005KT CAVOK 24/11 Q1017",
    "metar_obs_time": "2025-06-17 20:20:00",
    "taf": "TAF LTBA 171640Z 1718/1818 03009KT CAVOK",
    "taf_obs_time": "2025-06-17 16:40:00",
    "fetched_at": "2025-06-17T20:29:24.142937Z"
  },
  "LTBU": {
    "icao": "LTBU",
    "metar": "LTBU 172020Z 02005KT CAVOK 21/12 Q1018",
    "metar_obs_time": "2025-06-17 20:20:00",
    "taf": "TAF LTBU 171640Z 1718/1818 36007KT CAVOK BECMG 1804/1807 06012KT",
    "taf_obs_time": "2025-06-17 16:40:00",
    "fetched_at": "2025-06-17T20:29:24.142937Z"
  }
}