{
  "LTFM": {
    "icao": "LTFM",
    "metar": "LTFM 162020Z 17007KT 130V190 CAVOK 22/12 Q1016 NOSIG RMK RWY17L 14005KT RWY34L 18006KT RWY16R 17005KT 120V200 RWY36 14007KT 100V200 RWY18 14006KT",
    "metar_obs_time": "2025-06-16 20:20:00",
    "taf": "TAF LTFM 161640Z 1618/1724 VRB02KT CAVOK BECMG 1705/1708 01012KT BECMG 1715/1718 VRB02KT",
    "taf_obs_time": "2025-06-16 16:40:00",
    "fetched_at": "2025-06-16T20:42:40.489740Z"
  },
  "LTFJ": {
    "icao": "LTFJ",
    "metar": "LTFJ 162020Z 06004KT CAVOK 22/11 Q1016 NOSIG RMK RWY24R VRB02KT RWY06R 06004KT RWY24L 02003KT 350V070",
    "metar_obs_time": "2025-06-16 20:20:00",
    "taf": "TAF LTFJ 161640Z 1618/1718 05012KT CAVOK BECMG 1619/1622 VRB02KT BECMG 1710/1714 01012KT",
    "taf_obs_time": "2025-06-16 16:40:00",
    "fetched_at": "2025-06-16T20:42:40.489740Z"
  },
  "LTBA": {
    "icao": "LTBA",
    "metar": "LTBA 162020Z 09006KT CAVOK 23/12 Q1016 RMK RWY23 09006KT",
    "metar_obs_time": "2025-06-16 20:20:00",
    "taf": "TAF LTBA 161640Z 1618/1718 VRB02KT CAVOK BECMG 1705/1708 21012KT BECMG 1711/1714 03009KT",
    "taf_obs_time": "2025-06-16 16:40:00",
    "fetched_at": "2025-06-16T20:42:40.489740Z"
  },
  "LTBU": {
    "icao": "LTBU",
    "metar": "LTBU 162020Z 00000KT CAVOK 17/11 Q1016 RMK RWY22 20002KT",
    "metar_obs_time": "2025-06-16 20:20:00",
    "taf": "TAF LTBU 161640Z 1618/1718 VRB02KT CAVOK BECMG 1621/1624 35012KT BECMG 1710/1713 13007KT",
    "taf_obs_time": "2025-06-16 16:40:00",
    "fetched_at": "2025-06-16T20:42:40.489740Z"
  }
}