{
  "LTFM": {
    "icao": "LTFM",
    "metar": "LTFM 170620Z 32007KT CAVOK 25/11 Q1017 NOSIG RMK RWY17L 31006KT RWY34L 31007KT RWY16R 31005KT 280V350 RWY36 30007KT RWY18 35006KT 310V010",
    "metar_obs_time": "2025-06-17 06:20:00",
    "taf": "TAF LTFM 170440Z 1706/1812 VRB02KT CAVOK BECMG 1706/1709 02012KT BECMG 1715/1718 VRB02KT BECMG 1803/1806 02012KT",
    "taf_obs_time": "2025-06-17 04:40:00",
    "fetched_at": "2025-06-17T06:52:53.156244Z"
  },
  "LTFJ": {
    "icao": "LTFJ",
    "metar": "LTFJ 170620Z VRB02KT CAVOK 24/11 Q1017 NOSIG RMK RWY24R VRB01KT RWY06R VRB01KT RWY24L 28003KT 240V340",
    "metar_obs_time": "2025-06-17 06:20:00",
    "taf": "TAF LTFJ 170440Z 1706/1806 VRB02KT CAVOK BECMG 1708/1711 03012KT BECMG 1718/1721 VRB02KT",
    "taf_obs_time": "2025-06-17 04:40:00",
    "fetched_at": "2025-06-17T06:52:53.156244Z"
  },
  "LTBA": {
    "icao": "LTBA",
    "metar": "LTBA 170620Z 14005KT 100V170 CAVOK 22/13 Q1017 RMK RWY23 15005KT 110V180",
    "metar_obs_time": "2025-06-17 06:20:00",
    "taf": "TAF LTBA 170440Z 1706/1806 18005KT CAVOK BECMG 1711/1714 03010KT",
    "taf_obs_time": "2025-06-17 04:40:00",
    "fetched_at": "2025-06-17T06:52:53.156244Z"
  },
  "LTBU": {
    "icao": "LTBU",
    "metar": "LTBU 170620Z 31007KT 280V360 CAVOK 26/11 Q1017 RMK RWY22 34007KT 300V010",
    "metar_obs_time": "2025-06-17 06:20:00",
    "taf": "TAF LTBU 170440Z 1706/1806 36005KT CAVOK BECMG 1710/1713 06012KT BECMG 1717/1720 34008KT",
    "taf_obs_time": "2025-06-17 04:40:00",
    "fetched_at": "2025-06-17T06:52:53.156244Z"
  }
}