{
  "LTFM": {
    "icao": "LTFM",
    "metar": "LTFM 011120Z 01013KT CAVOK 21/13 Q1018 NOSIG RMK RWY17L 35013KT RWY34L 36013KT RWY16R 36012KT RWY36 36013KT 320V020 RWY18 35013KT 310V010",
    "metar_obs_time": "2025-06-01 11:20:00",
    "taf": "TAF LTFM 011040Z 0112/0218 02012KT CAVOK BECMG 0115/0118 SCT008 BECMG 0118/0121 32007KT BKN004 BECMG 0121/0124 4000 BR PROB30 0200/0204 1200 BCFG OVC002 BECMG 0204/0207 02010KT 9999 NSW SCT008 BECMG 0207/0210 CAVOK",
    "taf_obs_time": "2025-06-01 10:40:00",
    "fetched_at": "2025-06-01T11:56:28.276683Z"
  },
  "LTFJ": {
    "icao": "LTFJ",
    "metar": "LTFJ 011120Z 06008KT 360V100 9999 SCT035 23/11 Q1017 NOSIG RMK RWY24R 02010KT 350V050 RWY06R 25010KT 220V280 RWY24L 36009KT 320V030",
    "metar_obs_time": "2025-06-01 11:20:00",
    "taf": "TAF LTFJ 011040Z 0112/0212 03009KT 9999 SCT035 PROB30 TEMPO 0115/0118 -SHRA BKN030 BECMG 0121/0201 BKN011 TEMPO 0201/0203 4000 BR BKN006 PROB30 TEMPO 0202/0205 1200 BCFG BKN004 BECMG 0205/0208 SCT035",
    "taf_obs_time": "2025-06-01 10:40:00",
    "fetched_at": "2025-06-01T11:56:28.276683Z"
  },
  "LTBA": {
    "icao": "LTBA",
    "metar": "LTBA 011120Z 36014KT CAVOK 24/09 Q1017 RMK RWY23 36011KT 340V040",
    "metar_obs_time": "2025-06-01 11:20:00",
    "taf": "TAF LTBA 011040Z 0112/0212 23010KT 9999 SCT035 BECMG 0112/0115 01012KT CAVOK BECMG 0116/0119 VRB02KT SCT010 BECMG 0119/0122 2000 BR BKN004 PROB30 0200/0204 0700 FG VV002 BECMG 0204/0207 20012KT CAVOK BECMG 0210/0212 02012KT",
    "taf_obs_time": "2025-06-01 10:40:00",
    "fetched_at": "2025-06-01T11:56:28.276683Z"
  },
  "LTBU": {
    "icao": "LTBU",
    "metar": "LTBU 011120Z 03012KT 340V060 9999 FEW040 25/08 Q1017 RMK RWY22 02012KT",
    "metar_obs_time": "2025-06-01 11:20:00",
    "taf": "TAF LTBU 011040Z 0112/0212 03016KT CAVOK BECMG 0115/0118 35006KT BECMG 0205/0208 16010KT SCT040",
    "taf_obs_time": "2025-06-01 10:40:00",
    "fetched_at": "2025-06-01T11:56:28.276683Z"
  }
}