{
  "LTFM": {
    "icao": "LTFM",
    "metar": "LTFM 050420Z 33010KT CAVOK 20/18 Q1019 NOSIG RMK RWY17L 30006KT RWY34L 31010KT RWY16R 31006KT RWY36 33008KT RWY18 32006KT",
    "metar_obs_time": "2025-06-05 04:20:00",
    "taf": "TAF LTFM 042240Z 0500/0606 VRB02KT CAVOK BECMG 0504/0507 06012KT BECMG 0517/0520 SCT020 PROB30 TEMPO 0520/0524 3200 BR BKN004",
    "taf_obs_time": "2025-06-04 22:40:00",
    "fetched_at": "2025-06-05T04:35:00.896285Z"
  },
  "LTFJ": {
    "icao": "LTFJ",
    "metar": "LTFJ 050420Z 04008KT CAVOK 23/09 Q1018 NOSIG RMK RWY24R 02006KT RWY06R 02009KT RWY24L 03008KT",
    "metar_obs_time": "2025-06-05 04:20:00",
    "taf": "TAF LTFJ 042240Z 0500/0524 04006KT CAVOK BECMG 0506/0509 03016KT",
    "taf_obs_time": "2025-06-04 22:40:00",
    "fetched_at": "2025-06-05T04:35:00.896285Z"
  },
  "LTBA": {
    "icao": "LTBA",
    "metar": "LTBA 050420Z 04006KT CAVOK 24/07 Q1018 RMK RWY23 03006KT",
    "metar_obs_time": "2025-06-05 04:20:00",
    "taf": "TAF LTBA 042240Z 0500/0524 03008KT CAVOK BECMG 0506/0509 04015G25KT",
    "taf_obs_time": "2025-06-04 22:40:00",
    "fetched_at": "2025-06-05T04:35:00.896285Z"
  },
  "LTBU": {
    "icao": "LTBU",
    "metar": "LTBU 050420Z 04010KT CAVOK 23/09 Q1018 RMK RWY22 02008KT",
    "metar_obs_time": "2025-06-05 04:20:00",
    "taf": "TAF LTBU 042240Z 0500/0524 02008KT CAVOK BECMG 0507/0510 05015G25KT BECMG 0515/0518 03008KT SCT035",
    "taf_obs_time": "2025-06-04 22:40:00",
    "fetched_at": "2025-06-05T04:35:00.896285Z"
  }
}