{
  "LTFM": {
    "icao": "LTFM",
    "metar": "LTFM 141420Z 03014KT 9999 SCT027 22/13 Q1019 NOSIG RMK RWY17L 04012KT RWY34L 04011KT 360V060 RWY16R 02011KT RWY36 04013KT RWY18 05012KT",
    "metar_obs_time": "2025-06-14 14:20:00",
    "taf": "TAF LTFM 141040Z 1412/1518 04015KT 9999 SCT027 BECMG 1416/1419 VRB02KT BECMG 1504/1507 01014KT BKN020 PROB40 TEMPO 1505/1508 -SHRA FEW018TCU BKN022 BECMG 1508/1510 SCT032 BECMG 1515/1517 VRB02KT CAVOK",
    "taf_obs_time": "2025-06-14 10:40:00",
    "fetched_at": "2025-06-14T14:35:54.191368Z"
  },
  "LTFJ": {
    "icao": "LTFJ",
    "metar": "LTFJ 141420Z 03013KT 360V060 9999 SCT035 24/12 Q1018 NOSIG RMK RWY24R 04014KT 010V070 RWY06R 02014KT 350V050 RWY24L 01013KT",
    "metar_obs_time": "2025-06-14 14:20:00",
    "taf": "TAF LTFJ 141040Z 1412/1512 03015KT 9999 SCT035 BECMG 1415/1418 CAVOK BECMG 1418/1421 03005KT BECMG 1503/1506 SCT035 PROB30 TEMPO 1507/1510 -SHRA BKN035 BECMG 1509/1511 03015KT",
    "taf_obs_time": "2025-06-14 10:40:00",
    "fetched_at": "2025-06-14T14:35:54.191368Z"
  },
  "LTBA": {
    "icao": "LTBA",
    "metar": "LTBA 141420Z 04014KT 9999 FEW045 24/12 Q1018 RMK RWY23 03012KT 360V070",
    "metar_obs_time": "2025-06-14 14:20:00",
    "taf": "TAF LTBA 141040Z 1412/1512 05015KT CAVOK BECMG 1416/1419 02005KT BECMG 1501/1504 SCT032 BECMG 1504/1507 02015KT PROB40 TEMPO 1505/1509 -SHRA FEW020CB BKN025",
    "taf_obs_time": "2025-06-14 10:40:00",
    "fetched_at": "2025-06-14T14:35:54.191368Z"
  },
  "LTBU": {
    "icao": "LTBU",
    "metar": "LTBU 141420Z 04016KT CAVOK 24/12 Q1018 RMK RWY22 05014KT",
    "metar_obs_time": "2025-06-14 14:20:00",
    "taf": "TAF LTBU 141040Z 1412/1512 04015KT 9999 SCT035 TEMPO 1412/1414 -SHRA FEW025TCU BKN030 BECMG 1414/1416 CAVOK BECMG 1418/1421 34007KT BECMG 1421/1424 FEW014 BKN070 BECMG 1506/1509 04014KT PROB30 TEMPO 1510/1512 -SHRA FEW025TCU SCT032",
    "taf_obs_time": "2025-06-14 10:40:00",
    "fetched_at": "2025-06-14T14:35:54.191368Z"
  }
}