{
  "LTFM": {
    "icao": "LTFM",
    "metar": "LTFM 180350Z 36005KT 9999 FEW008 21/19 Q1018 NOSIG RMK RWY17L 29002KT RWY34L 36005KT RWY16R 31002KT RWY36 36004KT RWY18 32004KT 280V030",
    "metar_obs_time": "2025-06-18 03:50:00",
    "taf": "TAF LTFM 172240Z 1800/1906 32006KT 9999 FEW008 TEMPO 1800/1804 2000 BCFG BKN004 BECMG 1804/1807 02012KT CAVOK BECMG 1816/1819 08006KT SCT008 PROB40 TEMPO 1900/1904 2000 BCFG BKN004",
    "taf_obs_time": "2025-06-17 22:40:00",
    "fetched_at": "2025-06-18T04:28:06.004851Z"
  },
  "LTFJ": {
    "icao": "LTFJ",
    "metar": "LTFJ 180350Z 07007KT 9999 2300NE PRFG NSC 18/16 Q1018 NOSIG",
    "metar_obs_time": "2025-06-18 03:50:00",
    "taf": "TAF LTFJ 172240Z 1800/1824 03007KT CAVOK BECMG 1805/1808 24010KT BECMG 1811/1814 03015KT BECMG 1817/1820 03005KT",
    "taf_obs_time": "2025-06-17 22:40:00",
    "fetched_at": "2025-06-18T04:28:06.004851Z"
  },
  "LTBA": {
    "icao": "LTBA",
    "metar": "LTBA 180350Z 02007KT CAVOK 22/19 Q1018 RMK RWY23 03007KT",
    "metar_obs_time": "2025-06-18 03:50:00",
    "taf": "TAF LTBA 172240Z 1800/1824 03010KT CAVOK TEMPO 1800/1804 SCT010",
    "taf_obs_time": "2025-06-17 22:40:00",
    "fetched_at": "2025-06-18T04:28:06.004851Z"
  },
  "LTBU": {
    "icao": "LTBU",
    "metar": "LTBU 180350Z 03006KT CAVOK 21/11 Q1018 RMK RWY22 01005KT",
    "metar_obs_time": "2025-06-18 03:50:00",
    "taf": "TAF LTBU 172240Z 1800/1824 36007KT CAVOK BECMG 1804/1807 06012KT",
    "taf_obs_time": "2025-06-17 22:40:00",
    "fetched_at": "2025-06-18T04:28:06.004851Z"
  }
}