{
  "LTFM": {
    "icao": "LTFM",
    "metar": "LTFM 161120Z 04008KT 360V070 CAVOK 25/14 Q1017 NOSIG RMK RWY17L 02009KT RWY34L 02009KT 340V040 RWY16R 02009KT 330V050 RWY36 03009KT RWY18 03008KT 350V080",
    "metar_obs_time": "2025-06-16 11:20:00",
    "taf": "TAF LTFM 161040Z 1612/1718 03012KT CAVOK BECMG 1615/1618 VRB02KT PROB30 1701/1705 4000 BR SCT008 BECMG 1705/1708 01012KT",
    "taf_obs_time": "2025-06-16 10:40:00",
    "fetched_at": "2025-06-16T11:55:16.207808Z"
  },
  "LTFJ": {
    "icao": "LTFJ",
    "metar": "LTFJ 161120Z 04010KT 9999 SCT035 26/12 Q1016 NOSIG RMK RWY24R 04011KT 340V080 RWY06R 26007KT 210V300 RWY24L 03010KT 350V070",
    "metar_obs_time": "2025-06-16 11:20:00",
    "taf": "TAF LTFJ 161040Z 1612/1712 27012KT 9999 SCT040 BECMG 1612/1615 02012KT CAVOK BECMG 1619/1622 VRB02KT BECMG 1709/1712 01012KT",
    "taf_obs_time": "2025-06-16 10:40:00",
    "fetched_at": "2025-06-16T11:55:16.207808Z"
  },
  "LTBA": {
    "icao": "LTBA",
    "metar": "LTBA 161120Z 24010KT 9999 SCT035 24/14 Q1016 RMK RWY23 24010KT",
    "metar_obs_time": "2025-06-16 11:20:00",
    "taf": "TAF LTBA 161040Z 1612/1712 21007KT CAVOK BECMG 1612/1615 04012KT BECMG 1618/1621 VRB02KT BECMG 1705/1708 21012KT",
    "taf_obs_time": "2025-06-16 10:40:00",
    "fetched_at": "2025-06-16T11:55:16.207808Z"
  },
  "LTBU": {
    "icao": "LTBU",
    "metar": "LTBU 161120Z 19007KT 140V230 CAVOK 26/11 Q1016 RMK RWY22 VRB05KT",
    "metar_obs_time": "2025-06-16 11:20:00",
    "taf": "TAF LTBU 161040Z 1612/1712 04010KT CAVOK BECMG 1616/1619 20007KT BECMG 1707/1710 01012KT",
    "taf_obs_time": "2025-06-16 10:40:00",
    "fetched_at": "2025-06-16T11:55:16.207808Z"
  }
}