{
  "LTFM": {
    "icao": "LTFM",
    "metar": "LTFM 021220Z 03009KT 350V050 CAVOK 23/09 Q1020 NOSIG RMK RWY17L 01008KT RWY34L 03008KT RWY16R 01008KT RWY36 02009KT 330V050 RWY18 02007KT 340V040",
    "metar_obs_time": "2025-06-02 12:20:00",
    "taf": "TAF LTFM 021040Z 0212/0318 04010KT CAVOK BECMG 0216/0219 15005KT BECMG 0305/0308 05010KT",
    "taf_obs_time": "2025-06-02 10:40:00",
    "fetched_at": "2025-06-02T12:37:49.778291Z"
  },
  "LTFJ": {
    "icao": "LTFJ",
    "metar": "LTFJ 021220Z 24011KT 9999 FEW040 24/14 Q1019 NOSIG RMK RWY24R 24010KT RWY06R 21012KT RWY24L 21010KT",
    "metar_obs_time": "2025-06-02 12:20:00",
    "taf": "TAF LTFJ 021040Z 0212/0312 24009KT 9999 SCT030 BECMG 0212/0215 02012KT CAVOK BECMG 0308/0311 24009KT",
    "taf_obs_time": "2025-06-02 10:40:00",
    "fetched_at": "2025-06-02T12:37:49.778291Z"
  },
  "LTBA": {
    "icao": "LTBA",
    "metar": "LTBA 021220Z 23010KT CAVOK 21/14 Q1019 RMK RWY23 23011KT",
    "metar_obs_time": "2025-06-02 12:20:00",
    "taf": "TAF LTBA 021040Z 0212/0312 26007KT 9999 FEW035 BECMG 0212/0215 03010KT CAVOK BECMG 0305/0308 19008KT",
    "taf_obs_time": "2025-06-02 10:40:00",
    "fetched_at": "2025-06-02T12:37:49.778291Z"
  },
  "LTBU": {
    "icao": "LTBU",
    "metar": "LTBU 021220Z 19007KT 130V240 9999 SCT040 26/11 Q1019 RMK RWY22 15004KT 100V220",
    "metar_obs_time": "2025-06-02 12:20:00",
    "taf": "TAF LTBU 021040Z 0212/0312 17012KT 9999 SCT040 BECMG 0212/0215 04012KT CAVOK BECMG 0217/0220 VRB02KT BECMG 0308/0311 18012KT",
    "taf_obs_time": "2025-06-02 10:40:00",
    "fetched_at": "2025-06-02T12:37:49.778291Z"
  }
}