{
  "LTFM": {
    "icao": "LTFM",
    "metar": "LTFM 131450Z 06016KT CAVOK 23/16 Q1018 NOSIG RMK RWY17L 05015KT RWY34L 04014KT RWY16R 04016KT RWY36 06017KT 020V080 RWY18 05015KT",
    "metar_obs_time": "2025-06-13 14:50:00",
    "taf": "TAF LTFM 131040Z 1312/1418 05018KT CAVOK BECMG 1316/1319 06008KT BECMG 1405/1408 03018KT SCT025 BECMG 1415/1418 VRB02KT",
    "taf_obs_time": "2025-06-13 10:40:00",
    "fetched_at": "2025-06-13T15:19:35.147029Z"
  },
  "LTFJ": {
    "icao": "LTFJ",
    "metar": "LTFJ 131450Z 05019KT CAVOK 25/14 Q1016 NOSIG RMK RWY24R 06016KT RWY06R 05020G30KT RWY24L 05019KT",
    "metar_obs_time": "2025-06-13 14:50:00",
    "taf": "TAF LTFJ 131040Z 1312/1412 06017KT 9999 FEW035 TEMPO 1312/1316 06020G30KT BECMG 1313/1315 CAVOK BECMG 1318/1321 04007KT TEMPO 1400/1404 SCT008 BECMG 1406/1409 04017KT SCT040",
    "taf_obs_time": "2025-06-13 10:40:00",
    "fetched_at": "2025-06-13T15:19:35.147029Z"
  },
  "LTBA": {
    "icao": "LTBA",
    "metar": "LTBA 131450Z 03017KT 360V060 CAVOK 25/14 Q1017 RMK RWY23 04016KT 010V070",
    "metar_obs_time": "2025-06-13 14:50:00",
    "taf": "TAF LTBA 131040Z 1312/1412 04018KT CAVOK BECMG 1316/1319 05008KT BECMG 1405/1408 SCT040",
    "taf_obs_time": "2025-06-13 10:40:00",
    "fetched_at": "2025-06-13T15:19:35.147029Z"
  },
  "LTBU": {
    "icao": "LTBU",
    "metar": "LTBU 131450Z 04016KT CAVOK 24/13 Q1018 RMK RWY22 05014KT",
    "metar_obs_time": "2025-06-13 14:50:00",
    "taf": "TAF LTBU 131040Z 1312/1412 05016KT 9999 SCT025 BECMG 1312/1314 CAVOK BECMG 1316/1319 03006KT BECMG 1404/1407 04016KT SCT040",
    "taf_obs_time": "2025-06-13 10:40:00",
    "fetched_at": "2025-06-13T15:19:35.147029Z"
  }
}