{
  "LTFM": {
    "icao": "LTFM",
    "metar": "LTFM 150950Z 01011KT 320V020 9999 SCT027 22/13 Q1019 NOSIG RMK RWY17L 35011KT RWY34L 36011KT 310V020 RWY16R 36012KT RWY36 36012KT 320V030 RWY18 36011KT 330V040",
    "metar_obs_time": "2025-06-15 09:50:00",
    "taf": "TAF LTFM 150440Z 1506/1612 01014KT 9999 SCT028 BECMG 1512/1515 CAVOK BECMG 1516/1519 VRB02KT BECMG 1605/1608 01012KT",
    "taf_obs_time": "2025-06-15 04:40:00",
    "fetched_at": "2025-06-15T10:21:06.671658Z"
  },
  "LTFJ": {
    "icao": "LTFJ",
    "metar": "LTFJ 150950Z 24009KT 9999 SCT030 23/15 Q1017 NOSIG RMK RWY24R VRB05KT RWY06R 22008KT RWY24L 03006KT 310V110",
    "metar_obs_time": "2025-06-15 09:50:00",
    "taf": "TAF LTFJ 150440Z 1506/1606 04005KT 9999 SCT035 BECMG 1509/1512 04015KT PROB30 TEMPO 1509/1512 -SHRA BKN030 BECMG 1512/1514 CAVOK BECMG 1517/1520 04005KT",
    "taf_obs_time": "2025-06-15 04:40:00",
    "fetched_at": "2025-06-15T10:21:06.671658Z"
  },
  "LTBA": {
    "icao": "LTBA",
    "metar": "LTBA 150950Z 20007KT 170V230 9999 SCT035 23/16 Q1018 RMK RWY23 22007KT",
    "metar_obs_time": "2025-06-15 09:50:00",
    "taf": "TAF LTBA 150440Z 1506/1606 01015KT 9999 SCT032 BECMG 1511/1514 CAVOK BECMG 1516/1519 VRB02KT",
    "taf_obs_time": "2025-06-15 04:40:00",
    "fetched_at": "2025-06-15T10:21:06.671658Z"
  },
  "LTBU": {
    "icao": "LTBU",
    "metar": "LTBU 150950Z 03010KT 340V060 9999 SCT035 25/09 Q1018 RMK RWY22 02009KT 310V080",
    "metar_obs_time": "2025-06-15 09:50:00",
    "taf": "TAF LTBU 150440Z 1506/1606 04015KT 9999 SCT032 BECMG 1511/1514 CAVOK BECMG 1516/1519 VRB02KT",
    "taf_obs_time": "2025-06-15 04:40:00",
    "fetched_at": "2025-06-15T10:21:06.671658Z"
  }
}