{
  "LTFM": {
    "icao": "LTFM",
    "metar": "LTFM 190150Z 04006KT 360V060 9999 SCT009 21/19 Q1019 NOSIG RMK RWY17L 06003KT RWY34L 03005KT RWY16R 04003KT RWY36 04004KT RWY18 05004KT",
    "metar_obs_time": "2025-06-19 01:50:00",
    "taf": "TAF LTFM 182240Z 1900/2006 VRB02KT 9999 SCT018 BECMG 1900/1902 BKN004 TEMPO 1900/1903 1400 BCFG BECMG 1903/1905 SCT014 BECMG 1905/1907 05012KT CAVOK BECMG 1917/1920 VRB02KT",
    "taf_obs_time": "2025-06-18 22:40:00",
    "fetched_at": "2025-06-19T02:09:55.427189Z"
  },
  "LTFJ": {
    "icao": "LTFJ",
    "metar": "LTFJ 190150Z 04007KT 7000 0550NE R06L/P1500N R24R/0650D R06R/P1500D R24L/0550N PRFG SCT002 19/18 Q1018 NOSIG",
    "metar_obs_time": "2025-06-19 01:50:00",
    "taf": "TAF LTFJ 182240Z 1900/1924 04005KT CAVOK TEMPO 1901/1905 2500 BCFG SCT008 BECMG 1905/1909 04015KT BECMG 1917/1921 04005KT",
    "taf_obs_time": "2025-06-18 22:40:00",
    "fetched_at": "2025-06-19T02:09:55.427189Z"
  },
  "LTBA": {
    "icao": "LTBA",
    "metar": "LTBA 190150Z 04007KT CAVOK 22/17 Q1018 RMK RWY23 04005KT",
    "metar_obs_time": "2025-06-19 01:50:00",
    "taf": "TAF LTBA 182240Z 1900/1924 04005KT CAVOK BECMG 1900/1902 SCT022 BECMG 1905/1908 04015KT CAVOK BECMG 1917/1920 05005KT",
    "taf_obs_time": "2025-06-18 22:40:00",
    "fetched_at": "2025-06-19T02:09:55.427189Z"
  },
  "LTBU": {
    "icao": "LTBU",
    "metar": "LTBU 190150Z 05009KT CAVOK 19/18 Q1018 RMK RWY22 04007KT",
    "metar_obs_time": "2025-06-19 01:50:00",
    "taf": "TAF LTBU 182240Z 1900/1924 02005KT 9999 SCT022 TEMPO 1900/1904 2500 BCFG BKN006 BECMG 1906/1909 05015KT CAVOK BECMG 1916/1918 VRB02KT",
    "taf_obs_time": "2025-06-18 22:40:00",
    "fetched_at": "2025-06-19T02:09:55.427189Z"
  }
}