{
  "LTFM": {
    "icao": "LTFM",
    "metar": "LTFM 131550Z 06015KT CAVOK 23/16 Q1018 NOSIG RMK RWY17L 06014KT RWY34L 04014KT RWY16R 05015KT RWY36 06015KT RWY18 06014KT",
    "metar_obs_time": "2025-06-13 15:50:00",
    "taf": "TAF LTFM 131040Z 1312/1418 05018KT CAVOK BECMG 1316/1319 06008KT BECMG 1405/1408 03018KT SCT025 BECMG 1415/1418 VRB02KT",
    "taf_obs_time": "2025-06-13 10:40:00",
    "fetched_at": "2025-06-13T16:23:11.838682Z"
  },
  "LTFJ": {
    "icao": "LTFJ",
    "metar": "LTFJ 131550Z 05020KT CAVOK 23/12 Q1017 NOSIG RMK RWY24R 05016KT RWY06R 04021KT RWY24L 04017KT",
    "metar_obs_time": "2025-06-13 15:50:00",
    "taf": "TAF LTFJ 131040Z 1312/1412 06017KT 9999 FEW035 TEMPO 1312/1316 06020G30KT BECMG 1313/1315 CAVOK BECMG 1318/1321 04007KT TEMPO 1400/1404 SCT008 BECMG 1406/1409 04017KT SCT040",
    "taf_obs_time": "2025-06-13 10:40:00",
    "fetched_at": "2025-06-13T16:23:11.838682Z"
  },
  "LTBA": {
    "icao": "LTBA",
    "metar": "LTBA 131550Z 03015KT CAVOK 24/14 Q1017 RMK RWY23 04016KT",
    "metar_obs_time": "2025-06-13 15:50:00",
    "taf": "TAF LTBA 131040Z 1312/1412 04018KT CAVOK BECMG 1316/1319 05008KT BECMG 1405/1408 SCT040",
    "taf_obs_time": "2025-06-13 10:40:00",
    "fetched_at": "2025-06-13T16:23:11.838682Z"
  },
  "LTBU": {
    "icao": "LTBU",
    "metar": "LTBU 131550Z 06013KT CAVOK 23/13 Q1018 RMK RWY22 07011KT",
    "metar_obs_time": "2025-06-13 15:50:00",
    "taf": "TAF LTBU 131040Z 1312/1412 05016KT 9999 SCT025 BECMG 1312/1314 CAVOK BECMG 1316/1319 03006KT BECMG 1404/1407 04016KT SCT040",
    "taf_obs_time": "2025-06-13 10:40:00",
    "fetched_at": "2025-06-13T16:23:11.838682Z"
  }
}