{
  "LTFM": {
    "icao": "LTFM",
    "metar": "LTFM 012250Z 32008KT 9999 FEW009 17/12 Q1019 NOSIG RMK RWY17L 29006KT RWY34L 30007KT RWY16R 28004KT RWY36 31007KT 260V350 RWY18 29005KT 270V020",
    "metar_obs_time": "2025-06-01 22:50:00",
    "taf": "TAF LTFM 012240Z 0200/0306 33007KT 9999 SCT008 TEMPO 0200/0204 1200 BCFG BKN002 BECMG 0204/0207 03010KT BECMG 0210/0213 CAVOK BECMG 0217/0220 13005KT",
    "taf_obs_time": "2025-06-01 22:40:00",
    "fetched_at": "2025-06-01T23:22:50.436351Z"
  },
  "LTFJ": {
    "icao": "LTFJ",
    "metar": "LTFJ 012250Z 03008KT 9999 BKN012 17/14 Q1018 NOSIG RMK RWY24R 03007KT RWY06R 01008KT RWY24L 01006KT",
    "metar_obs_time": "2025-06-01 22:50:00",
    "taf": "TAF LTFJ 012240Z 0200/0224 03009KT 9999 BKN012 TEMPO 0200/0203 4000 BR BKN006 PROB30 0203/0205 1200 BCFG BKN004 BECMG 0205/0208 SCT035 BECMG 0210/0214 CAVOK",
    "taf_obs_time": "2025-06-01 22:40:00",
    "fetched_at": "2025-06-01T23:22:50.436351Z"
  },
  "LTBA": {
    "icao": "LTBA",
    "metar": "LTBA 012250Z 35003KT 320V020 CAVOK 17/13 Q1018 RMK RWY23 02005KT",
    "metar_obs_time": "2025-06-01 22:50:00",
    "taf": "TAF LTBA 012240Z 0200/0224 VRB02KT 9999 SCT008 TEMPO 0200/0204 1200 BCFG BKN003 BECMG 0210/0213 02012KT CAVOK",
    "taf_obs_time": "2025-06-01 22:40:00",
    "fetched_at": "2025-06-01T23:22:50.436351Z"
  },
  "LTBU": {
    "icao": "LTBU",
    "metar": "LTBU 012250Z 34007KT CAVOK 15/07 Q1019 RMK RWY22 34006KT",
    "metar_obs_time": "2025-06-01 22:50:00",
    "taf": "TAF LTBU 012240Z 0200/0224 35007KT CAVOK BECMG 0205/0208 16010KT SCT040 BECMG 0210/0213 05012KT BECMG 0216/0219 VRB02KT CAVOK",
    "taf_obs_time": "2025-06-01 22:40:00",
    "fetched_at": "2025-06-01T23:22:50.436351Z"
  }
}