{
  "LTFM": {
    "icao": "LTFM",
    "metar": "LTFM 030550Z 20004KT 150V250 CAVOK 24/09 Q1020 NOSIG RMK RWY17L 28003KT 210V330 RWY34L 14003KT 100V170 RWY16R 28003KT 230V330 RWY36 VRB03KT RWY18 VRB02KT",
    "metar_obs_time": "2025-06-03 05:50:00",
    "taf": "TAF LTFM 030440Z 0306/0412 VRB02KT CAVOK BECMG 0306/0309 06012KT BECMG 0316/0319 18005KT BECMG 0407/0410 05010KT",
    "taf_obs_time": "2025-06-03 04:40:00",
    "fetched_at": "2025-06-03T06:28:53.404448Z"
  },
  "LTFJ": {
    "icao": "LTFJ",
    "metar": "LTFJ 030550Z VRB02KT CAVOK 21/10 Q1020 NOSIG RMK RWY24R VRB01KT RWY06R 00000KT RWY24L 25003KT 200V290",
    "metar_obs_time": "2025-06-03 05:50:00",
    "taf": "TAF LTFJ 030440Z 0306/0406 24009KT CAVOK BECMG 0311/0315 03012KT BECMG 0316/0318 VRB02KT",
    "taf_obs_time": "2025-06-03 04:40:00",
    "fetched_at": "2025-06-03T06:28:53.404448Z"
  },
  "LTBA": {
    "icao": "LTBA",
    "metar": "LTBA 030550Z 18004KT 140V220 CAVOK 20/14 Q1020 RMK RWY23 19004KT 160V220",
    "metar_obs_time": "2025-06-03 05:50:00",
    "taf": "TAF LTBA 030440Z 0306/0406 VRB02KT CAVOK BECMG 0307/0310 21012KT BECMG 0313/0316 VRB02KT",
    "taf_obs_time": "2025-06-03 04:40:00",
    "fetched_at": "2025-06-03T06:28:53.404448Z"
  },
  "LTBU": {
    "icao": "LTBU",
    "metar": "LTBU 030550Z VRB02KT CAVOK 23/09 Q1020 RMK RWY22 VRB02KT",
    "metar_obs_time": "2025-06-03 05:50:00",
    "taf": "TAF LTBU 030440Z 0306/0406 VRB02KT CAVOK BECMG 0307/0310 17012KT BECMG 0316/0319 VRB02KT",
    "taf_obs_time": "2025-06-03 04:40:00",
    "fetched_at": "2025-06-03T06:28:53.404448Z"
  }
}