{
  "LTFM": {
    "icao": "LTFM",
    "metar": "LTFM 191420Z 06010KT 040V100 CAVOK 26/14 Q1016 NOSIG RMK RWY17L 08009KT RWY34L 06010KT 030V090 RWY16R 06010KT RWY36 06010KT 020V090 RWY18 05010KT",
    "metar_obs_time": "2025-06-19 14:20:00",
    "taf": "TAF LTFM 191040Z 1912/2018 07012KT CAVOK BECMG 1917/1919 13006KT BECMG 1923/2001 21010KT BECMG 2006/2009 02015KT SCT016 BECMG 2012/2015 BKN008",
    "taf_obs_time": "2025-06-19 10:40:00",
    "fetched_at": "2025-06-19T14:51:40.629605Z"
  },
  "LTFJ": {
    "icao": "LTFJ",
    "metar": "LTFJ 191420Z 03013KT CAVOK 28/11 Q1015 NOSIG RMK RWY24R 05012KT RWY06R 03013KT 350V050 RWY24L 05014KT",
    "metar_obs_time": "2025-06-19 14:20:00",
    "taf": "TAF LTFJ 191040Z 1912/2012 04015KT CAVOK BECMG 1919/1922 05005KT BECMG 2004/2007 24010KT SCT035 BECMG 2009/2012 02013KT CAVOK",
    "taf_obs_time": "2025-06-19 10:40:00",
    "fetched_at": "2025-06-19T14:51:40.629605Z"
  },
  "LTBA": {
    "icao": "LTBA",
    "metar": "LTBA 191420Z 05014KT 020V080 CAVOK 29/10 Q1015 RMK RWY23 05012KT 010V080",
    "metar_obs_time": "2025-06-19 14:20:00",
    "taf": "TAF LTBA 191040Z 1912/2012 04015KT CAVOK BECMG 1917/1920 04005KT BECMG 2003/2006 20010KT BECMG 2010/2012 02015KT",
    "taf_obs_time": "2025-06-19 10:40:00",
    "fetched_at": "2025-06-19T14:51:40.629605Z"
  },
  "LTBU": {
    "icao": "LTBU",
    "metar": "LTBU 191420Z 05011KT CAVOK 30/11 Q1015 RMK RWY22 07010KT 040V120",
    "metar_obs_time": "2025-06-19 14:20:00",
    "taf": "TAF LTBU 191040Z 1912/2012 06012KT CAVOK BECMG 1917/1920 34006KT BECMG 2006/2009 04012KT SCT022 TEMPO 2009/2012 -SHRA FEW018CB BKN022",
    "taf_obs_time": "2025-06-19 10:40:00",
    "fetched_at": "2025-06-19T14:51:40.629605Z"
  }
}