{
  "LTFM": {
    "icao": "LTFM",
    "metar": "LTFM 031720Z 15007KT CAVOK 25/10 Q1018 NOSIG RMK RWY17L 10004KT RWY34L 16006KT 120V180 RWY16R 08005KT RWY36 12005KT 040V150 RWY18 13004KT 090V150",
    "metar_obs_time": "2025-06-03 17:20:00",
    "taf": "TAF LTFM 031640Z 0318/0424 10010KT CAVOK BECMG 0318/0320 18006KT BECMG 0407/0410 07012KT BECMG 0418/0420 VRB02KT",
    "taf_obs_time": "2025-06-03 16:40:00",
    "fetched_at": "2025-06-03T17:38:31.270171Z"
  },
  "LTFJ": {
    "icao": "LTFJ",
    "metar": "LTFJ 031720Z 05009KT CAVOK 23/10 Q1018 NOSIG RMK RWY24R 04005KT RWY06R 03009KT RWY24L 04006KT",
    "metar_obs_time": "2025-06-03 17:20:00",
    "taf": "TAF LTFJ 031640Z 0318/0418 05006KT CAVOK BECMG 0405/0408 23010KT BECMG 0409/0412 03009KT SCT040 BECMG 0413/0416 CAVOK",
    "taf_obs_time": "2025-06-03 16:40:00",
    "fetched_at": "2025-06-03T17:38:31.270171Z"
  },
  "LTBA": {
    "icao": "LTBA",
    "metar": "LTBA 031720Z VRB01KT CAVOK 24/11 Q1017 RMK RWY23 VRB02KT",
    "metar_obs_time": "2025-06-03 17:20:00",
    "taf": "TAF LTBA 031640Z 0318/0418 05005KT CAVOK BECMG 0406/0409 22010KT BECMG 0416/0418 05007KT",
    "taf_obs_time": "2025-06-03 16:40:00",
    "fetched_at": "2025-06-03T17:38:31.270171Z"
  },
  "LTBU": {
    "icao": "LTBU",
    "metar": "LTBU 031720Z 19004KT CAVOK 23/11 Q1018 RMK RWY22 21006KT",
    "metar_obs_time": "2025-06-03 17:20:00",
    "taf": "TAF LTBU 031640Z 0318/0418 VRB02KT CAVOK BECMG 0407/0410 17012KT FEW040 BECMG 0416/0418 VRB02KT CAVOK",
    "taf_obs_time": "2025-06-03 16:40:00",
    "fetched_at": "2025-06-03T17:38:31.270171Z"
  }
}