{
  "LTFM": {
    "icao": "LTFM",
    "metar": "LTFM 031620Z 12007KT CAVOK 26/08 Q1018 NOSIG RMK RWY17L 09006KT RWY34L 11006KT RWY16R 09007KT RWY36 08006KT 020V120 RWY18 08004KT",
    "metar_obs_time": "2025-06-03 16:20:00",
    "taf": "TAF LTFM 031040Z 0312/0418 06012KT CAVOK BECMG 0316/0319 18005KT BECMG 0407/0410 05010KT",
    "taf_obs_time": "2025-06-03 10:40:00",
    "fetched_at": "2025-06-03T16:35:45.220071Z"
  },
  "LTFJ": {
    "icao": "LTFJ",
    "metar": "LTFJ 031620Z 04010KT CAVOK 25/12 Q1018 NOSIG RMK RWY24R 05006KT 030V090 RWY06R 03010KT RWY24L 06008KT",
    "metar_obs_time": "2025-06-03 16:20:00",
    "taf": "TAF LTFJ 031040Z 0312/0412 23010KT CAVOK BECMG 0312/0315 04009KT BECMG 0405/0408 23010KT BECMG 0409/0412 04009KT",
    "taf_obs_time": "2025-06-03 10:40:00",
    "fetched_at": "2025-06-03T16:35:45.220071Z"
  },
  "LTBA": {
    "icao": "LTBA",
    "metar": "LTBA 031620Z VRB02KT CAVOK 26/13 Q1018 RMK RWY23 16003KT 130V200",
    "metar_obs_time": "2025-06-03 16:20:00",
    "taf": "TAF LTBA 031040Z 0312/0412 21010KT CAVOK BECMG 0312/0315 05008KT BECMG 0406/0409 21010KT",
    "taf_obs_time": "2025-06-03 10:40:00",
    "fetched_at": "2025-06-03T16:35:45.220071Z"
  },
  "LTBU": {
    "icao": "LTBU",
    "metar": "LTBU 031620Z 15006KT CAVOK 26/11 Q1018 RMK RWY22 16005KT",
    "metar_obs_time": "2025-06-03 16:20:00",
    "taf": "TAF LTBU 031040Z 0312/0412 VRB02KT CAVOK BECMG 0407/0410 17012KT",
    "taf_obs_time": "2025-06-03 10:40:00",
    "fetched_at": "2025-06-03T16:35:45.220071Z"
  }
}