{
  "LTFM": {
    "icao": "LTFM",
    "metar": "LTFM 141220Z 03014KT 350V060 9999 SCT027 22/14 Q1019 NOSIG RMK RWY17L 03013KT 360V060 RWY34L 03012KT 340V040 RWY16R 03013KT 350V050 RWY36 02014KT RWY18 04013KT 360V060",
    "metar_obs_time": "2025-06-14 12:20:00",
    "taf": "TAF LTFM 141040Z 1412/1518 04015KT 9999 SCT027 BECMG 1416/1419 VRB02KT BECMG 1504/1507 01014KT BKN020 PROB40 TEMPO 1505/1508 -SHRA FEW018TCU BKN022 BECMG 1508/1510 SCT032 BECMG 1515/1517 VRB02KT CAVOK",
    "taf_obs_time": "2025-06-14 10:40:00",
    "fetched_at": "2025-06-14T12:33:58.685666Z"
  },
  "LTFJ": {
    "icao": "LTFJ",
    "metar": "LTFJ 141220Z 02012KT 330V060 9999 SCT035 25/11 Q1018 NOSIG RMK RWY24R 05012KT 010V070 RWY06R 03014KT 360V060 RWY24L 01014KT 340V050",
    "metar_obs_time": "2025-06-14 12:20:00",
    "taf": "TAF LTFJ 141040Z 1412/1512 03015KT 9999 SCT035 BECMG 1415/1418 CAVOK BECMG 1418/1421 03005KT BECMG 1503/1506 SCT035 PROB30 TEMPO 1507/1510 -SHRA BKN035 BECMG 1509/1511 03015KT",
    "taf_obs_time": "2025-06-14 10:40:00",
    "fetched_at": "2025-06-14T12:33:58.685666Z"
  },
  "LTBA": {
    "icao": "LTBA",
    "metar": "LTBA 141220Z 02014KT 350V050 9999 SCT040 24/12 Q1018 RMK RWY23 01013KT",
    "metar_obs_time": "2025-06-14 12:20:00",
    "taf": "TAF LTBA 141040Z 1412/1512 05015KT CAVOK BECMG 1416/1419 02005KT BECMG 1501/1504 SCT032 BECMG 1504/1507 02015KT PROB40 TEMPO 1505/1509 -SHRA FEW020CB BKN025",
    "taf_obs_time": "2025-06-14 10:40:00",
    "fetched_at": "2025-06-14T12:33:58.685666Z"
  },
  "LTBU": {
    "icao": "LTBU",
    "metar": "LTBU 141220Z 03013KT 360V060 9999 SCT040 24/13 Q1018 RMK RWY22 04012KT 010V070",
    "metar_obs_time": "2025-06-14 12:20:00",
    "taf": "TAF LTBU 141040Z 1412/1512 04015KT 9999 SCT035 TEMPO 1412/1414 -SHRA FEW025TCU BKN030 BECMG 1414/1416 CAVOK BECMG 1418/1421 34007KT BECMG 1421/1424 FEW014 BKN070 BECMG 1506/1509 04014KT PROB30 TEMPO 1510/1512 -SHRA FEW025TCU SCT032",
    "taf_obs_time": "2025-06-14 10:40:00",
    "fetched_at": "2025-06-14T12:33:58.685666Z"
  }
}