{
  "LTFM": {
    "icao": "LTFM",
    "metar": "LTFM 092320Z 36011KT 320V020 8000 SCT003 21/20 Q1017 NOSIG RMK RWY17L 34010G22KT RWY34L 34009KT RWY16R 35006KT RWY36 36010KT RWY18 35009KT",
    "metar_obs_time": "2025-06-09 23:20:00",
    "taf": "TAF LTFM 092240Z 1000/1106 01009KT 9999 SCT008 TEMPO 1000/1002 2000 BCFG BKN002 BECMG 1005/1008 03018G28KT BKN011 BECMG 1012/1015 SCT022 BECMG 1015/1018 04013KT CAVOK BECMG 1020/1023 SCT008",
    "taf_obs_time": "2025-06-09 22:40:00",
    "fetched_at": "2025-06-09T23:46:29.311933Z"
  },
  "LTFJ": {
    "icao": "LTFJ",
    "metar": "LTFJ 092320Z 03006KT 9999 FEW009 19/17 Q1016 NOSIG RMK RWY24R 03005KT RWY06R 02007KT RWY24L 03005KT",
    "metar_obs_time": "2025-06-09 23:20:00",
    "taf": "TAF LTFJ 092240Z 1000/1024 03007KT 9999 SCT012 PROB30 1003/1005 3500 BR BKN006 BECMG 1005/1007 CAVOK BECMG 1007/1010 03018KT SCT025 TEMPO 1011/1015 03020G30KT BECMG 1015/1017 CAVOK BECMG 1019/1022 SCT012",
    "taf_obs_time": "2025-06-09 22:40:00",
    "fetched_at": "2025-06-09T23:46:29.311933Z"
  },
  "LTBA": {
    "icao": "LTBA",
    "metar": "LTBA 092320Z 03007KT 9999 FEW013 21/18 Q1016 RMK RWY23 02007KT",
    "metar_obs_time": "2025-06-09 23:20:00",
    "taf": "TAF LTBA 092240Z 1000/1024 03006KT CAVOK TEMPO 1000/1002 4000 BR SCT006 BECMG 1002/1005 03016KT BECMG 1006/1009 03019G29KT SCT030 BECMG 1015/1017 CAVOK BECMG 1017/1020 04013KT",
    "taf_obs_time": "2025-06-09 22:40:00",
    "fetched_at": "2025-06-09T23:46:29.311933Z"
  },
  "LTBU": {
    "icao": "LTBU",
    "metar": "LTBU 092320Z 02012KT CAVOK 19/17 Q1017 RMK RWY22 36009KT",
    "metar_obs_time": "2025-06-09 23:20:00",
    "taf": "TAF LTBU 092240Z 1000/1024 36009KT CAVOK BECMG 1005/1008 03022G32KT SCT025 BECMG 1015/1017 CAVOK BECMG 1017/1020 04013KT",
    "taf_obs_time": "2025-06-09 22:40:00",
    "fetched_at": "2025-06-09T23:46:29.311933Z"
  }
}