{
  "LTFM": {
    "icao": "LTFM",
    "metar": "LTFM 180650Z 03008KT 350V070 9999 FEW020 25/16 Q1019 NOSIG RMK RWY17L 03007KT 350V050 RWY34L 01008KT 330V050 RWY16R 35008KT 320V020 RWY36 04008KT 360V060 RWY18 04007KT 010V070",
    "metar_obs_time": "2025-06-18 06:50:00",
    "taf": "TAF LTFM 180440Z 1806/1912 03010KT CAVOK BECMG 1818/1821 09006KT SCT008 PROB30 TEMPO 1823/1903 2000 BCFG BKN004 BECMG 1905/1908 03010KT CAVOK",
    "taf_obs_time": "2025-06-18 04:40:00",
    "fetched_at": "2025-06-18T07:18:24.072354Z"
  },
  "LTFJ": {
    "icao": "LTFJ",
    "metar": "LTFJ 180650Z 05007KT 360V090 CAVOK 26/17 Q1019 NOSIG RMK RWY24R 04006KT 340V080 RWY06R 02007KT RWY24L 02007KT 350V050",
    "metar_obs_time": "2025-06-18 06:50:00",
    "taf": "TAF LTFJ 180440Z 1806/1906 04008KT CAVOK BECMG 1806/1808 24010KT BECMG 1810/1813 03016KT BECMG 1818/1821 04006KT PROB30 TEMPO 1901/1904 3500 PRFG",
    "taf_obs_time": "2025-06-18 04:40:00",
    "fetched_at": "2025-06-18T07:18:24.072354Z"
  },
  "LTBA": {
    "icao": "LTBA",
    "metar": "LTBA 180650Z 04012KT CAVOK 27/13 Q1019 RMK RWY23 03010KT 010V070",
    "metar_obs_time": "2025-06-18 06:50:00",
    "taf": "TAF LTBA 180440Z 1806/1906 04010KT CAVOK BECMG 1806/1808 19007KT BECMG 1808/1811 04013KT",
    "taf_obs_time": "2025-06-18 04:40:00",
    "fetched_at": "2025-06-18T07:18:24.072354Z"
  },
  "LTBU": {
    "icao": "LTBU",
    "metar": "LTBU 180650Z 05010KT 010V080 CAVOK 27/12 Q1019 RMK RWY22 05011KT 020V080",
    "metar_obs_time": "2025-06-18 06:50:00",
    "taf": "TAF LTBU 180440Z 1806/1906 04005KT CAVOK BECMG 1806/1808 04015KT BECMG 1816/1819 03005KT",
    "taf_obs_time": "2025-06-18 04:40:00",
    "fetched_at": "2025-06-18T07:18:24.072354Z"
  }
}