{
  "LTFM": {
    "icao": "LTFM",
    "metar": "LTFM 170420Z VRB03KT CAVOK 22/11 Q1017 NOSIG RMK RWY17L 27005KT RWY34L 17003KT 130V200 RWY16R 24004KT RWY36 20003KT 140V260 RWY18 VRB03G13KT",
    "metar_obs_time": "2025-06-17 04:20:00",
    "taf": "TAF LTFM 162240Z 1700/1806 22005KT CAVOK BECMG 1704/1707 35012KT BECMG 1715/1718 VRB02KT",
    "taf_obs_time": "2025-06-16 22:40:00",
    "fetched_at": "2025-06-17T04:53:52.928839Z"
  },
  "LTFJ": {
    "icao": "LTFJ",
    "metar": "LTFJ 170420Z 07004KT CAVOK 19/12 Q1017 NOSIG RMK RWY24R 09003KT RWY06R 07004KT RWY24L 04003KT",
    "metar_obs_time": "2025-06-17 04:20:00",
    "taf": "TAF LTFJ 162240Z 1700/1724 VRB02KT CAVOK BECMG 1709/1712 01012KT BECMG 1719/1722 VRB02KT",
    "taf_obs_time": "2025-06-16 22:40:00",
    "fetched_at": "2025-06-17T04:53:52.928839Z"
  },
  "LTBA": {
    "icao": "LTBA",
    "metar": "LTBA 170420Z 13003KT 090V150 CAVOK 21/16 Q1016 RMK RWY23 15004KT",
    "metar_obs_time": "2025-06-17 04:20:00",
    "taf": "TAF LTBA 162240Z 1700/1724 VRB02KT CAVOK BECMG 1705/1708 19012KT BECMG 1711/1714 03009KT",
    "taf_obs_time": "2025-06-16 22:40:00",
    "fetched_at": "2025-06-17T04:53:52.928839Z"
  },
  "LTBU": {
    "icao": "LTBU",
    "metar": "LTBU 170420Z 32005KT CAVOK 21/12 Q1017 RMK RWY22 34004KT",
    "metar_obs_time": "2025-06-17 04:20:00",
    "taf": "TAF LTBU 162240Z 1700/1724 VRB02KT CAVOK BECMG 1703/1706 35012KT BECMG 1709/1712 05009KT",
    "taf_obs_time": "2025-06-16 22:40:00",
    "fetched_at": "2025-06-17T04:53:52.928839Z"
  }
}