{
  "LTFM": {
    "icao": "LTFM",
    "metar": "LTFM 210920Z 05018KT 9999 FEW025 24/13 Q1019 NOSIG RMK RWY17L 05017KT RWY34L 03017KT RWY16R 04017KT RWY36 04019KT RWY18 05016KT",
    "metar_obs_time": "2025-06-21 09:20:00",
    "taf": "TAF LTFM 210440Z 2106/2212 04018KT 9999 SCT025 BECMG 2115/2118 CAVOK BECMG 2122/2201 SCT025",
    "taf_obs_time": "2025-06-21 04:40:00",
    "fetched_at": "2025-06-21T09:55:08.657417Z"
  },
  "LTFJ": {
    "icao": "LTFJ",
    "metar": "LTFJ 210920Z 04018KT 010V070 9999 FEW035 26/11 Q1017 NOSIG RMK RWY24R 07015KT 030V090 RWY06R 06015KT 030V090 RWY24L 05016KT 010V070",
    "metar_obs_time": "2025-06-21 09:20:00",
    "taf": "TAF LTFJ 210440Z 2106/2206 04019KT 9999 SCT035 BKN100 PROB40 TEMPO 2112/2116 04020G30KT BECMG 2116/2118 CAVOK BECMG 2118/2121 04009KT BECMG 2202/2205 SCT035",
    "taf_obs_time": "2025-06-21 04:40:00",
    "fetched_at": "2025-06-21T09:55:08.657417Z"
  },
  "LTBA": {
    "icao": "LTBA",
    "metar": "LTBA 210920Z 07016KT 030V090 CAVOK 26/11 Q1017 RMK RWY23 07015KT 020V120",
    "metar_obs_time": "2025-06-21 09:20:00",
    "taf": "TAF LTBA 210440Z 2106/2206 04018KT CAVOK BECMG 2116/2119 03008KT",
    "taf_obs_time": "2025-06-21 04:40:00",
    "fetched_at": "2025-06-21T09:55:08.657417Z"
  },
  "LTBU": {
    "icao": "LTBU",
    "metar": "LTBU 210934Z 05016G26KT 9999 FEW035 25/12 Q1018 RMK RWY22 05014KT 020V090",
    "metar_obs_time": "2025-06-21 09:34:00",
    "taf": "TAF LTBU 210440Z 2106/2206 04007KT 9999 FEW035 BKN080 BECMG 2106/2109 05018KT BECMG 2109/2112 CAVOK BECMG 2115/2118 02008KT BECMG 2200/2203 SCT035 BKN100",
    "taf_obs_time": "2025-06-21 04:40:00",
    "fetched_at": "2025-06-21T09:55:08.657417Z"
  }
}