{
  "LTFM": {
    "icao": "LTFM",
    "metar": "LTFM 161420Z 05008KT 360V090 CAVOK 25/11 Q1017 NOSIG RMK RWY17L 07007KT RWY34L 04008KT 360V070 RWY16R 05008KT 010V080 RWY36 05008KT 010V080 RWY18 06007KT",
    "metar_obs_time": "2025-06-16 14:20:00",
    "taf": "TAF LTFM 161040Z 1612/1718 03012KT CAVOK BECMG 1615/1618 VRB02KT PROB30 1701/1705 4000 BR SCT008 BECMG 1705/1708 01012KT",
    "taf_obs_time": "2025-06-16 10:40:00",
    "fetched_at": "2025-06-16T14:41:40.960148Z"
  },
  "LTFJ": {
    "icao": "LTFJ",
    "metar": "LTFJ 161420Z 02011KT 350V060 9999 FEW035 26/09 Q1016 NOSIG RMK RWY24R 05011KT 010V080 RWY06R 02011KT 350V060 RWY24L 02012KT 350V050",
    "metar_obs_time": "2025-06-16 14:20:00",
    "taf": "TAF LTFJ 161040Z 1612/1712 27012KT 9999 SCT040 BECMG 1612/1615 02012KT CAVOK BECMG 1619/1622 VRB02KT BECMG 1709/1712 01012KT",
    "taf_obs_time": "2025-06-16 10:40:00",
    "fetched_at": "2025-06-16T14:41:40.960148Z"
  },
  "LTBA": {
    "icao": "LTBA",
    "metar": "LTBA 161420Z 23006KT 190V260 CAVOK 25/15 Q1016 RMK RWY23 03007KT 320V080",
    "metar_obs_time": "2025-06-16 14:20:00",
    "taf": "TAF LTBA 161040Z 1612/1712 21007KT CAVOK BECMG 1612/1615 04012KT BECMG 1618/1621 VRB02KT BECMG 1705/1708 21012KT",
    "taf_obs_time": "2025-06-16 10:40:00",
    "fetched_at": "2025-06-16T14:41:40.960148Z"
  },
  "LTBU": {
    "icao": "LTBU",
    "metar": "LTBU 161420Z 18007KT 130V220 CAVOK 27/11 Q1016 RMK RWY22 16004KT 090V220",
    "metar_obs_time": "2025-06-16 14:20:00",
    "taf": "TAF LTBU 161040Z 1612/1712 04010KT CAVOK BECMG 1616/1619 20007KT BECMG 1707/1710 01012KT",
    "taf_obs_time": "2025-06-16 10:40:00",
    "fetched_at": "2025-06-16T14:41:40.960148Z"
  }
}