{
  "LTFM": {
    "icao": "LTFM",
    "metar": "LTFM 151020Z 01011KT 340V040 9999 SCT027 23/14 Q1018 NOSIG RMK RWY17L 36011KT 330V030 RWY34L 35012KT 300V020 RWY16R 01012KT RWY36 01012KT 330V030 RWY18 01012KT 330V030",
    "metar_obs_time": "2025-06-15 10:20:00",
    "taf": "TAF LTFM 150440Z 1506/1612 01014KT 9999 SCT028 BECMG 1512/1515 CAVOK BECMG 1516/1519 VRB02KT BECMG 1605/1608 01012KT",
    "taf_obs_time": "2025-06-15 04:40:00",
    "fetched_at": "2025-06-15T10:44:24.941451Z"
  },
  "LTFJ": {
    "icao": "LTFJ",
    "metar": "LTFJ 151020Z 24008KT 210V270 9999 SCT030 23/14 Q1017 NOSIG RMK RWY24R VRB04KT RWY06R 23008KT RWY24L 27007KT 250V310",
    "metar_obs_time": "2025-06-15 10:20:00",
    "taf": "TAF LTFJ 150440Z 1506/1606 04005KT 9999 SCT035 BECMG 1509/1512 04015KT PROB30 TEMPO 1509/1512 -SHRA BKN030 BECMG 1512/1514 CAVOK BECMG 1517/1520 04005KT",
    "taf_obs_time": "2025-06-15 04:40:00",
    "fetched_at": "2025-06-15T10:44:24.941451Z"
  },
  "LTBA": {
    "icao": "LTBA",
    "metar": "LTBA 151020Z 21007KT 170V250 9999 SCT035 23/16 Q1017 RMK RWY23 VRB06KT",
    "metar_obs_time": "2025-06-15 10:20:00",
    "taf": "TAF LTBA 150440Z 1506/1606 01015KT 9999 SCT032 BECMG 1511/1514 CAVOK BECMG 1516/1519 VRB02KT",
    "taf_obs_time": "2025-06-15 04:40:00",
    "fetched_at": "2025-06-15T10:44:24.941451Z"
  },
  "LTBU": {
    "icao": "LTBU",
    "metar": "LTBU 151020Z 34012KT 310V020 9999 SCT035 25/10 Q1018 RMK RWY22 05010KT 360V100",
    "metar_obs_time": "2025-06-15 10:20:00",
    "taf": "TAF LTBU 150440Z 1506/1606 04015KT 9999 SCT032 BECMG 1511/1514 CAVOK BECMG 1516/1519 VRB02KT",
    "taf_obs_time": "2025-06-15 04:40:00",
    "fetched_at": "2025-06-15T10:44:24.941451Z"
  }
}