{
  "LTFM": {
    "icao": "LTFM",
    "metar": "LTFM 191220Z 06011KT 020V080 CAVOK 26/16 Q1017 NOSIG RMK RWY17L 06009KT 030V100 RWY34L 05010KT RWY16R 07011KT 030V090 RWY36 06011KT 020V090 RWY18 06010KT 030V090",
    "metar_obs_time": "2025-06-19 12:20:00",
    "taf": "TAF LTFM 191040Z 1912/2018 07012KT CAVOK BECMG 1917/1919 13006KT BECMG 1923/2001 21010KT BECMG 2006/2009 02015KT SCT016 BECMG 2012/2015 BKN008",
    "taf_obs_time": "2025-06-19 10:40:00",
    "fetched_at": "2025-06-19T12:54:56.870517Z"
  },
  "LTFJ": {
    "icao": "LTFJ",
    "metar": "LTFJ 191220Z 04015KT 360V070 CAVOK 29/12 Q1016 NOSIG RMK RWY24R 07011KT 030V090 RWY06R 04014KT 010V070 RWY24L 03014KT",
    "metar_obs_time": "2025-06-19 12:20:00",
    "taf": "TAF LTFJ 191040Z 1912/2012 04015KT CAVOK BECMG 1919/1922 05005KT BECMG 2004/2007 24010KT SCT035 BECMG 2009/2012 02013KT CAVOK",
    "taf_obs_time": "2025-06-19 10:40:00",
    "fetched_at": "2025-06-19T12:54:56.870517Z"
  },
  "LTBA": {
    "icao": "LTBA",
    "metar": "LTBA 191220Z 02013KT CAVOK 30/11 Q1016 RMK RWY23 04012KT 360V080",
    "metar_obs_time": "2025-06-19 12:20:00",
    "taf": "TAF LTBA 191040Z 1912/2012 04015KT CAVOK BECMG 1917/1920 04005KT BECMG 2003/2006 20010KT BECMG 2010/2012 02015KT",
    "taf_obs_time": "2025-06-19 10:40:00",
    "fetched_at": "2025-06-19T12:54:56.870517Z"
  },
  "LTBU": {
    "icao": "LTBU",
    "metar": "LTBU 191220Z 02010G20KT 320V070 CAVOK 31/13 Q1016 RMK RWY22 04011KT 360V090",
    "metar_obs_time": "2025-06-19 12:20:00",
    "taf": "TAF LTBU 191040Z 1912/2012 06012KT CAVOK BECMG 1917/1920 34006KT BECMG 2006/2009 04012KT SCT022 TEMPO 2009/2012 -SHRA FEW018CB BKN022",
    "taf_obs_time": "2025-06-19 10:40:00",
    "fetched_at": "2025-06-19T12:54:56.870517Z"
  }
}