{
  "LTFM": {
    "icao": "LTFM",
    "metar": "LTFM 171520Z 07008KT 020V130 CAVOK 27/12 Q1017 NOSIG RMK RWY17L 08009KT RWY34L 06008KT 030V090 RWY16R 07009KT RWY36 06009KT 010V080 RWY18 09008KT",
    "metar_obs_time": "2025-06-17 15:20:00",
    "taf": "TAF LTFM 171040Z 1712/1818 04012KT CAVOK BECMG 1715/1718 VRB02KT BECMG 1721/1724 SCT008 PROB30 TEMPO 1800/1803 2000 BCFG BKN004 BECMG 1804/1806 02012KT CAVOK BECMG 1815/1818 08007KT SCT008",
    "taf_obs_time": "2025-06-17 10:40:00",
    "fetched_at": "2025-06-17T15:56:31.633768Z"
  },
  "LTFJ": {
    "icao": "LTFJ",
    "metar": "LTFJ 171520Z 04012KT 360V060 CAVOK 28/12 Q1017 NOSIG RMK RWY24R 05010KT 010V070 RWY06R 03012KT 350V060 RWY24L 03012KT 350V050",
    "metar_obs_time": "2025-06-17 15:20:00",
    "taf": "TAF LTFJ 171040Z 1712/1812 24009KT CAVOK BECMG 1712/1714 04012KT BECMG 1718/1721 VRB02KT",
    "taf_obs_time": "2025-06-17 10:40:00",
    "fetched_at": "2025-06-17T15:56:31.633768Z"
  },
  "LTBA": {
    "icao": "LTBA",
    "metar": "LTBA 171520Z 25007KT CAVOK 27/13 Q1016 RMK RWY23 24007KT",
    "metar_obs_time": "2025-06-17 15:20:00",
    "taf": "TAF LTBA 171040Z 1712/1812 23007KT CAVOK BECMG 1713/1716 04012KT BECMG 1805/1808 18007KT",
    "taf_obs_time": "2025-06-17 10:40:00",
    "fetched_at": "2025-06-17T15:56:31.633768Z"
  },
  "LTBU": {
    "icao": "LTBU",
    "metar": "LTBU 171520Z 13007KT 100V170 CAVOK 28/11 Q1016 RMK RWY22 12006KT 050V170",
    "metar_obs_time": "2025-06-17 15:20:00",
    "taf": "TAF LTBU 171040Z 1712/1812 16007KT 9999 SCT040 BECMG 1712/1715 CAVOK BECMG 1715/1718 35010KT BECMG 1804/1807 05012KT",
    "taf_obs_time": "2025-06-17 10:40:00",
    "fetched_at": "2025-06-17T15:56:31.633768Z"
  }
}