{
  "LTFM": {
    "icao": "LTFM",
    "metar": "LTFM 060720Z 05014KT 9999 BKN010 22/18 Q1018 NOSIG RMK RWY17L 04013KT RWY34L 03013KT RWY16R 04013KT RWY36 04014KT RWY18 05013KT",
    "metar_obs_time": "2025-06-06 07:20:00",
    "taf": "TAF LTFM 060440Z 0606/0712 05015G25KT 9999 BKN014 BECMG 0606/0608 SCT016 BECMG 0608/0611 CAVOK BECMG 0616/0619 05009KT SCT006 BECMG 0621/0624 BKN006 BECMG 0706/0710 03017G27KT SCT012",
    "taf_obs_time": "2025-06-06 04:40:00",
    "fetched_at": "2025-06-06T07:54:56.580162Z"
  },
  "LTFJ": {
    "icao": "LTFJ",
    "metar": "LTFJ 060720Z 04011KT 360V060 CAVOK 25/18 Q1017 NOSIG RMK RWY24R 05010KT 020V090 RWY06R 04012KT RWY24L 04011KT 360V070",
    "metar_obs_time": "2025-06-06 07:20:00",
    "taf": "TAF LTFJ 060440Z 0606/0706 03018KT CAVOK BECMG 0617/0620 04008KT BECMG 0620/0624 BKN006 PROB30 TEMPO 0700/0703 2500 BCFG BKN004 BECMG 0703/0706 BKN012",
    "taf_obs_time": "2025-06-06 04:40:00",
    "fetched_at": "2025-06-06T07:54:56.580162Z"
  },
  "LTBA": {
    "icao": "LTBA",
    "metar": "LTBA 060720Z 04011KT 010V070 CAVOK 26/17 Q1017 RMK RWY23 06011KT 030V090",
    "metar_obs_time": "2025-06-06 07:20:00",
    "taf": "TAF LTBA 060440Z 0606/0706 04013KT 9999 SCT011 BECMG 0607/0611 04017G27KT CAVOK BECMG 0616/0620 03009KT SCT008 PROB30 TEMPO 0621/0624 4000 BR BKN006",
    "taf_obs_time": "2025-06-06 04:40:00",
    "fetched_at": "2025-06-06T07:54:56.580162Z"
  },
  "LTBU": {
    "icao": "LTBU",
    "metar": "LTBU 060720Z 03014KT CAVOK 25/18 Q1018 RMK RWY22 05012KT 020V080",
    "metar_obs_time": "2025-06-06 07:20:00",
    "taf": "TAF LTBU 060440Z 0606/0706 04015G25KT CAVOK BECMG 0616/0620 02007KT SCT008 PROB30 0621/0624 4000 BR BKN006",
    "taf_obs_time": "2025-06-06 04:40:00",
    "fetched_at": "2025-06-06T07:54:56.580162Z"
  }
}