{
  "LTFM": {
    "icao": "LTFM",
    "metar": "LTFM 200920Z 34018KT 9999 FEW016 BKN080 26/19 Q1015 NOSIG RMK RWY17L 33018KT RWY34L 33018KT RWY16R 32015KT 290V350 RWY36 33017KT RWY18 33018KT",
    "metar_obs_time": "2025-06-20 09:20:00",
    "taf": "TAF LTFM 200440Z 2006/2112 23006KT CAVOK BECMG 2006/2009 34013KT SCT016 BECMG 2013/2016 04015KT BKN008 BECMG 2018/2021 SCT016",
    "taf_obs_time": "2025-06-20 04:40:00",
    "fetched_at": "2025-06-20T09:50:07.786774Z"
  },
  "LTFJ": {
    "icao": "LTFJ",
    "metar": "LTFJ 200920Z 23008KT 190V270 9999 FEW035 28/14 Q1013 NOSIG RMK RWY24R 23009KT RWY06R 22009KT RWY24L 22009KT",
    "metar_obs_time": "2025-06-20 09:20:00",
    "taf": "TAF LTFJ 200440Z 2006/2106 24007KT 9999 FEW035 BECMG 2009/2013 03012KT BECMG 2018/2022 BKN035 TEMPO 2023/2102 -SHRA",
    "taf_obs_time": "2025-06-20 04:40:00",
    "fetched_at": "2025-06-20T09:50:07.786774Z"
  },
  "LTBA": {
    "icao": "LTBA",
    "metar": "LTBA 200920Z 23009KT CAVOK 25/19 Q1014 RMK RWY23 23009KT",
    "metar_obs_time": "2025-06-20 09:20:00",
    "taf": "TAF LTBA 200440Z 2006/2106 20006KT CAVOK BECMG 2009/2012 02015KT SCT016 BECMG 2015/2018 BKN009 BECMG 2022/2101 SCT016",
    "taf_obs_time": "2025-06-20 04:40:00",
    "fetched_at": "2025-06-20T09:50:07.786774Z"
  },
  "LTBU": {
    "icao": "LTBU",
    "metar": "LTBU 200920Z 09010KT 050V120 9999 SCT045 31/16 Q1014 RMK RWY22 06012KT 040V100",
    "metar_obs_time": "2025-06-20 09:20:00",
    "taf": "TAF LTBU 200440Z 2006/2106 VRB02KT CAVOK BECMG 2008/2011 03015KT SCT022 TEMPO 2011/2015 03016G26KT -SHRA FEW018CB BKN022 BECMG 2020/2023 03005KT",
    "taf_obs_time": "2025-06-20 04:40:00",
    "fetched_at": "2025-06-20T09:50:07.786774Z"
  }
}