{
  "LTFM": {
    "icao": "LTFM",
    "metar": "LTFM 191050Z 07011KT 030V090 CAVOK 26/16 Q1018 NOSIG RMK RWY17L 05009KT 020V090 RWY34L 06010KT 020V080 RWY16R 05010KT 020V080 RWY36 05011KT RWY18 05010KT 020V080",
    "metar_obs_time": "2025-06-19 10:50:00",
    "taf": "TAF LTFM 191040Z 1912/2018 07012KT CAVOK BECMG 1917/1919 13006KT BECMG 1923/2001 21010KT BECMG 2006/2009 02015KT SCT016 BECMG 2012/2015 BKN008",
    "taf_obs_time": "2025-06-19 10:40:00",
    "fetched_at": "2025-06-19T11:20:43.705404Z"
  },
  "LTFJ": {
    "icao": "LTFJ",
    "metar": "LTFJ 191050Z 06014KT 010V080 CAVOK 29/13 Q1016 NOSIG RMK RWY24R 05012KT 020V080 RWY06R 04013KT 010V070 RWY24L 04012KT 010V080",
    "metar_obs_time": "2025-06-19 10:50:00",
    "taf": "TAF LTFJ 191040Z 1912/2012 04015KT CAVOK BECMG 1919/1922 05005KT BECMG 2004/2007 24010KT SCT035 BECMG 2009/2012 02013KT CAVOK",
    "taf_obs_time": "2025-06-19 10:40:00",
    "fetched_at": "2025-06-19T11:20:43.705404Z"
  },
  "LTBA": {
    "icao": "LTBA",
    "metar": "LTBA 191050Z 03014KT CAVOK 29/12 Q1017 RMK RWY23 04011KT 360V070",
    "metar_obs_time": "2025-06-19 10:50:00",
    "taf": "TAF LTBA 191040Z 1912/2012 04015KT CAVOK BECMG 1917/1920 04005KT BECMG 2003/2006 20010KT BECMG 2010/2012 02015KT",
    "taf_obs_time": "2025-06-19 10:40:00",
    "fetched_at": "2025-06-19T11:20:43.705404Z"
  },
  "LTBU": {
    "icao": "LTBU",
    "metar": "LTBU 191050Z 05010KT 010V100 CAVOK 31/13 Q1017 RMK RWY22 04008KT 360V100",
    "metar_obs_time": "2025-06-19 10:50:00",
    "taf": "TAF LTBU 191040Z 1912/2012 06012KT CAVOK BECMG 1917/1920 34006KT BECMG 2006/2009 04012KT SCT022 TEMPO 2009/2012 -SHRA FEW018CB BKN022",
    "taf_obs_time": "2025-06-19 10:40:00",
    "fetched_at": "2025-06-19T11:20:43.705404Z"
  }
}