{
  "LTFM": {
    "icao": "LTFM",
    "metar": "LTFM 022120Z VRB02KT CAVOK 19/10 Q1020 NOSIG RMK RWY17L 31003KT RWY34L VRB01KT RWY16R 00000KT RWY36 VRB02KT RWY18 13001KT",
    "metar_obs_time": "2025-06-02 21:20:00",
    "taf": "TAF LTFM 021640Z 0218/0324 VRB02KT CAVOK BECMG 0305/0308 06012KT BECMG 0316/0319 19007KT",
    "taf_obs_time": "2025-06-02 16:40:00",
    "fetched_at": "2025-06-02T21:47:03.051875Z"
  },
  "LTFJ": {
    "icao": "LTFJ",
    "metar": "LTFJ 022120Z 03004KT 350V060 CAVOK 19/13 Q1020 NOSIG RMK RWY24R 01005KT RWY06R 05004KT 010V090 RWY24L 03003KT",
    "metar_obs_time": "2025-06-02 21:20:00",
    "taf": "TAF LTFJ 021640Z 0218/0318 03007KT CAVOK BECMG 0304/0307 24010KT BECMG 0309/0312 02010KT",
    "taf_obs_time": "2025-06-02 16:40:00",
    "fetched_at": "2025-06-02T21:47:03.051875Z"
  },
  "LTBA": {
    "icao": "LTBA",
    "metar": "LTBA 022120Z 01004KT CAVOK 20/10 Q1020 RMK RWY23 02005KT",
    "metar_obs_time": "2025-06-02 21:20:00",
    "taf": "TAF LTBA 021640Z 0218/0318 04008KT CAVOK BECMG 0306/0309 21010KT BECMG 0313/0316 05007KT",
    "taf_obs_time": "2025-06-02 16:40:00",
    "fetched_at": "2025-06-02T21:47:03.051875Z"
  },
  "LTBU": {
    "icao": "LTBU",
    "metar": "LTBU 022120Z 32004KT CAVOK 14/10 Q1020 RMK RWY22 02003KT",
    "metar_obs_time": "2025-06-02 21:20:00",
    "taf": "TAF LTBU 021640Z 0218/0318 VRB02KT CAVOK BECMG 0308/0311 17012KT BECMG 0315/0318 VRB02KT",
    "taf_obs_time": "2025-06-02 16:40:00",
    "fetched_at": "2025-06-02T21:47:03.051875Z"
  }
}