{
  "LTFM": {
    "icao": "LTFM",
    "metar": "LTFM 160420Z 31005KT 280V350 CAVOK 20/10 Q1017 NOSIG RMK RWY17L 27005KT RWY34L 30005KT RWY16R 25004KT 220V280 RWY36 32004KT 280V020 RWY18 27005KT 250V350",
    "metar_obs_time": "2025-06-16 04:20:00",
    "taf": "TAF LTFM 152240Z 1600/1706 27007KT CAVOK TEMPO 1601/1605 FEW032 BECMG 1605/1607 01012KT BECMG 1616/1618 11007KT",
    "taf_obs_time": "2025-06-15 22:40:00",
    "fetched_at": "2025-06-16T04:43:56.213419Z"
  },
  "LTFJ": {
    "icao": "LTFJ",
    "metar": "LTFJ 160420Z 07004KT CAVOK 18/13 Q1017 NOSIG RMK RWY24R VRB02KT RWY06R 07003KT RWY24L 05004KT",
    "metar_obs_time": "2025-06-16 04:20:00",
    "taf": "TAF LTFJ 152240Z 1600/1624 VRB02KT CAVOK BECMG 1609/1612 03012KT SCT035 BECMG 1612/1615 CAVOK BECMG 1615/1618 VRB02KT",
    "taf_obs_time": "2025-06-15 22:40:00",
    "fetched_at": "2025-06-16T04:43:56.213419Z"
  },
  "LTBA": {
    "icao": "LTBA",
    "metar": "LTBA 160420Z 00000KT CAVOK 20/13 Q1017 RMK RWY23 00000KT",
    "metar_obs_time": "2025-06-16 04:20:00",
    "taf": "TAF LTBA 152240Z 1600/1624 03005KT CAVOK BECMG 1605/1607 19010KT FEW032 BECMG 1610/1612 02008KT CAVOK",
    "taf_obs_time": "2025-06-15 22:40:00",
    "fetched_at": "2025-06-16T04:43:56.213419Z"
  },
  "LTBU": {
    "icao": "LTBU",
    "metar": "LTBU 160420Z 32011KT CAVOK 19/10 Q1017 RMK RWY22 32010KT",
    "metar_obs_time": "2025-06-16 04:20:00",
    "taf": "TAF LTBU 152240Z 1600/1624 33007KT CAVOK BECMG 1606/1608 03012KT FEW032 BECMG 1615/1618 VRB02KT CAVOK",
    "taf_obs_time": "2025-06-15 22:40:00",
    "fetched_at": "2025-06-16T04:43:56.213419Z"
  }
}