{
  "LTFM": {
    "icao": "LTFM",
    "metar": "LTFM 171720Z 12007KT CAVOK 25/11 Q1017 NOSIG RMK RWY17L 12004KT RWY34L 10007KT RWY16R 11006KT RWY36 12005KT 050V130 RWY18 13004KT",
    "metar_obs_time": "2025-06-17 17:20:00",
    "taf": "TAF LTFM 171640Z 1718/1824 07010KT CAVOK BECMG 1720/1723 30006KT SCT008 PROB30 TEMPO 1800/1803 2000 BCFG BKN004 BECMG 1804/1806 02012KT CAVOK BECMG 1816/1819 08007KT SCT008 BECMG 1819/1822 BKN004 PROB40 TEMPO 1822/1824 2000 BCFG",
    "taf_obs_time": "2025-06-17 16:40:00",
    "fetched_at": "2025-06-17T17:38:06.084390Z"
  },
  "LTFJ": {
    "icao": "LTFJ",
    "metar": "LTFJ 171720Z 04011KT CAVOK 25/12 Q1017 NOSIG RMK RWY24R 04008KT RWY06R 03010KT RWY24L 03008KT",
    "metar_obs_time": "2025-06-17 17:20:00",
    "taf": "TAF LTFJ 171640Z 1718/1818 06006KT CAVOK BECMG 1806/1810 04016KT TEMPO 1810/1814 04016G26KT TEMPO 1814/1818 04016G26KT",
    "taf_obs_time": "2025-06-17 16:40:00",
    "fetched_at": "2025-06-17T17:38:06.084390Z"
  },
  "LTBA": {
    "icao": "LTBA",
    "metar": "LTBA 171720Z 05010KT 030V090 CAVOK 27/11 Q1016 RMK RWY23 05009KT",
    "metar_obs_time": "2025-06-17 17:20:00",
    "taf": "TAF LTBA 171640Z 1718/1818 03009KT CAVOK",
    "taf_obs_time": "2025-06-17 16:40:00",
    "fetched_at": "2025-06-17T17:38:06.084390Z"
  },
  "LTBU": {
    "icao": "LTBU",
    "metar": "LTBU 171720Z 14004KT CAVOK 25/10 Q1017 RMK RWY22 16003KT 140V200",
    "metar_obs_time": "2025-06-17 17:20:00",
    "taf": "TAF LTBU 171640Z 1718/1818 36007KT CAVOK BECMG 1804/1807 06012KT",
    "taf_obs_time": "2025-06-17 16:40:00",
    "fetched_at": "2025-06-17T17:38:06.084390Z"
  }
}