{
  "LTFM": {
    "icao": "LTFM",
    "metar": "LTFM 130320Z 03012KT 9999 BKN010 21/18 Q1017 NOSIG",
    "metar_obs_time": "2025-06-13 03:20:00",
    "taf": "TAF LTFM 122240Z 1300/1406 04012KT 9999 BKN008 TEMPO 1300/1303 4000 BR BKN004 BECMG 1304/1307 SCT012 BECMG 1307/1310 04022KT CAVOK BECMG 1315/1318 05012KT",
    "taf_obs_time": "2025-06-12 22:40:00",
    "fetched_at": "2025-06-13T03:30:39.984676Z"
  },
  "LTFJ": {
    "icao": "LTFJ",
    "metar": "LTFJ 130320Z 04010KT 7000 SCT016 19/18 Q1016 NOSIG",
    "metar_obs_time": "2025-06-13 03:20:00",
    "taf": "TAF AMD LTFJ 130219Z 1302/1324 04009KT 9999 SCT020 BECMG 1306/1309 04019KT CAVOK BECMG 1317/1320 04009KT",
    "taf_obs_time": "2025-06-13 02:19:00",
    "fetched_at": "2025-06-13T03:30:39.984676Z"
  },
  "LTBA": {
    "icao": "LTBA",
    "metar": "LTBA 130320Z 04011KT CAVOK 21/18 Q1016",
    "metar_obs_time": "2025-06-13 03:20:00",
    "taf": "TAF LTBA 122240Z 1300/1324 04009KT CAVOK BECMG 1300/1303 SCT012 PROB30 TEMPO 1303/1306 3200 BR BKN006 BECMG 1306/1309 04019KT CAVOK",
    "taf_obs_time": "2025-06-12 22:40:00",
    "fetched_at": "2025-06-13T03:30:39.984676Z"
  },
  "LTBU": {
    "icao": "LTBU",
    "metar": "LTBU 130320Z 02010KT CAVOK 18/16 Q1017",
    "metar_obs_time": "2025-06-13 03:20:00",
    "taf": "TAF LTBU 122240Z 1300/1324 04012KT CAVOK BECMG 1300/1303 SCT012 PROB30 1303/1306 2200 BCFG BKN008 BECMG 1306/1309 04015G25KT CAVOK",
    "taf_obs_time": "2025-06-12 22:40:00",
    "fetched_at": "2025-06-13T03:30:39.984676Z"
  }
}