{
  "LTFM": {
    "icao": "LTFM",
    "metar": "LTFM 190650Z 05009KT 010V070 9999 SCT011 24/18 Q1019 NOSIG RMK RWY17L 04007KT 360V070 RWY34L 05007KT 350V100 RWY16R 04008KT RWY36 04008KT 360V070 RWY18 05006KT 360V070",
    "metar_obs_time": "2025-06-19 06:50:00",
    "taf": "TAF LTFM 190440Z 1906/2012 05012KT 9999 SCT011 BECMG 1910/1913 CAVOK BECMG 1917/1920 VRB02KT BECMG 2006/2009 36012KT SCT016",
    "taf_obs_time": "2025-06-19 04:40:00",
    "fetched_at": "2025-06-19T07:17:53.087656Z"
  },
  "LTFJ": {
    "icao": "LTFJ",
    "metar": "LTFJ 190650Z 05010KT 010V070 CAVOK 25/16 Q1018 NOSIG RMK RWY24R 06009KT 020V090 RWY06R 05011KT 010V100 RWY24L 05010KT 010V070",
    "metar_obs_time": "2025-06-19 06:50:00",
    "taf": "TAF LTFJ 190440Z 1906/2006 04009KT 9999 SCT005 BECMG 1906/1908 CAVOK TEMPO 1911/1915 05015G25KT",
    "taf_obs_time": "2025-06-19 04:40:00",
    "fetched_at": "2025-06-19T07:17:53.087656Z"
  },
  "LTBA": {
    "icao": "LTBA",
    "metar": "LTBA 190650Z 07012KT CAVOK 27/13 Q1018 RMK RWY23 07012KT",
    "metar_obs_time": "2025-06-19 06:50:00",
    "taf": "TAF LTBA 190440Z 1906/2006 04012KT CAVOK BECMG 1919/1922 VRB02KT",
    "taf_obs_time": "2025-06-19 04:40:00",
    "fetched_at": "2025-06-19T07:17:53.087656Z"
  },
  "LTBU": {
    "icao": "LTBU",
    "metar": "LTBU 190650Z 07007KT 040V110 CAVOK 28/11 Q1018 RMK RWY22 10007KT 050V130",
    "metar_obs_time": "2025-06-19 06:50:00",
    "taf": "TAF LTBU 190440Z 1906/2006 06013KT CAVOK BECMG 1919/1922 VRB02KT",
    "taf_obs_time": "2025-06-19 04:40:00",
    "fetched_at": "2025-06-19T07:17:53.087656Z"
  }
}