{
  "LTFM": {
    "icao": "LTFM",
    "metar": "LTFM 030950Z 04010KT CAVOK 26/14 Q1019 NOSIG RMK RWY17L 06008KT RWY34L 05009KT RWY16R 06010KT RWY36 06010KT RWY18 05008KT",
    "metar_obs_time": "2025-06-03 09:50:00",
    "taf": "TAF LTFM 030440Z 0306/0412 VRB02KT CAVOK BECMG 0306/0309 06012KT BECMG 0316/0319 18005KT BECMG 0407/0410 05010KT",
    "taf_obs_time": "2025-06-03 04:40:00",
    "fetched_at": "2025-06-03T10:20:18.583134Z"
  },
  "LTFJ": {
    "icao": "LTFJ",
    "metar": "LTFJ 030950Z 23008KT 200V260 CAVOK 25/13 Q1019 NOSIG RMK RWY24R 24009KT RWY06R 21009KT RWY24L 23009KT",
    "metar_obs_time": "2025-06-03 09:50:00",
    "taf": "TAF LTFJ 030440Z 0306/0406 24009KT CAVOK BECMG 0311/0315 03012KT BECMG 0316/0318 VRB02KT",
    "taf_obs_time": "2025-06-03 04:40:00",
    "fetched_at": "2025-06-03T10:20:18.583134Z"
  },
  "LTBA": {
    "icao": "LTBA",
    "metar": "LTBA 030950Z 23008KT CAVOK 23/16 Q1019 RMK RWY23 23007KT",
    "metar_obs_time": "2025-06-03 09:50:00",
    "taf": "TAF LTBA 030440Z 0306/0406 VRB02KT CAVOK BECMG 0307/0310 21012KT BECMG 0313/0316 VRB02KT",
    "taf_obs_time": "2025-06-03 04:40:00",
    "fetched_at": "2025-06-03T10:20:18.583134Z"
  },
  "LTBU": {
    "icao": "LTBU",
    "metar": "LTBU 030950Z 16007KT 110V210 9999 FEW040 27/11 Q1019 RMK RWY22 VRB05KT",
    "metar_obs_time": "2025-06-03 09:50:00",
    "taf": "TAF LTBU 030440Z 0306/0406 VRB02KT CAVOK BECMG 0307/0310 17012KT BECMG 0316/0319 VRB02KT",
    "taf_obs_time": "2025-06-03 04:40:00",
    "fetched_at": "2025-06-03T10:20:18.583134Z"
  }
}