{
  "LTFM": {
    "icao": "LTFM",
    "metar": "LTFM 180720Z 04007KT 360V090 9999 FEW020 25/15 Q1019 NOSIG RMK RWY17L 03007KT 350V060 RWY34L 02007KT 330V070 RWY16R 36007KT 320V050 RWY36 04008KT RWY18 05007KT 020V080",
    "metar_obs_time": "2025-06-18 07:20:00",
    "taf": "TAF LTFM 180440Z 1806/1912 03010KT CAVOK BECMG 1818/1821 09006KT SCT008 PROB30 TEMPO 1823/1903 2000 BCFG BKN004 BECMG 1905/1908 03010KT CAVOK",
    "taf_obs_time": "2025-06-18 04:40:00",
    "fetched_at": "2025-06-18T07:58:26.772310Z"
  },
  "LTFJ": {
    "icao": "LTFJ",
    "metar": "LTFJ 180720Z 05007KT 010V100 CAVOK 26/14 Q1019 NOSIG RMK RWY24R VRB05KT RWY06R 03009KT RWY24L 04007KT 340V120",
    "metar_obs_time": "2025-06-18 07:20:00",
    "taf": "TAF LTFJ 180440Z 1806/1906 04008KT CAVOK BECMG 1806/1808 24010KT BECMG 1810/1813 03016KT BECMG 1818/1821 04006KT PROB30 TEMPO 1901/1904 3500 PRFG",
    "taf_obs_time": "2025-06-18 04:40:00",
    "fetched_at": "2025-06-18T07:58:26.772310Z"
  },
  "LTBA": {
    "icao": "LTBA",
    "metar": "LTBA 180720Z 06010KT 030V100 CAVOK 28/15 Q1018 RMK RWY23 05008KT 350V120",
    "metar_obs_time": "2025-06-18 07:20:00",
    "taf": "TAF LTBA 180440Z 1806/1906 04010KT CAVOK BECMG 1806/1808 19007KT BECMG 1808/1811 04013KT",
    "taf_obs_time": "2025-06-18 04:40:00",
    "fetched_at": "2025-06-18T07:58:26.772310Z"
  },
  "LTBU": {
    "icao": "LTBU",
    "metar": "LTBU 180720Z 06011KT 020V090 CAVOK 28/12 Q1019 RMK RWY22 07010KT",
    "metar_obs_time": "2025-06-18 07:20:00",
    "taf": "TAF LTBU 180440Z 1806/1906 04005KT CAVOK BECMG 1806/1808 04015KT BECMG 1816/1819 03005KT",
    "taf_obs_time": "2025-06-18 04:40:00",
    "fetched_at": "2025-06-18T07:58:26.772310Z"
  }
}