{
  "LTFM": {
    "icao": "LTFM",
    "metar": "LTFM 151350Z 01011KT CAVOK 22/14 Q1018 NOSIG RMK RWY17L 03010KT RWY34L 36011KT 320V030 RWY16R 01010KT 330V030 RWY36 01012KT RWY18 01010KT 330V040",
    "metar_obs_time": "2025-06-15 13:50:00",
    "taf": "TAF LTFM 151040Z 1512/1618 01012KT 9999 SCT028 BECMG 1512/1514 CAVOK BECMG 1518/1520 17007KT BECMG 1523/1601 25010KT TEMPO 1601/1605 FEW032 BECMG 1605/1607 01011KT",
    "taf_obs_time": "2025-06-15 10:40:00",
    "fetched_at": "2025-06-15T14:18:16.857197Z"
  },
  "LTFJ": {
    "icao": "LTFJ",
    "metar": "LTFJ 151350Z 03013KT 360V070 9999 SCT035 24/13 Q1017 NOSIG RMK RWY24R 03013KT 350V070 RWY06R 02014KT 340V040 RWY24L 01014KT",
    "metar_obs_time": "2025-06-15 13:50:00",
    "taf": "TAF LTFJ 151040Z 1512/1612 03012KT 9999 SCT035 BECMG 1514/1517 CAVOK BECMG 1520/1523 VRB02KT BECMG 1604/1607 24012KT SCT035 BECMG 1609/1612 03012KT",
    "taf_obs_time": "2025-06-15 10:40:00",
    "fetched_at": "2025-06-15T14:18:16.857197Z"
  },
  "LTBA": {
    "icao": "LTBA",
    "metar": "LTBA 151350Z 36012KT 330V030 9999 FEW045 25/10 Q1017 RMK RWY23 01013KT",
    "metar_obs_time": "2025-06-15 13:50:00",
    "taf": "TAF LTBA 151040Z 1512/1612 01015KT 9999 SCT032 BECMG 1512/1514 CAVOK BECMG 1516/1519 03005KT BECMG 1605/1608 18010KT SCT032",
    "taf_obs_time": "2025-06-15 10:40:00",
    "fetched_at": "2025-06-15T14:18:16.857197Z"
  },
  "LTBU": {
    "icao": "LTBU",
    "metar": "LTBU 151350Z 05014KT 9999 FEW040 25/07 Q1017 RMK RWY22 06013KT 030V090",
    "metar_obs_time": "2025-06-15 13:50:00",
    "taf": "TAF LTBU 151040Z 1512/1612 03015G25KT 9999 SCT032 BECMG 1512/1514 CAVOK BECMG 1516/1518 03007KT BECMG 1523/1601 33010KT BECMG 1606/1608 03008KT SCT032",
    "taf_obs_time": "2025-06-15 10:40:00",
    "fetched_at": "2025-06-15T14:18:16.857197Z"
  }
}