{
  "LTFM": {
    "icao": "LTFM",
    "metar": "LTFM 031250Z 05010KT CAVOK 26/12 Q1019 NOSIG RMK RWY17L 07010KT RWY34L 06010KT RWY16R 07010KT RWY36 06011KT 020V080 RWY18 07009KT",
    "metar_obs_time": "2025-06-03 12:50:00",
    "taf": "TAF LTFM 031040Z 0312/0418 06012KT CAVOK BECMG 0316/0319 18005KT BECMG 0407/0410 05010KT",
    "taf_obs_time": "2025-06-03 10:40:00",
    "fetched_at": "2025-06-03T13:20:37.402863Z"
  },
  "LTFJ": {
    "icao": "LTFJ",
    "metar": "LTFJ 031250Z 23009KT 9999 FEW040 27/13 Q1018 NOSIG RMK RWY24R VRB06KT RWY06R 22008KT 180V240 RWY24L 23007KT",
    "metar_obs_time": "2025-06-03 12:50:00",
    "taf": "TAF LTFJ 031040Z 0312/0412 23010KT CAVOK BECMG 0312/0315 04009KT BECMG 0405/0408 23010KT BECMG 0409/0412 04009KT",
    "taf_obs_time": "2025-06-03 10:40:00",
    "fetched_at": "2025-06-03T13:20:37.402863Z"
  },
  "LTBA": {
    "icao": "LTBA",
    "metar": "LTBA 031250Z 24008KT 9999 SCT045 25/14 Q1018 RMK RWY23 24008KT",
    "metar_obs_time": "2025-06-03 12:50:00",
    "taf": "TAF LTBA 031040Z 0312/0412 21010KT CAVOK BECMG 0312/0315 05008KT BECMG 0406/0409 21010KT",
    "taf_obs_time": "2025-06-03 10:40:00",
    "fetched_at": "2025-06-03T13:20:37.402863Z"
  },
  "LTBU": {
    "icao": "LTBU",
    "metar": "LTBU 031250Z 16006KT 100V230 9999 FEW040 28/11 Q1018 RMK RWY22 16006KT 090V230",
    "metar_obs_time": "2025-06-03 12:50:00",
    "taf": "TAF LTBU 031040Z 0312/0412 VRB02KT CAVOK BECMG 0407/0410 17012KT",
    "taf_obs_time": "2025-06-03 10:40:00",
    "fetched_at": "2025-06-03T13:20:37.402863Z"
  }
}