{
  "LTFM": {
    "icao": "LTFM",
    "metar": "LTFM 182320Z 05008KT 340V100 9999 SCT018 22/19 Q1019 NOSIG RMK RWY17L 06005KT RWY34L 03006KT RWY16R 06007KT RWY36 05007KT RWY18 06005KT",
    "metar_obs_time": "2025-06-18 23:20:00",
    "taf": "TAF LTFM 182240Z 1900/2006 VRB02KT 9999 SCT018 BECMG 1900/1902 BKN004 TEMPO 1900/1903 1400 BCFG BECMG 1903/1905 SCT014 BECMG 1905/1907 05012KT CAVOK BECMG 1917/1920 VRB02KT",
    "taf_obs_time": "2025-06-18 22:40:00",
    "fetched_at": "2025-06-18T23:33:13.699524Z"
  },
  "LTFJ": {
    "icao": "LTFJ",
    "metar": "LTFJ 182320Z 04007KT CAVOK 20/19 Q1018 NOSIG RMK RWY24R 03004KT RWY06R 03008KT RWY24L 04005KT",
    "metar_obs_time": "2025-06-18 23:20:00",
    "taf": "TAF LTFJ 182240Z 1900/1924 04005KT CAVOK TEMPO 1901/1905 2500 BCFG SCT008 BECMG 1905/1909 04015KT BECMG 1917/1921 04005KT",
    "taf_obs_time": "2025-06-18 22:40:00",
    "fetched_at": "2025-06-18T23:33:13.699524Z"
  },
  "LTBA": {
    "icao": "LTBA",
    "metar": "LTBA 182320Z 07006KT CAVOK 22/18 Q1018 RMK RWY23 06006KT",
    "metar_obs_time": "2025-06-18 23:20:00",
    "taf": "TAF LTBA 182240Z 1900/1924 04005KT CAVOK BECMG 1900/1902 SCT022 BECMG 1905/1908 04015KT CAVOK BECMG 1917/1920 05005KT",
    "taf_obs_time": "2025-06-18 22:40:00",
    "fetched_at": "2025-06-18T23:33:13.699524Z"
  },
  "LTBU": {
    "icao": "LTBU",
    "metar": "LTBU 182320Z 04008KT CAVOK 20/18 Q1019 RMK RWY22 02005KT",
    "metar_obs_time": "2025-06-18 23:20:00",
    "taf": "TAF LTBU 182240Z 1900/1924 02005KT 9999 SCT022 TEMPO 1900/1904 2500 BCFG BKN006 BECMG 1906/1909 05015KT CAVOK BECMG 1916/1918 VRB02KT",
    "taf_obs_time": "2025-06-18 22:40:00",
    "fetched_at": "2025-06-18T23:33:13.699524Z"
  }
}