{
  "LTFM": {
    "icao": "LTFM",
    "metar": "LTFM 200320Z 20006KT 170V260 CAVOK 21/09 Q1014 NOSIG RMK RWY17L 24003KT 130V270 RWY34L 22005KT RWY16R 23007KT RWY36 21007KT RWY18 22007KT 180V260",
    "metar_obs_time": "2025-06-20 03:20:00",
    "taf": "TAF LTFM 192240Z 2000/2106 21005KT CAVOK BECMG 2006/2009 03015KT SCT016 BECMG 2012/2015 BKN008 BECMG 2018/2020 SCT016 BECMG 2023/2101 CAVOK",
    "taf_obs_time": "2025-06-19 22:40:00",
    "fetched_at": "2025-06-20T03:53:09.292611Z"
  },
  "LTFJ": {
    "icao": "LTFJ",
    "metar": "LTFJ 200320Z 06002KT CAVOK 18/10 Q1014 NOSIG RMK RWY24R 08001KT RWY06R 04003KT RWY24L 04003KT",
    "metar_obs_time": "2025-06-20 03:20:00",
    "taf": "TAF LTFJ 192240Z 2000/2024 05007KT CAVOK BECMG 2004/2007 24010KT SCT035 BECMG 2010/2013 02015KT CAVOK BECMG 2015/2018 SCT012 BKN030 TEMPO 2016/2019 03017G27KT",
    "taf_obs_time": "2025-06-19 22:40:00",
    "fetched_at": "2025-06-20T03:53:09.292611Z"
  },
  "LTBA": {
    "icao": "LTBA",
    "metar": "LTBA 200320Z 18004KT CAVOK 21/14 Q1014 RMK RWY23 19004KT",
    "metar_obs_time": "2025-06-20 03:20:00",
    "taf": "TAF LTBA 192240Z 2000/2024 VRB02KT CAVOK BECMG 2010/2012 02015KT BECMG 2012/2015 SCT016 TEMPO 2016/2020 BKN009",
    "taf_obs_time": "2025-06-19 22:40:00",
    "fetched_at": "2025-06-20T03:53:09.292611Z"
  },
  "LTBU": {
    "icao": "LTBU",
    "metar": "LTBU 200320Z 00000KT CAVOK 21/11 Q1014 RMK RWY22 VRB01KT",
    "metar_obs_time": "2025-06-20 03:20:00",
    "taf": "TAF LTBU 192240Z 2000/2024 33006KT CAVOK BECMG 2008/2011 03016KT SCT022 TEMPO 2009/2012 -SHRA FEW018CB BKN022 BECMG 2020/2023 03006KT",
    "taf_obs_time": "2025-06-19 22:40:00",
    "fetched_at": "2025-06-20T03:53:09.292611Z"
  }
}