{
  "LTFM": {
    "icao": "LTFM",
    "metar": "LTFM 081320Z 01014KT 320V030 9999 SCT018 23/17 Q1015 NOSIG RMK RWY17L 01013KT RWY34L 35013KT RWY16R 36012KT RWY36 02014KT 330V030 RWY18 01011KT 330V030",
    "metar_obs_time": "2025-06-08 13:20:00",
    "taf": "TAF LTFM 081040Z 0812/0918 02015KT 9999 SCT018 BECMG 0818/0821 03005KT BKN012 PROB30 0901/0905 2500 BCFG BKN006 BECMG 0906/0909 36015KT SCT016 BECMG 0912/0915 CAVOK",
    "taf_obs_time": "2025-06-08 10:40:00",
    "fetched_at": "2025-06-08T13:58:07.696584Z"
  },
  "LTFJ": {
    "icao": "LTFJ",
    "metar": "LTFJ 081320Z 03010KT 350V060 CAVOK 26/17 Q1014 NOSIG RMK RWY24R 05010KT 010V090 RWY06R 03011KT 350V060 RWY24L 03010KT 350V070",
    "metar_obs_time": "2025-06-08 13:20:00",
    "taf": "TAF LTFJ 081040Z 0812/0912 23010KT CAVOK BECMG 0812/0815 02009KT BECMG 0819/0822 SCT012 PROB30 TEMPO 0901/0904 2500 BCFG BKN005 BECMG 0905/0907 CAVOK",
    "taf_obs_time": "2025-06-08 10:40:00",
    "fetched_at": "2025-06-08T13:58:07.696584Z"
  },
  "LTBA": {
    "icao": "LTBA",
    "metar": "LTBA 081320Z 02008KT 350V060 CAVOK 26/17 Q1014 RMK RWY23 36010KT 290V050",
    "metar_obs_time": "2025-06-08 13:20:00",
    "taf": "TAF LTBA 081040Z 0812/0912 22008KT CAVOK BECMG 0812/0815 02012KT SCT016 BECMG 0820/0823 BKN012 PROB40 0823/0903 2200 BCFG BKN004",
    "taf_obs_time": "2025-06-08 10:40:00",
    "fetched_at": "2025-06-08T13:58:07.696584Z"
  },
  "LTBU": {
    "icao": "LTBU",
    "metar": "LTBU 081320Z 05009KT 010V080 CAVOK 27/13 Q1014 RMK RWY22 05010KT 020V100",
    "metar_obs_time": "2025-06-08 13:20:00",
    "taf": "TAF LTBU 081040Z 0812/0912 03015KT CAVOK BECMG 0819/0822 01005KT SCT016 BECMG 0822/0824 BKN012 PROB40 0901/0905 2200 BCFG BKN006 BECMG 0905/0908 CAVOK",
    "taf_obs_time": "2025-06-08 10:40:00",
    "fetched_at": "2025-06-08T13:58:07.696584Z"
  }
}