{
  "LTFM": {
    "icao": "LTFM",
    "metar": "LTFM 021520Z 07008KT 030V100 CAVOK 22/08 Q1019 NOSIG RMK RWY17L 08007KT RWY34L 06007KT 020V080 RWY16R 07007KT RWY36 06007KT 020V080 RWY18 08007KT",
    "metar_obs_time": "2025-06-02 15:20:00",
    "taf": "TAF LTFM 021040Z 0212/0318 04010KT CAVOK BECMG 0216/0219 15005KT BECMG 0305/0308 05010KT",
    "taf_obs_time": "2025-06-02 10:40:00",
    "fetched_at": "2025-06-02T15:55:27.124049Z"
  },
  "LTFJ": {
    "icao": "LTFJ",
    "metar": "LTFJ 021520Z 05011KT CAVOK 23/11 Q1019 NOSIG RMK RWY24R 04010KT RWY06R 04011KT RWY24L 02010KT 320V040",
    "metar_obs_time": "2025-06-02 15:20:00",
    "taf": "TAF LTFJ 021040Z 0212/0312 24009KT 9999 SCT030 BECMG 0212/0215 02012KT CAVOK BECMG 0308/0311 24009KT",
    "taf_obs_time": "2025-06-02 10:40:00",
    "fetched_at": "2025-06-02T15:55:27.124049Z"
  },
  "LTBA": {
    "icao": "LTBA",
    "metar": "LTBA 021520Z 23005KT CAVOK 22/14 Q1019 RMK RWY23 24005KT",
    "metar_obs_time": "2025-06-02 15:20:00",
    "taf": "TAF LTBA 021040Z 0212/0312 26007KT 9999 FEW035 BECMG 0212/0215 03010KT CAVOK BECMG 0305/0308 19008KT",
    "taf_obs_time": "2025-06-02 10:40:00",
    "fetched_at": "2025-06-02T15:55:27.124049Z"
  },
  "LTBU": {
    "icao": "LTBU",
    "metar": "LTBU 021520Z 06007KT 030V100 9999 FEW040 26/10 Q1019 RMK RWY22 06007KT 020V090",
    "metar_obs_time": "2025-06-02 15:20:00",
    "taf": "TAF LTBU 021040Z 0212/0312 17012KT 9999 SCT040 BECMG 0212/0215 04012KT CAVOK BECMG 0217/0220 VRB02KT BECMG 0308/0311 18012KT",
    "taf_obs_time": "2025-06-02 10:40:00",
    "fetched_at": "2025-06-02T15:55:27.124049Z"
  }
}