{
  "LTFM": {
    "icao": "LTFM",
    "metar": "LTFM 071650Z 05015KT 9999 FEW016 SCT022 21/16 Q1017 NOSIG RMK RWY17L 05012KT RWY34L 04014KT RWY16R 04014KT RWY36 05014KT RWY18 05011KT",
    "metar_obs_time": "2025-06-07 16:50:00",
    "taf": "TAF LTFM 071640Z 0718/0824 04008KT 9999 FEW022 BECMG 0718/0720 CAVOK BECMG 0800/0803 BKN012 BECMG 0806/0809 04018KT BECMG 0811/0813 SCT012 BECMG 0816/0818 04008KT CAVOK",
    "taf_obs_time": "2025-06-07 16:40:00",
    "fetched_at": "2025-06-07T17:19:23.168091Z"
  },
  "LTFJ": {
    "icao": "LTFJ",
    "metar": "LTFJ 071650Z 04016KT CAVOK 20/16 Q1015 NOSIG RMK RWY24R 04011KT RWY06R 03017KT RWY24L 02013KT",
    "metar_obs_time": "2025-06-07 16:50:00",
    "taf": "TAF LTFJ 071640Z 0718/0818 04016KT CAVOK BECMG 0718/0721 05006KT SCT016 BECMG 0723/0802 BKN013 BECMG 0807/0810 03016KT CAVOK",
    "taf_obs_time": "2025-06-07 16:40:00",
    "fetched_at": "2025-06-07T17:19:23.168091Z"
  },
  "LTBA": {
    "icao": "LTBA",
    "metar": "LTBA 071650Z 03016KT 9999 SCT021 22/16 Q1015 RMK RWY23 02015KT",
    "metar_obs_time": "2025-06-07 16:50:00",
    "taf": "TAF LTBA 071640Z 0718/0818 03007KT 9999 FEW022 BECMG 0718/0720 CAVOK BECMG 0802/0804 SCT022 TEMPO 0805/0808 FEW012 BKN022 BECMG 0806/0809 03017KT CAVOK",
    "taf_obs_time": "2025-06-07 16:40:00",
    "fetched_at": "2025-06-07T17:19:23.168091Z"
  },
  "LTBU": {
    "icao": "LTBU",
    "metar": "LTBU 071650Z 03016KT CAVOK 21/15 Q1016 RMK RWY22 04012KT",
    "metar_obs_time": "2025-06-07 16:50:00",
    "taf": "TAF LTBU 071640Z 0718/0818 04006KT CAVOK BECMG 0800/0803 SCT012 TEMPO 0801/0805 4000 BR BKN009 BECMG 0806/0809 03016KT CAVOK",
    "taf_obs_time": "2025-06-07 16:40:00",
    "fetched_at": "2025-06-07T17:19:23.168091Z"
  }
}