{
  "LTFM": {
    "icao": "LTFM",
    "metar": "LTFM 161250Z 05010KT CAVOK 25/14 Q1017 NOSIG RMK RWY17L 02009KT 350V060 RWY34L 02009KT 340V060 RWY16R 03009KT RWY36 03011KT RWY18 03009KT",
    "metar_obs_time": "2025-06-16 12:50:00",
    "taf": "TAF LTFM 161040Z 1612/1718 03012KT CAVOK BECMG 1615/1618 VRB02KT PROB30 1701/1705 4000 BR SCT008 BECMG 1705/1708 01012KT",
    "taf_obs_time": "2025-06-16 10:40:00",
    "fetched_at": "2025-06-16T13:21:25.183228Z"
  },
  "LTFJ": {
    "icao": "LTFJ",
    "metar": "LTFJ 161250Z 03011KT 350V090 9999 FEW035 27/10 Q1016 NOSIG RMK RWY24R 04012KT 360V060 RWY06R 02012KT 350V060 RWY24L 01011KT 320V050",
    "metar_obs_time": "2025-06-16 12:50:00",
    "taf": "TAF LTFJ 161040Z 1612/1712 27012KT 9999 SCT040 BECMG 1612/1615 02012KT CAVOK BECMG 1619/1622 VRB02KT BECMG 1709/1712 01012KT",
    "taf_obs_time": "2025-06-16 10:40:00",
    "fetched_at": "2025-06-16T13:21:25.183228Z"
  },
  "LTBA": {
    "icao": "LTBA",
    "metar": "LTBA 161250Z 23008KT 9999 SCT035 25/15 Q1016 RMK RWY23 23007KT",
    "metar_obs_time": "2025-06-16 12:50:00",
    "taf": "TAF LTBA 161040Z 1612/1712 21007KT CAVOK BECMG 1612/1615 04012KT BECMG 1618/1621 VRB02KT BECMG 1705/1708 21012KT",
    "taf_obs_time": "2025-06-16 10:40:00",
    "fetched_at": "2025-06-16T13:21:25.183228Z"
  },
  "LTBU": {
    "icao": "LTBU",
    "metar": "LTBU 161250Z VRB05KT CAVOK 26/10 Q1016 RMK RWY22 12006KT 070V170",
    "metar_obs_time": "2025-06-16 12:50:00",
    "taf": "TAF LTBU 161040Z 1612/1712 04010KT CAVOK BECMG 1616/1619 20007KT BECMG 1707/1710 01012KT",
    "taf_obs_time": "2025-06-16 10:40:00",
    "fetched_at": "2025-06-16T13:21:25.183228Z"
  }
}