{
  "LTFM": {
    "icao": "LTFM",
    "metar": "LTFM 072150Z 05010KT 9999 SCT014 20/17 Q1016 NOSIG RMK RWY17L 06007KT RWY34L 03008KT RWY16R 04008KT RWY36 04008KT RWY18 06008KT",
    "metar_obs_time": "2025-06-07 21:50:00",
    "taf": "TAF LTFM 071640Z 0718/0824 04008KT 9999 FEW022 BECMG 0718/0720 CAVOK BECMG 0800/0803 BKN012 BECMG 0806/0809 04018KT BECMG 0811/0813 SCT012 BECMG 0816/0818 04008KT CAVOK",
    "taf_obs_time": "2025-06-07 16:40:00",
    "fetched_at": "2025-06-07T22:20:15.276828Z"
  },
  "LTFJ": {
    "icao": "LTFJ",
    "metar": "LTFJ 072150Z 04009KT CAVOK 19/16 Q1015 NOSIG RMK RWY24R 03006KT 360V060 RWY06R 03009KT RWY24L 01004KT",
    "metar_obs_time": "2025-06-07 21:50:00",
    "taf": "TAF LTFJ 071640Z 0718/0818 04016KT CAVOK BECMG 0718/0721 05006KT SCT016 BECMG 0723/0802 BKN013 BECMG 0807/0810 03016KT CAVOK",
    "taf_obs_time": "2025-06-07 16:40:00",
    "fetched_at": "2025-06-07T22:20:15.276828Z"
  },
  "LTBA": {
    "icao": "LTBA",
    "metar": "LTBA 072150Z 03008KT CAVOK 20/16 Q1015 RMK RWY23 04007KT",
    "metar_obs_time": "2025-06-07 21:50:00",
    "taf": "TAF LTBA 071640Z 0718/0818 03007KT 9999 FEW022 BECMG 0718/0720 CAVOK BECMG 0802/0804 SCT022 TEMPO 0805/0808 FEW012 BKN022 BECMG 0806/0809 03017KT CAVOK",
    "taf_obs_time": "2025-06-07 16:40:00",
    "fetched_at": "2025-06-07T22:20:15.276828Z"
  },
  "LTBU": {
    "icao": "LTBU",
    "metar": "LTBU 072150Z VRB01KT CAVOK 16/15 Q1016 RMK RWY22 03007KT",
    "metar_obs_time": "2025-06-07 21:50:00",
    "taf": "TAF LTBU 071640Z 0718/0818 04006KT CAVOK BECMG 0800/0803 SCT012 TEMPO 0801/0805 4000 BR BKN009 BECMG 0806/0809 03016KT CAVOK",
    "taf_obs_time": "2025-06-07 16:40:00",
    "fetched_at": "2025-06-07T22:20:15.276828Z"
  }
}