{
  "LTFM": {
    "icao": "LTFM",
    "metar": "LTFM 050620Z 02008KT 350V050 CAVOK 23/19 Q1019 NOSIG RMK RWY17L 02007KT RWY34L 01009KT 340V040 RWY16R 02007KT 350V050 RWY36 03009KT RWY18 03007KT",
    "metar_obs_time": "2025-06-05 06:20:00",
    "taf": "TAF LTFM 050440Z 0506/0612 34008KT CAVOK BECMG 0506/0508 05015G25KT BECMG 0517/0520 04008KT SCT025 PROB40 TEMPO 0520/0524 3200 BR BKN004 PROB30 TEMPO 0600/0604 3200 BR BKN004 BECMG 0604/0607 04015G25KT BECMG 0607/0610 CAVOK",
    "taf_obs_time": "2025-06-05 04:40:00",
    "fetched_at": "2025-06-05T06:53:35.444129Z"
  },
  "LTFJ": {
    "icao": "LTFJ",
    "metar": "LTFJ 050620Z 05010KT CAVOK 26/10 Q1018 NOSIG RMK RWY24R 04006KT 350V070 RWY06R 02009KT RWY24L 03007KT",
    "metar_obs_time": "2025-06-05 06:20:00",
    "taf": "TAF LTFJ 050440Z 0506/0606 05014KT CAVOK PROB30 TEMPO 0601/0605 2400 BCFG",
    "taf_obs_time": "2025-06-05 04:40:00",
    "fetched_at": "2025-06-05T06:53:35.444129Z"
  },
  "LTBA": {
    "icao": "LTBA",
    "metar": "LTBA 050620Z 04011KT CAVOK 27/09 Q1018 RMK RWY23 04011KT",
    "metar_obs_time": "2025-06-05 06:20:00",
    "taf": "TAF LTBA 050440Z 0506/0606 03008KT CAVOK BECMG 0506/0509 04015G25KT BECMG 0518/0521 03010KT SCT035",
    "taf_obs_time": "2025-06-05 04:40:00",
    "fetched_at": "2025-06-05T06:53:35.444129Z"
  },
  "LTBU": {
    "icao": "LTBU",
    "metar": "LTBU 050620Z 05013KT CAVOK 27/10 Q1019 RMK RWY22 06009KT 040V100",
    "metar_obs_time": "2025-06-05 06:20:00",
    "taf": "TAF LTBU 050440Z 0506/0606 03009KT CAVOK BECMG 0506/0509 06015G25KT BECMG 0515/0518 02008KT BECMG 0518/0521 SCT035 BECMG 0604/0606 04015G25KT",
    "taf_obs_time": "2025-06-05 04:40:00",
    "fetched_at": "2025-06-05T06:53:35.444129Z"
  }
}