{
  "LTFM": {
    "icao": "LTFM",
    "metar": "LTFM 040620Z 22008KT CAVOK 26/13 Q1019 NOSIG RMK RWY17L 25008KT 110V260 RWY34L 22008KT 180V310 RWY16R 23007KT RWY36 20007KT RWY18 22008KT 170V250",
    "metar_obs_time": "2025-06-04 06:20:00",
    "taf": "TAF LTFM 040440Z 0406/0512 20006KT CAVOK BECMG 0407/0410 05010KT BECMG 0417/0420 11010KT BECMG 0421/0424 31005KT FEW006 BECMG 0505/0507 05012KT CAVOK",
    "taf_obs_time": "2025-06-04 04:40:00",
    "fetched_at": "2025-06-04T06:51:27.157470Z"
  },
  "LTFJ": {
    "icao": "LTFJ",
    "metar": "LTFJ 040620Z 17004KT 130V210 CAVOK 24/14 Q1019 NOSIG RMK RWY24R VRB02KT RWY06R VRB01KT RWY24L 24003KT 180V290",
    "metar_obs_time": "2025-06-04 06:20:00",
    "taf": "TAF LTFJ 040440Z 0406/0506 23007KT CAVOK BECMG 0410/0412 03010KT",
    "taf_obs_time": "2025-06-04 04:40:00",
    "fetched_at": "2025-06-04T06:51:27.157470Z"
  },
  "LTBA": {
    "icao": "LTBA",
    "metar": "LTBA 040620Z 22005KT 180V240 CAVOK 22/17 Q1019 RMK RWY23 VRB04KT",
    "metar_obs_time": "2025-06-04 06:20:00",
    "taf": "TAF LTBA 040440Z 0406/0506 VRB02KT CAVOK BECMG 0407/0410 21012KT BECMG 0414/0417 01008KT",
    "taf_obs_time": "2025-06-04 04:40:00",
    "fetched_at": "2025-06-04T06:51:27.157470Z"
  },
  "LTBU": {
    "icao": "LTBU",
    "metar": "LTBU 040620Z VRB02KT CAVOK 25/13 Q1019 RMK RWY22 22003KT 140V270",
    "metar_obs_time": "2025-06-04 06:20:00",
    "taf": "TAF LTBU 040440Z 0406/0506 VRB02KT CAVOK BECMG 0407/0410 17012KT BECMG 0417/0420 01006KT",
    "taf_obs_time": "2025-06-04 04:40:00",
    "fetched_at": "2025-06-04T06:51:27.157470Z"
  }
}