{
  "LTFM": {
    "icao": "LTFM",
    "metar": "LTFM 021850Z 08005KT CAVOK 21/10 Q1020 NOSIG RMK RWY17L 07002KT RWY34L 06004KT RWY16R 04003KT 340V080 RWY36 09003KT 350V110 RWY18 VRB02KT",
    "metar_obs_time": "2025-06-02 18:50:00",
    "taf": "TAF LTFM 021640Z 0218/0324 VRB02KT CAVOK BECMG 0305/0308 06012KT BECMG 0316/0319 19007KT",
    "taf_obs_time": "2025-06-02 16:40:00",
    "fetched_at": "2025-06-02T19:14:18.125584Z"
  },
  "LTFJ": {
    "icao": "LTFJ",
    "metar": "LTFJ 021850Z 04007KT CAVOK 19/13 Q1020 NOSIG RMK RWY24R 03005KT 010V080 RWY06R 04008KT RWY24L 06005KT 020V090",
    "metar_obs_time": "2025-06-02 18:50:00",
    "taf": "TAF LTFJ 021640Z 0218/0318 03007KT CAVOK BECMG 0304/0307 24010KT BECMG 0309/0312 02010KT",
    "taf_obs_time": "2025-06-02 16:40:00",
    "fetched_at": "2025-06-02T19:14:18.125584Z"
  },
  "LTBA": {
    "icao": "LTBA",
    "metar": "LTBA 021850Z 07004KT CAVOK 21/11 Q1019 RMK RWY23 08004KT 060V120",
    "metar_obs_time": "2025-06-02 18:50:00",
    "taf": "TAF LTBA 021640Z 0218/0318 04008KT CAVOK BECMG 0306/0309 21010KT BECMG 0313/0316 05007KT",
    "taf_obs_time": "2025-06-02 16:40:00",
    "fetched_at": "2025-06-02T19:14:18.125584Z"
  },
  "LTBU": {
    "icao": "LTBU",
    "metar": "LTBU 021850Z 07004KT CAVOK 17/11 Q1020 RMK RWY22 09003KT",
    "metar_obs_time": "2025-06-02 18:50:00",
    "taf": "TAF LTBU 021640Z 0218/0318 VRB02KT CAVOK BECMG 0308/0311 17012KT BECMG 0315/0318 VRB02KT",
    "taf_obs_time": "2025-06-02 16:40:00",
    "fetched_at": "2025-06-02T19:14:18.125584Z"
  }
}