{
  "LTFM": {
    "icao": "LTFM",
    "metar": "LTFM 021620Z 07007KT CAVOK 22/08 Q1019 NOSIG RMK RWY17L 09006KT RWY34L 06006KT RWY16R 08006KT RWY36 06007KT 020V080 RWY18 09005KT",
    "metar_obs_time": "2025-06-02 16:20:00",
    "taf": "TAF LTFM 021040Z 0212/0318 04010KT CAVOK BECMG 0216/0219 15005KT BECMG 0305/0308 05010KT",
    "taf_obs_time": "2025-06-02 10:40:00",
    "fetched_at": "2025-06-02T16:50:31.443447Z"
  },
  "LTFJ": {
    "icao": "LTFJ",
    "metar": "LTFJ 021620Z 04010KT CAVOK 22/13 Q1019 NOSIG RMK RWY24R 04008KT RWY06R 02010KT RWY24L 03010KT",
    "metar_obs_time": "2025-06-02 16:20:00",
    "taf": "TAF LTFJ 021040Z 0212/0312 24009KT 9999 SCT030 BECMG 0212/0215 02012KT CAVOK BECMG 0308/0311 24009KT",
    "taf_obs_time": "2025-06-02 10:40:00",
    "fetched_at": "2025-06-02T16:50:31.443447Z"
  },
  "LTBA": {
    "icao": "LTBA",
    "metar": "LTBA 021620Z 24005KT 220V290 CAVOK 21/14 Q1019 RMK RWY23 VRB06KT",
    "metar_obs_time": "2025-06-02 16:20:00",
    "taf": "TAF LTBA 021040Z 0212/0312 26007KT 9999 FEW035 BECMG 0212/0215 03010KT CAVOK BECMG 0305/0308 19008KT",
    "taf_obs_time": "2025-06-02 10:40:00",
    "fetched_at": "2025-06-02T16:50:31.443447Z"
  },
  "LTBU": {
    "icao": "LTBU",
    "metar": "LTBU 021620Z 11004KT 070V150 CAVOK 24/11 Q1019 RMK RWY22 05005KT",
    "metar_obs_time": "2025-06-02 16:20:00",
    "taf": "TAF LTBU 021040Z 0212/0312 17012KT 9999 SCT040 BECMG 0212/0215 04012KT CAVOK BECMG 0217/0220 VRB02KT BECMG 0308/0311 18012KT",
    "taf_obs_time": "2025-06-02 10:40:00",
    "fetched_at": "2025-06-02T16:50:31.443447Z"
  }
}