{
  "LTFM": {
    "icao": "LTFM",
    "metar": "LTFM 122150Z 04010KT 9999 BKN008 21/18 Q1018 NOSIG RMK RWY17L 05008KT RWY34L 03010KT RWY16R 05008KT RWY36 04009KT RWY18 05010KT",
    "metar_obs_time": "2025-06-12 21:50:00",
    "taf": "TAF LTFM 121640Z 1218/1324 04012KT 9999 SCT012 BECMG 1218/1221 BKN008 PROB30 1223/1303 4000 BR BKN004 BECMG 1304/1307 SCT012 BECMG 1307/1310 04022KT CAVOK BECMG 1315/1318 05012KT",
    "taf_obs_time": "2025-06-12 16:40:00",
    "fetched_at": "2025-06-12T22:19:34.670759Z"
  },
  "LTFJ": {
    "icao": "LTFJ",
    "metar": "LTFJ 122150Z 04011KT 9999 FEW015 20/18 Q1017 NOSIG RMK RWY24R 03007KT RWY06R 03011KT RWY24L 02008KT",
    "metar_obs_time": "2025-06-12 21:50:00",
    "taf": "TAF LTFJ 121640Z 1218/1318 04008KT CAVOK BECMG 1218/1220 SCT008 BECMG 1220/1223 BKN006 PROB30 1223/1303 4000 BR BKN003 BECMG 1303/1306 SCT012 BECMG 1306/1309 04018KT CAVOK",
    "taf_obs_time": "2025-06-12 16:40:00",
    "fetched_at": "2025-06-12T22:19:34.670759Z"
  },
  "LTBA": {
    "icao": "LTBA",
    "metar": "LTBA 122150Z 05008KT CAVOK 21/18 Q1017 RMK RWY23 05008KT",
    "metar_obs_time": "2025-06-12 21:50:00",
    "taf": "TAF LTBA 121640Z 1218/1318 02015G25KT CAVOK BECMG 1218/1221 05009KT SCT012 PROB30 TEMPO 1221/1301 3200 BR BKN006 BECMG 1305/1308 04019KT CAVOK",
    "taf_obs_time": "2025-06-12 16:40:00",
    "fetched_at": "2025-06-12T22:19:34.670759Z"
  },
  "LTBU": {
    "icao": "LTBU",
    "metar": "LTBU 122150Z 03012KT CAVOK 18/17 Q1017 RMK RWY22 02008KT",
    "metar_obs_time": "2025-06-12 21:50:00",
    "taf": "TAF LTBU 121640Z 1218/1318 04015G25KT CAVOK BECMG 1219/1222 03009KT SCT012 PROB30 1301/1305 2200 BCFG BKN008 BECMG 1305/1308 04015G25KT CAVOK",
    "taf_obs_time": "2025-06-12 16:40:00",
    "fetched_at": "2025-06-12T22:19:34.670759Z"
  }
}