{
  "LTFM": {
    "icao": "LTFM",
    "metar": "LTFM 180450Z 03007KT 9999 FEW008 23/19 Q1019 NOSIG RMK RWY17L 03005KT RWY34L 02008KT RWY16R 02005KT 320V040 RWY36 02008KT RWY18 02006KT",
    "metar_obs_time": "2025-06-18 04:50:00",
    "taf": "TAF LTFM 180440Z 1806/1912 03010KT CAVOK BECMG 1818/1821 09006KT SCT008 PROB30 TEMPO 1823/1903 2000 BCFG BKN004 BECMG 1905/1908 03010KT CAVOK",
    "taf_obs_time": "2025-06-18 04:40:00",
    "fetched_at": "2025-06-18T05:18:46.842140Z"
  },
  "LTFJ": {
    "icao": "LTFJ",
    "metar": "LTFJ 180450Z 03008KT 360V060 CAVOK 21/18 Q1018 NOSIG RMK RWY24R 02004KT 330V050 RWY06R 03008KT RWY24L 03006KT",
    "metar_obs_time": "2025-06-18 04:50:00",
    "taf": "TAF LTFJ 180440Z 1806/1906 04008KT CAVOK BECMG 1806/1808 24010KT BECMG 1810/1813 03016KT BECMG 1818/1821 04006KT PROB30 TEMPO 1901/1904 3500 PRFG",
    "taf_obs_time": "2025-06-18 04:40:00",
    "fetched_at": "2025-06-18T05:18:46.842140Z"
  },
  "LTBA": {
    "icao": "LTBA",
    "metar": "LTBA 180450Z 04010KT CAVOK 24/17 Q1018 RMK RWY23 03008KT",
    "metar_obs_time": "2025-06-18 04:50:00",
    "taf": "TAF LTBA 180440Z 1806/1906 04010KT CAVOK BECMG 1806/1808 19007KT BECMG 1808/1811 04013KT",
    "taf_obs_time": "2025-06-18 04:40:00",
    "fetched_at": "2025-06-18T05:18:46.842140Z"
  },
  "LTBU": {
    "icao": "LTBU",
    "metar": "LTBU 180450Z 09005KT CAVOK 24/11 Q1019 RMK RWY22 06004KT 040V100",
    "metar_obs_time": "2025-06-18 04:50:00",
    "taf": "TAF LTBU 180440Z 1806/1906 04005KT CAVOK BECMG 1806/1808 04015KT BECMG 1816/1819 03005KT",
    "taf_obs_time": "2025-06-18 04:40:00",
    "fetched_at": "2025-06-18T05:18:46.842140Z"
  }
}