{
  "LTFM": {
    "icao": "LTFM",
    "metar": "LTFM 041820Z 10006KT 070V130 CAVOK 26/12 Q1018 NOSIG RMK RWY17L 09005KT RWY34L 07007KT RWY16R 09005KT RWY36 08006KT 030V100 RWY18 10004KT",
    "metar_obs_time": "2025-06-04 18:20:00",
    "taf": "TAF LTFM 041640Z 0418/0524 06012KT CAVOK BECMG 0418/0420 VRB02KT BECMG 0503/0507 06012KT BECMG 0517/0520 SCT020 PROB30 TEMPO 0520/0524 3200 BR BKN004",
    "taf_obs_time": "2025-06-04 16:40:00",
    "fetched_at": "2025-06-04T18:54:04.619120Z"
  },
  "LTFJ": {
    "icao": "LTFJ",
    "metar": "LTFJ 041820Z 03008KT CAVOK 25/12 Q1017 NOSIG RMK RWY24R 04005KT RWY06R 02009KT RWY24L 04007KT",
    "metar_obs_time": "2025-06-04 18:20:00",
    "taf": "TAF LTFJ 041640Z 0418/0518 03007KT CAVOK BECMG 0507/0510 03017KT",
    "taf_obs_time": "2025-06-04 16:40:00",
    "fetched_at": "2025-06-04T18:54:04.619120Z"
  },
  "LTBA": {
    "icao": "LTBA",
    "metar": "LTBA 041820Z 08004KT CAVOK 26/14 Q1017 RMK RWY23 11003KT 070V150",
    "metar_obs_time": "2025-06-04 18:20:00",
    "taf": "TAF LTBA 041640Z 0418/0518 24005KT CAVOK BECMG 0418/0421 03010KT BECMG 0506/0509 04015G25KT",
    "taf_obs_time": "2025-06-04 16:40:00",
    "fetched_at": "2025-06-04T18:54:04.619120Z"
  },
  "LTBU": {
    "icao": "LTBU",
    "metar": "LTBU 041820Z 02003KT CAVOK 23/13 Q1018 RMK RWY22 03003KT",
    "metar_obs_time": "2025-06-04 18:20:00",
    "taf": "TAF LTBU 041640Z 0418/0518 14010KT CAVOK BECMG 0418/0420 01006KT BECMG 0507/0510 05015G25KT",
    "taf_obs_time": "2025-06-04 16:40:00",
    "fetched_at": "2025-06-04T18:54:04.619120Z"
  }
}