{
  "LTFM": {
    "icao": "LTFM",
    "metar": "LTFM 020420Z 01005KT 9999 FEW008 18/13 Q1020 NOSIG RMK RWY17L VRB01KT RWY34L 01005KT 320V030 RWY16R VRB01KT RWY36 35005KT RWY18 32005KT 280V360",
    "metar_obs_time": "2025-06-02 04:20:00",
    "taf": "TAF LTFM 012240Z 0200/0306 33007KT 9999 SCT008 TEMPO 0200/0204 1200 BCFG BKN002 BECMG 0204/0207 03010KT BECMG 0210/0213 CAVOK BECMG 0217/0220 13005KT",
    "taf_obs_time": "2025-06-01 22:40:00",
    "fetched_at": "2025-06-02T04:40:08.802096Z"
  },
  "LTFJ": {
    "icao": "LTFJ",
    "metar": "LTFJ 020420Z 16004KT 9999 SCT017 18/14 Q1019 NOSIG RMK RWY24R 00000KT RWY06R VRB02KT RWY24L VRB02KT",
    "metar_obs_time": "2025-06-02 04:20:00",
    "taf": "TAF LTFJ 012240Z 0200/0224 03009KT 9999 BKN012 TEMPO 0200/0203 4000 BR BKN006 PROB30 0203/0205 1200 BCFG BKN004 BECMG 0205/0208 SCT035 BECMG 0210/0214 CAVOK",
    "taf_obs_time": "2025-06-01 22:40:00",
    "fetched_at": "2025-06-02T04:40:08.802096Z"
  },
  "LTBA": {
    "icao": "LTBA",
    "metar": "LTBA 020420Z 07007KT CAVOK 18/15 Q1019 RMK RWY23 07006KT 010V090",
    "metar_obs_time": "2025-06-02 04:20:00",
    "taf": "TAF LTBA 012240Z 0200/0224 VRB02KT 9999 SCT008 TEMPO 0200/0204 1200 BCFG BKN003 BECMG 0210/0213 02012KT CAVOK",
    "taf_obs_time": "2025-06-01 22:40:00",
    "fetched_at": "2025-06-02T04:40:08.802096Z"
  },
  "LTBU": {
    "icao": "LTBU",
    "metar": "LTBU 020420Z 35005KT CAVOK 18/10 Q1019 RMK RWY22 34004KT",
    "metar_obs_time": "2025-06-02 04:20:00",
    "taf": "TAF LTBU 012240Z 0200/0224 35007KT CAVOK BECMG 0205/0208 16010KT SCT040 BECMG 0210/0213 05012KT BECMG 0216/0219 VRB02KT CAVOK",
    "taf_obs_time": "2025-06-01 22:40:00",
    "fetched_at": "2025-06-02T04:40:08.802096Z"
  }
}