{
  "LTFM": {
    "icao": "LTFM",
    "metar": "LTFM 180320Z 34003KT 9999 FEW007 20/19 Q1018 NOSIG RMK RWY17L 28004KT RWY34L 33006KT RWY16R 28002KT RWY36 34004KT RWY18 29004KT 260V330",
    "metar_obs_time": "2025-06-18 03:20:00",
    "taf": "TAF LTFM 172240Z 1800/1906 32006KT 9999 FEW008 TEMPO 1800/1804 2000 BCFG BKN004 BECMG 1804/1807 02012KT CAVOK BECMG 1816/1819 08006KT SCT008 PROB40 TEMPO 1900/1904 2000 BCFG BKN004",
    "taf_obs_time": "2025-06-17 22:40:00",
    "fetched_at": "2025-06-18T03:55:40.830208Z"
  },
  "LTFJ": {
    "icao": "LTFJ",
    "metar": "LTFJ 180320Z 07006KT 9999 1500NE R06L/P1500N R24R/P1500N R06R/P1500N R24L/0800N PRFG NSC 18/15 Q1018 NOSIG RMK RWY24R 07005KT RWY06R 08006KT RWY24L 06007KT",
    "metar_obs_time": "2025-06-18 03:20:00",
    "taf": "TAF LTFJ 172240Z 1800/1824 03007KT CAVOK BECMG 1805/1808 24010KT BECMG 1811/1814 03015KT BECMG 1817/1820 03005KT",
    "taf_obs_time": "2025-06-17 22:40:00",
    "fetched_at": "2025-06-18T03:55:40.830208Z"
  },
  "LTBA": {
    "icao": "LTBA",
    "metar": "LTBA 180320Z 02007KT CAVOK 21/19 Q1018 RMK RWY23 02005KT",
    "metar_obs_time": "2025-06-18 03:20:00",
    "taf": "TAF LTBA 172240Z 1800/1824 03010KT CAVOK TEMPO 1800/1804 SCT010",
    "taf_obs_time": "2025-06-17 22:40:00",
    "fetched_at": "2025-06-18T03:55:40.830208Z"
  },
  "LTBU": {
    "icao": "LTBU",
    "metar": "LTBU 180320Z 02006KT CAVOK 20/11 Q1018 RMK RWY22 36006KT",
    "metar_obs_time": "2025-06-18 03:20:00",
    "taf": "TAF LTBU 172240Z 1800/1824 36007KT CAVOK BECMG 1804/1807 06012KT",
    "taf_obs_time": "2025-06-17 22:40:00",
    "fetched_at": "2025-06-18T03:55:40.830208Z"
  }
}