{
  "LTFM": {
    "icao": "LTFM",
    "metar": "LTFM 100420Z 34012KT 9999 FEW006 22/20 Q1018 NOSIG RMK RWY17L 33010KT RWY34L 33012KT RWY16R 32008KT RWY36 34012KT RWY18 34010KT",
    "metar_obs_time": "2025-06-10 04:20:00",
    "taf": "TAF LTFM 092240Z 1000/1106 01009KT 9999 SCT008 TEMPO 1000/1002 2000 BCFG BKN002 BECMG 1005/1008 03018G28KT BKN011 BECMG 1012/1015 SCT022 BECMG 1015/1018 04013KT CAVOK BECMG 1020/1023 SCT008",
    "taf_obs_time": "2025-06-09 22:40:00",
    "fetched_at": "2025-06-10T04:53:17.050507Z"
  },
  "LTFJ": {
    "icao": "LTFJ",
    "metar": "LTFJ 100420Z 06008KT 9999 BKN006 20/19 Q1017 NOSIG RMK RWY24R 06007KT 030V090 RWY06R 04009KT RWY24L 03008KT 010V070",
    "metar_obs_time": "2025-06-10 04:20:00",
    "taf": "TAF LTFJ 092240Z 1000/1024 03007KT 9999 SCT012 PROB30 1003/1005 3500 BR BKN006 BECMG 1005/1007 CAVOK BECMG 1007/1010 03018KT SCT025 TEMPO 1011/1015 03020G30KT BECMG 1015/1017 CAVOK BECMG 1019/1022 SCT012",
    "taf_obs_time": "2025-06-09 22:40:00",
    "fetched_at": "2025-06-10T04:53:17.050507Z"
  },
  "LTBA": {
    "icao": "LTBA",
    "metar": "LTBA 100420Z 05007KT 020V080 CAVOK 23/17 Q1017 RMK RWY23 05006KT 020V080",
    "metar_obs_time": "2025-06-10 04:20:00",
    "taf": "TAF LTBA 092240Z 1000/1024 03006KT CAVOK TEMPO 1000/1002 4000 BR SCT006 BECMG 1002/1005 03016KT BECMG 1006/1009 03019G29KT SCT030 BECMG 1015/1017 CAVOK BECMG 1017/1020 04013KT",
    "taf_obs_time": "2025-06-09 22:40:00",
    "fetched_at": "2025-06-10T04:53:17.050507Z"
  },
  "LTBU": {
    "icao": "LTBU",
    "metar": "LTBU 100420Z 01016KT CAVOK 21/15 Q1017 RMK RWY22 02013KT",
    "metar_obs_time": "2025-06-10 04:20:00",
    "taf": "TAF LTBU 092240Z 1000/1024 36009KT CAVOK BECMG 1005/1008 03022G32KT SCT025 BECMG 1015/1017 CAVOK BECMG 1017/1020 04013KT",
    "taf_obs_time": "2025-06-09 22:40:00",
    "fetched_at": "2025-06-10T04:53:17.050507Z"
  }
}