{
  "LTFM": {
    "icao": "LTFM",
    "metar": "LTFM 130520Z 04015KT 360V060 9999 SCT012 22/17 Q1018 NOSIG RMK RWY17L 04014KT RWY34L 04013KT RWY16R 04014KT RWY36 05015KT RWY18 05013KT",
    "metar_obs_time": "2025-06-13 05:20:00",
    "taf": "TAF LTFM 130440Z 1306/1412 05018KT 9999 SCT012 BECMG 1307/1310 CAVOK BECMG 1315/1318 06008KT",
    "taf_obs_time": "2025-06-13 04:40:00",
    "fetched_at": "2025-06-13T05:50:22.865320Z"
  },
  "LTFJ": {
    "icao": "LTFJ",
    "metar": "LTFJ 130520Z 04011KT 9999 SCT013 22/19 Q1017 NOSIG RMK RWY24R 04008KT RWY06R 04010KT RWY24L 03010KT",
    "metar_obs_time": "2025-06-13 05:20:00",
    "taf": "TAF LTFJ 130440Z 1306/1406 04009KT 9999 SCT015 BECMG 1306/1309 03019KT CAVOK BECMG 1318/1321 04009KT",
    "taf_obs_time": "2025-06-13 04:40:00",
    "fetched_at": "2025-06-13T05:50:22.865320Z"
  },
  "LTBA": {
    "icao": "LTBA",
    "metar": "LTBA 130520Z 05013KT 9999 SCT030 23/17 Q1017 RMK RWY23 06013KT",
    "metar_obs_time": "2025-06-13 05:20:00",
    "taf": "TAF LTBA 130440Z 1306/1406 04019KT 9999 FEW035 BECMG 1306/1309 CAVOK BECMG 1317/1320 04009KT",
    "taf_obs_time": "2025-06-13 04:40:00",
    "fetched_at": "2025-06-13T05:50:22.865320Z"
  },
  "LTBU": {
    "icao": "LTBU",
    "metar": "LTBU 130520Z 04013KT 9999 SCT012 21/17 Q1017 RMK RWY22 06010KT 030V090",
    "metar_obs_time": "2025-06-13 05:20:00",
    "taf": "TAF LTBU 130440Z 1306/1406 04016KT 9999 FEW012 BECMG 1306/1309 CAVOK BECMG 1317/1320 05006KT BECMG 1403/1406 SCT035",
    "taf_obs_time": "2025-06-13 04:40:00",
    "fetched_at": "2025-06-13T05:50:22.865320Z"
  }
}