{
  "LTFM": {
    "icao": "LTFM",
    "metar": "LTFM 100250Z 36010KT 9999 SCT008 20/19 Q1017 NOSIG RMK RWY17L 34006KT RWY34L 34008KT RWY16R 34005KT RWY36 35008KT RWY18 35006KT",
    "metar_obs_time": "2025-06-10 02:50:00",
    "taf": "TAF LTFM 092240Z 1000/1106 01009KT 9999 SCT008 TEMPO 1000/1002 2000 BCFG BKN002 BECMG 1005/1008 03018G28KT BKN011 BECMG 1012/1015 SCT022 BECMG 1015/1018 04013KT CAVOK BECMG 1020/1023 SCT008",
    "taf_obs_time": "2025-06-09 22:40:00",
    "fetched_at": "2025-06-10T03:11:29.911309Z"
  },
  "LTFJ": {
    "icao": "LTFJ",
    "metar": "LTFJ 100250Z 06006KT 4800 BR BKN007 19/18 Q1017 NOSIG RMK RWY24R 05005KT RWY06R 04007KT RWY24L 04008KT",
    "metar_obs_time": "2025-06-10 02:50:00",
    "taf": "TAF LTFJ 092240Z 1000/1024 03007KT 9999 SCT012 PROB30 1003/1005 3500 BR BKN006 BECMG 1005/1007 CAVOK BECMG 1007/1010 03018KT SCT025 TEMPO 1011/1015 03020G30KT BECMG 1015/1017 CAVOK BECMG 1019/1022 SCT012",
    "taf_obs_time": "2025-06-09 22:40:00",
    "fetched_at": "2025-06-10T03:11:29.911309Z"
  },
  "LTBA": {
    "icao": "LTBA",
    "metar": "LTBA 100250Z 03009KT CAVOK 21/19 Q1016 RMK RWY23 04006KT 360V070",
    "metar_obs_time": "2025-06-10 02:50:00",
    "taf": "TAF LTBA 092240Z 1000/1024 03006KT CAVOK TEMPO 1000/1002 4000 BR SCT006 BECMG 1002/1005 03016KT BECMG 1006/1009 03019G29KT SCT030 BECMG 1015/1017 CAVOK BECMG 1017/1020 04013KT",
    "taf_obs_time": "2025-06-09 22:40:00",
    "fetched_at": "2025-06-10T03:11:29.911309Z"
  },
  "LTBU": {
    "icao": "LTBU",
    "metar": "LTBU 100250Z 01012KT CAVOK 19/14 Q1017 RMK RWY22 01011KT",
    "metar_obs_time": "2025-06-10 02:50:00",
    "taf": "TAF LTBU 092240Z 1000/1024 36009KT CAVOK BECMG 1005/1008 03022G32KT SCT025 BECMG 1015/1017 CAVOK BECMG 1017/1020 04013KT",
    "taf_obs_time": "2025-06-09 22:40:00",
    "fetched_at": "2025-06-10T03:11:29.911309Z"
  }
}