{
  "LTFM": {
    "icao": "LTFM",
    "metar": "LTFM 020720Z 35006KT 270V030 CAVOK 22/12 Q1020 NOSIG RMK RWY17L 05005KT 360V100 RWY34L 01005KT 330V040 RWY16R 01004KT 300V070 RWY36 04006KT 360V070 RWY18 07005KT 020V100",
    "metar_obs_time": "2025-06-02 07:20:00",
    "taf": "TAF LTFM 020440Z 0206/0312 02010KT CAVOK BECMG 0217/0220 15005KT BECMG 0305/0308 05010KT",
    "taf_obs_time": "2025-06-02 04:40:00",
    "fetched_at": "2025-06-02T07:46:59.521366Z"
  },
  "LTFJ": {
    "icao": "LTFJ",
    "metar": "LTFJ 020720Z 20005KT 150V270 9999 FEW020 21/15 Q1020 NOSIG RMK RWY24R 23004KT 190V270 RWY06R 21006KT 160V240 RWY24L 27004KT 220V310",
    "metar_obs_time": "2025-06-02 07:20:00",
    "taf": "TAF LTFJ 020440Z 0206/0306 VRB02KT 9999 SCT017 BECMG 0208/0212 02015KT CAVOK BECMG 0217/0220 03005KT",
    "taf_obs_time": "2025-06-02 04:40:00",
    "fetched_at": "2025-06-02T07:46:59.521366Z"
  },
  "LTBA": {
    "icao": "LTBA",
    "metar": "LTBA 020720Z 20007KT 160V230 9999 FEW035 20/15 Q1020 RMK RWY23 20008KT 170V230",
    "metar_obs_time": "2025-06-02 07:20:00",
    "taf": "TAF LTBA 020440Z 0206/0306 22008KT CAVOK BECMG 0211/0213 02010KT",
    "taf_obs_time": "2025-06-02 04:40:00",
    "fetched_at": "2025-06-02T07:46:59.521366Z"
  },
  "LTBU": {
    "icao": "LTBU",
    "metar": "LTBU 020720Z 13003KT 070V200 CAVOK 23/09 Q1020 RMK RWY22 12005KT 070V200",
    "metar_obs_time": "2025-06-02 07:20:00",
    "taf": "TAF LTBU 020440Z 0206/0306 VRB02KT CAVOK TEMPO 0209/0213 17012KT SCT040 BECMG 0213/0215 04012KT BECMG 0217/0220 VRB02KT",
    "taf_obs_time": "2025-06-02 04:40:00",
    "fetched_at": "2025-06-02T07:46:59.521366Z"
  }
}