{
  "LTFM": {
    "icao": "LTFM",
    "metar": "LTFM 021120Z 02009KT 340V050 CAVOK 24/08 Q1020 NOSIG RMK RWY17L 02008KT RWY34L 03008KT 350V060 RWY16R 01008KT 340V040 RWY36 03009KT RWY18 03008KT 350V060",
    "metar_obs_time": "2025-06-02 11:20:00",
    "taf": "TAF LTFM 021040Z 0212/0318 04010KT CAVOK BECMG 0216/0219 15005KT BECMG 0305/0308 05010KT",
    "taf_obs_time": "2025-06-02 10:40:00",
    "fetched_at": "2025-06-02T11:55:10.186519Z"
  },
  "LTFJ": {
    "icao": "LTFJ",
    "metar": "LTFJ 021120Z 23010KT 9999 SCT030 23/14 Q1019 NOSIG RMK RWY24R 24010KT 220V280 RWY06R 22011KT RWY24L 22011KT",
    "metar_obs_time": "2025-06-02 11:20:00",
    "taf": "TAF LTFJ 021040Z 0212/0312 24009KT 9999 SCT030 BECMG 0212/0215 02012KT CAVOK BECMG 0308/0311 24009KT",
    "taf_obs_time": "2025-06-02 10:40:00",
    "fetched_at": "2025-06-02T11:55:10.186519Z"
  },
  "LTBA": {
    "icao": "LTBA",
    "metar": "LTBA 021120Z 24011KT CAVOK 21/16 Q1020 RMK RWY23 24013KT",
    "metar_obs_time": "2025-06-02 11:20:00",
    "taf": "TAF LTBA 021040Z 0212/0312 26007KT 9999 FEW035 BECMG 0212/0215 03010KT CAVOK BECMG 0305/0308 19008KT",
    "taf_obs_time": "2025-06-02 10:40:00",
    "fetched_at": "2025-06-02T11:55:10.186519Z"
  },
  "LTBU": {
    "icao": "LTBU",
    "metar": "LTBU 021120Z 22006KT 160V270 9999 SCT040 25/11 Q1020 RMK RWY22 VRB06KT",
    "metar_obs_time": "2025-06-02 11:20:00",
    "taf": "TAF LTBU 021040Z 0212/0312 17012KT 9999 SCT040 BECMG 0212/0215 04012KT CAVOK BECMG 0217/0220 VRB02KT BECMG 0308/0311 18012KT",
    "taf_obs_time": "2025-06-02 10:40:00",
    "fetched_at": "2025-06-02T11:55:10.186519Z"
  }
}