{
  "LTFM": {
    "icao": "LTFM",
    "metar": "LTFM 162320Z 27004KT 210V310 CAVOK 21/11 Q1016 NOSIG RMK RWY17L VRB04G15KT RWY34L 26004KT RWY16R 24004KT RWY36 VRB02KT RWY18 25005G15KT 140V260",
    "metar_obs_time": "2025-06-16 23:20:00",
    "taf": "TAF LTFM 162240Z 1700/1806 22005KT CAVOK BECMG 1704/1707 35012KT BECMG 1715/1718 VRB02KT",
    "taf_obs_time": "2025-06-16 22:40:00",
    "fetched_at": "2025-06-16T23:33:10.952911Z"
  },
  "LTFJ": {
    "icao": "LTFJ",
    "metar": "LTFJ 162320Z 06004KT CAVOK 19/12 Q1016 NOSIG RMK RWY24R 02003KT RWY06R 03004KT RWY24L 05003KT",
    "metar_obs_time": "2025-06-16 23:20:00",
    "taf": "TAF LTFJ 162240Z 1700/1724 VRB02KT CAVOK BECMG 1709/1712 01012KT BECMG 1719/1722 VRB02KT",
    "taf_obs_time": "2025-06-16 22:40:00",
    "fetched_at": "2025-06-16T23:33:10.952911Z"
  },
  "LTBA": {
    "icao": "LTBA",
    "metar": "LTBA 162320Z 33004KT CAVOK 21/13 Q1016 RMK RWY23 34003KT",
    "metar_obs_time": "2025-06-16 23:20:00",
    "taf": "TAF LTBA 162240Z 1700/1724 VRB02KT CAVOK BECMG 1705/1708 19012KT BECMG 1711/1714 03009KT",
    "taf_obs_time": "2025-06-16 22:40:00",
    "fetched_at": "2025-06-16T23:33:10.952911Z"
  },
  "LTBU": {
    "icao": "LTBU",
    "metar": "LTBU 162320Z 31002KT CAVOK 15/11 Q1017 RMK RWY22 27003KT",
    "metar_obs_time": "2025-06-16 23:20:00",
    "taf": "TAF LTBU 162240Z 1700/1724 VRB02KT CAVOK BECMG 1703/1706 35012KT BECMG 1709/1712 05009KT",
    "taf_obs_time": "2025-06-16 22:40:00",
    "fetched_at": "2025-06-16T23:33:10.952911Z"
  }
}