{
  "LTFM": {
    "icao": "LTFM",
    "metar": "LTFM 051320Z 06015KT CAVOK 25/11 Q1018 NOSIG RMK RWY17L 06014KT RWY34L 03015KT RWY16R 04014KT RWY36 05017KT RWY18 06014KT",
    "metar_obs_time": "2025-06-05 13:20:00",
    "taf": "TAF LTFM 051040Z 0512/0618 04011KT CAVOK BECMG 0517/0520 SCT008 PROB30 0521/0601 3200 BR BKN004 PROB30 0601/0605 3200 BR BKN004 BECMG 0605/0608 04015G25KT BECMG 0608/0611 CAVOK",
    "taf_obs_time": "2025-06-05 10:40:00",
    "fetched_at": "2025-06-05T13:57:27.888896Z"
  },
  "LTFJ": {
    "icao": "LTFJ",
    "metar": "LTFJ 051320Z 05017KT CAVOK 29/15 Q1017 NOSIG RMK RWY24R 06015KT 030V090 RWY06R 04018KT RWY24L 04017KT",
    "metar_obs_time": "2025-06-05 13:20:00",
    "taf": "TAF LTFJ 051040Z 0512/0612 05014KT CAVOK TEMPO 0512/0516 05015G25KT PROB30 TEMPO 0601/0605 2400 BCFG TEMPO 0609/0612 04016G28KT",
    "taf_obs_time": "2025-06-05 10:40:00",
    "fetched_at": "2025-06-05T13:57:27.888896Z"
  },
  "LTBA": {
    "icao": "LTBA",
    "metar": "LTBA 051320Z 04016KT CAVOK 30/14 Q1016 RMK RWY23 05016KT 020V080",
    "metar_obs_time": "2025-06-05 13:20:00",
    "taf": "TAF LTBA 051040Z 0512/0612 04017KT CAVOK BECMG 0517/0520 04007KT BECMG 0605/0608 04018KT",
    "taf_obs_time": "2025-06-05 10:40:00",
    "fetched_at": "2025-06-05T13:57:27.888896Z"
  },
  "LTBU": {
    "icao": "LTBU",
    "metar": "LTBU 051320Z 06013KT 030V090 CAVOK 30/13 Q1017 RMK RWY22 06011KT 030V090",
    "metar_obs_time": "2025-06-05 13:20:00",
    "taf": "TAF LTBU 051040Z 0512/0612 04013KT CAVOK",
    "taf_obs_time": "2025-06-05 10:40:00",
    "fetched_at": "2025-06-05T13:57:27.888896Z"
  }
}