{
  "LTFM": {
    "icao": "LTFM",
    "metar": "LTFM 200050Z VRB02KT CAVOK 21/10 Q1014 NOSIG RMK RWY17L VRB02KT RWY34L 19003KT RWY16R VRB01KT RWY36 VRB02KT RWY18 25003KT 210V270",
    "metar_obs_time": "2025-06-20 00:50:00",
    "taf": "TAF LTFM 192240Z 2000/2106 21005KT CAVOK BECMG 2006/2009 03015KT SCT016 BECMG 2012/2015 BKN008 BECMG 2018/2020 SCT016 BECMG 2023/2101 CAVOK",
    "taf_obs_time": "2025-06-19 22:40:00",
    "fetched_at": "2025-06-20T01:27:06.028869Z"
  },
  "LTFJ": {
    "icao": "LTFJ",
    "metar": "LTFJ 200050Z 07002KT CAVOK 16/11 Q1014 NOSIG RMK RWY24R 08001KT RWY06R 06004KT RWY24L 07003KT",
    "metar_obs_time": "2025-06-20 00:50:00",
    "taf": "TAF LTFJ 192240Z 2000/2024 05007KT CAVOK BECMG 2004/2007 24010KT SCT035 BECMG 2010/2013 02015KT CAVOK BECMG 2015/2018 SCT012 BKN030 TEMPO 2016/2019 03017G27KT",
    "taf_obs_time": "2025-06-19 22:40:00",
    "fetched_at": "2025-06-20T01:27:06.028869Z"
  },
  "LTBA": {
    "icao": "LTBA",
    "metar": "LTBA 200050Z 32003KT CAVOK 20/11 Q1014 RMK RWY23 32003KT",
    "metar_obs_time": "2025-06-20 00:50:00",
    "taf": "TAF LTBA 192240Z 2000/2024 VRB02KT CAVOK BECMG 2010/2012 02015KT BECMG 2012/2015 SCT016 TEMPO 2016/2020 BKN009",
    "taf_obs_time": "2025-06-19 22:40:00",
    "fetched_at": "2025-06-20T01:27:06.028869Z"
  },
  "LTBU": {
    "icao": "LTBU",
    "metar": "LTBU 200050Z 00000KT CAVOK 19/11 Q1014 RMK RWY22 32005KT",
    "metar_obs_time": "2025-06-20 00:50:00",
    "taf": "TAF LTBU 192240Z 2000/2024 33006KT CAVOK BECMG 2008/2011 03016KT SCT022 TEMPO 2009/2012 -SHRA FEW018CB BKN022 BECMG 2020/2023 03006KT",
    "taf_obs_time": "2025-06-19 22:40:00",
    "fetched_at": "2025-06-20T01:27:06.028869Z"
  }
}