{
  "LTFM": {
    "icao": "LTFM",
    "metar": "LTFM 032250Z 21007KT 180V240 CAVOK 21/12 Q1018 NOSIG RMK RWY17L 24006KT 190V250 RWY34L VRB02KT RWY16R 25003KT RWY36 20007KT 150V230 RWY18 21008KT 140V240",
    "metar_obs_time": "2025-06-03 22:50:00",
    "taf": "TAF LTFM 032240Z 0400/0506 19007KT CAVOK BECMG 0407/0410 07012KT BECMG 0418/0420 VRB02KT",
    "taf_obs_time": "2025-06-03 22:40:00",
    "fetched_at": "2025-06-03T23:16:56.876728Z"
  },
  "LTFJ": {
    "icao": "LTFJ",
    "metar": "LTFJ 032250Z 06003KT CAVOK 19/12 Q1017 NOSIG RMK RWY24R 02004KT 340V040 RWY06R 07003KT RWY24L 04003KT",
    "metar_obs_time": "2025-06-03 22:50:00",
    "taf": "TAF LTFJ 032240Z 0400/0424 05006KT CAVOK BECMG 0405/0408 24010KT BECMG 0411/0414 03009KT",
    "taf_obs_time": "2025-06-03 22:40:00",
    "fetched_at": "2025-06-03T23:16:56.876728Z"
  },
  "LTBA": {
    "icao": "LTBA",
    "metar": "LTBA 032250Z VRB01KT CAVOK 21/12 Q1017 RMK RWY23 24001KT",
    "metar_obs_time": "2025-06-03 22:50:00",
    "taf": "TAF LTBA 032240Z 0400/0424 VRB02KT CAVOK BECMG 0406/0409 22012KT BECMG 0416/0418 05007KT",
    "taf_obs_time": "2025-06-03 22:40:00",
    "fetched_at": "2025-06-03T23:16:56.876728Z"
  },
  "LTBU": {
    "icao": "LTBU",
    "metar": "LTBU 032250Z 29002KT CAVOK 16/09 Q1018 RMK RWY22 25004KT",
    "metar_obs_time": "2025-06-03 22:50:00",
    "taf": "TAF LTBU 032240Z 0400/0424 VRB02KT CAVOK BECMG 0407/0410 17012KT FEW040 BECMG 0416/0418 04006KT CAVOK",
    "taf_obs_time": "2025-06-03 22:40:00",
    "fetched_at": "2025-06-03T23:16:56.876728Z"
  }
}