{
  "LTFM": {
    "icao": "LTFM",
    "metar": "LTFM 031650Z 12006KT CAVOK 26/09 Q1018 NOSIG RMK RWY17L 09006KT RWY34L 13006KT RWY16R 08006KT RWY36 11006KT 030V120 RWY18 09005KT",
    "metar_obs_time": "2025-06-03 16:50:00",
    "taf": "TAF LTFM 031640Z 0318/0424 10010KT CAVOK BECMG 0318/0320 18006KT BECMG 0407/0410 07012KT BECMG 0418/0420 VRB02KT",
    "taf_obs_time": "2025-06-03 16:40:00",
    "fetched_at": "2025-06-03T17:18:01.791693Z"
  },
  "LTFJ": {
    "icao": "LTFJ",
    "metar": "LTFJ 031650Z 04008KT CAVOK 24/12 Q1018 NOSIG RMK RWY24R 06007KT RWY06R 04009KT RWY24L 05008KT",
    "metar_obs_time": "2025-06-03 16:50:00",
    "taf": "TAF LTFJ 031640Z 0318/0418 05006KT CAVOK BECMG 0405/0408 23010KT BECMG 0409/0412 03009KT SCT040 BECMG 0413/0416 CAVOK",
    "taf_obs_time": "2025-06-03 16:40:00",
    "fetched_at": "2025-06-03T17:18:01.791693Z"
  },
  "LTBA": {
    "icao": "LTBA",
    "metar": "LTBA 031650Z VRB02KT CAVOK 25/12 Q1017 RMK RWY23 17003KT 120V210",
    "metar_obs_time": "2025-06-03 16:50:00",
    "taf": "TAF LTBA 031640Z 0318/0418 05005KT CAVOK BECMG 0406/0409 22010KT BECMG 0416/0418 05007KT",
    "taf_obs_time": "2025-06-03 16:40:00",
    "fetched_at": "2025-06-03T17:18:01.791693Z"
  },
  "LTBU": {
    "icao": "LTBU",
    "metar": "LTBU 031650Z 15005KT 120V190 CAVOK 25/12 Q1018 RMK RWY22 17004KT",
    "metar_obs_time": "2025-06-03 16:50:00",
    "taf": "TAF LTBU 031640Z 0318/0418 VRB02KT CAVOK BECMG 0407/0410 17012KT FEW040 BECMG 0416/0418 VRB02KT CAVOK",
    "taf_obs_time": "2025-06-03 16:40:00",
    "fetched_at": "2025-06-03T17:18:01.791693Z"
  }
}