{
  "LTFM": {
    "icao": "LTFM",
    "metar": "LTFM 091820Z 03012KT 9999 BKN008 22/20 Q1017 NOSIG RMK RWY17L 04009KT RWY34L 02011KT RWY16R 03010KT RWY36 03013KT RWY18 04009KT",
    "metar_obs_time": "2025-06-09 18:20:00",
    "taf": "TAF LTFM 091640Z 0918/1024 02009KT 9999 BKN008 PROB30 TEMPO 0921/1001 4000 BR BKN004 BECMG 1001/1004 SCT012 BECMG 1005/1008 03018G28KT BKN008 BECMG 1012/1015 SCT015 BECMG 1017/1020 04012KT CAVOK",
    "taf_obs_time": "2025-06-09 16:40:00",
    "fetched_at": "2025-06-09T18:49:52.226668Z"
  },
  "LTFJ": {
    "icao": "LTFJ",
    "metar": "LTFJ 091820Z 05011KT CAVOK 20/17 Q1016 NOSIG RMK RWY24R 05009KT RWY06R 03014KT RWY24L 04010KT",
    "metar_obs_time": "2025-06-09 18:20:00",
    "taf": "TAF LTFJ 091640Z 0918/1018 04015KT CAVOK BECMG 0920/0922 04005KT SCT008 BECMG 0922/1001 BKN006 PROB40 TEMPO 1001/1005 3200 BR BECMG 1004/1007 SCT017 BECMG 1007/1009 CAVOK BECMG 1009/1012 04018KT BECMG 1012/1015 SCT015",
    "taf_obs_time": "2025-06-09 16:40:00",
    "fetched_at": "2025-06-09T18:49:52.226668Z"
  },
  "LTBA": {
    "icao": "LTBA",
    "metar": "LTBA 091820Z 03016KT CAVOK 22/17 Q1016 RMK RWY23 03012KT",
    "metar_obs_time": "2025-06-09 18:20:00",
    "taf": "TAF LTBA 091640Z 0918/1018 04016KT CAVOK BECMG 0918/0921 04006KT PROB30 0922/1002 2500 BR BKN004 BECMG 1004/1007 02016KT BECMG 1007/1010 03019G29KT SCT025 BECMG 1015/1018 04013KT CAVOK",
    "taf_obs_time": "2025-06-09 16:40:00",
    "fetched_at": "2025-06-09T18:49:52.226668Z"
  },
  "LTBU": {
    "icao": "LTBU",
    "metar": "LTBU 091820Z 03009KT CAVOK 20/16 Q1016 RMK RWY22 03008KT",
    "metar_obs_time": "2025-06-09 18:20:00",
    "taf": "TAF LTBU 091640Z 0918/1018 02008KT CAVOK BECMG 1005/1008 03022G32KT SCT025 BECMG 1015/1018 04013KT CAVOK",
    "taf_obs_time": "2025-06-09 16:40:00",
    "fetched_at": "2025-06-09T18:49:52.226668Z"
  }
}