{
  "LTFM": {
    "icao": "LTFM",
    "metar": "LTFM 201620Z 05017KT 9999 BKN015 BKN025 23/18 Q1015 NOSIG RMK RWY17L 05016KT RWY34L 03016KT RWY16R 04016KT RWY36 04018KT RWY18 05014KT",
    "metar_obs_time": "2025-06-20 16:20:00",
    "taf": "TAF LTFM 201040Z 2012/2118 34020KT 9999 BKN012 BKN025 BECMG 2012/2015 04018KT PROB30 TEMPO 2015/2019 -SHRA FEW018TCU BKN022",
    "taf_obs_time": "2025-06-20 10:40:00",
    "fetched_at": "2025-06-20T16:53:22.864527Z"
  },
  "LTFJ": {
    "icao": "LTFJ",
    "metar": "LTFJ 201620Z 04012KT 010V070 9999 BKN020 24/20 Q1014 NOSIG RMK RWY24R 03015KT RWY06R 03014KT RWY24L 02013KT",
    "metar_obs_time": "2025-06-20 16:20:00",
    "taf": "TAF LTFJ 201040Z 2012/2112 23009KT 9999 FEW035 BECMG 2012/2015 03012KT BECMG 2015/2019 BKN025 PROB30 TEMPO 2020/2024 -SHRA BECMG 2103/2106 SCT035 BECMG 2106/2109 CAVOK",
    "taf_obs_time": "2025-06-20 10:40:00",
    "fetched_at": "2025-06-20T16:53:22.864527Z"
  },
  "LTBA": {
    "icao": "LTBA",
    "metar": "LTBA 201620Z 03019KT 9999 BKN023 24/18 Q1014 RMK RWY23 02015KT",
    "metar_obs_time": "2025-06-20 16:20:00",
    "taf": "TAF LTBA 201040Z 2012/2112 35018KT CAVOK BECMG 2012/2015 SCT025 BECMG 2015/2018 05015KT BKN012 BECMG 2020/2023 FEW025",
    "taf_obs_time": "2025-06-20 10:40:00",
    "fetched_at": "2025-06-20T16:53:22.864527Z"
  },
  "LTBU": {
    "icao": "LTBU",
    "metar": "LTBU 201620Z 04020KT CAVOK 22/17 Q1014 RMK RWY22 05017KT",
    "metar_obs_time": "2025-06-20 16:20:00",
    "taf": "TAF LTBU 201040Z 2012/2112 05018KT 9999 SCT045 TEMPO 2012/2016 03016G26KT -SHRA FEW018CB BKN022 BECMG 2018/2021 03008KT CAVOK BECMG 2102/2105 SCT045 BECMG 2106/2109 05018KT",
    "taf_obs_time": "2025-06-20 10:40:00",
    "fetched_at": "2025-06-20T16:53:22.864527Z"
  }
}