{
  "LTFM": {
    "icao": "LTFM",
    "metar": "LTFM 190520Z 05007KT 350V070 9999 SCT010 23/18 Q1019 NOSIG RMK RWY17L 03006KT 350V050 RWY34L 02007KT 350V050 RWY16R 01006KT 340V050 RWY36 03008KT RWY18 03006KT",
    "metar_obs_time": "2025-06-19 05:20:00",
    "taf": "TAF LTFM 190440Z 1906/2012 05012KT 9999 SCT011 BECMG 1910/1913 CAVOK BECMG 1917/1920 VRB02KT BECMG 2006/2009 36012KT SCT016",
    "taf_obs_time": "2025-06-19 04:40:00",
    "fetched_at": "2025-06-19T05:51:12.119745Z"
  },
  "LTFJ": {
    "icao": "LTFJ",
    "metar": "LTFJ 190520Z 04010KT 010V070 9999 SCT006 21/19 Q1018 NOSIG RMK RWY24R 04008KT 010V070 RWY06R 04010KT 360V060 RWY24L 05009KT 020V080",
    "metar_obs_time": "2025-06-19 05:20:00",
    "taf": "TAF LTFJ 190440Z 1906/2006 04009KT 9999 SCT005 BECMG 1906/1908 CAVOK TEMPO 1911/1915 05015G25KT",
    "taf_obs_time": "2025-06-19 04:40:00",
    "fetched_at": "2025-06-19T05:51:12.119745Z"
  },
  "LTBA": {
    "icao": "LTBA",
    "metar": "LTBA 190520Z 04009KT CAVOK 24/17 Q1018 RMK RWY23 05008KT 010V080",
    "metar_obs_time": "2025-06-19 05:20:00",
    "taf": "TAF LTBA 190440Z 1906/2006 04012KT CAVOK BECMG 1919/1922 VRB02KT",
    "taf_obs_time": "2025-06-19 04:40:00",
    "fetched_at": "2025-06-19T05:51:12.119745Z"
  },
  "LTBU": {
    "icao": "LTBU",
    "metar": "LTBU 190520Z 06008KT 9999 FEW040 24/15 Q1019 RMK RWY22 07005KT 040V120",
    "metar_obs_time": "2025-06-19 05:20:00",
    "taf": "TAF LTBU 190440Z 1906/2006 06013KT CAVOK BECMG 1919/1922 VRB02KT",
    "taf_obs_time": "2025-06-19 04:40:00",
    "fetched_at": "2025-06-19T05:51:12.119745Z"
  }
}