{
  "LTFM": {
    "icao": "LTFM",
    "metar": "LTFM 031220Z 06011KT CAVOK 27/12 Q1019 NOSIG RMK RWY17L 07010KT RWY34L 07009KT 020V080 RWY16R 06011KT RWY36 06011KT 020V080 RWY18 08009KT 040V100",
    "metar_obs_time": "2025-06-03 12:20:00",
    "taf": "TAF LTFM 031040Z 0312/0418 06012KT CAVOK BECMG 0316/0319 18005KT BECMG 0407/0410 05010KT",
    "taf_obs_time": "2025-06-03 10:40:00",
    "fetched_at": "2025-06-03T12:38:29.824053Z"
  },
  "LTFJ": {
    "icao": "LTFJ",
    "metar": "LTFJ 031220Z 22008KT 190V250 9999 FEW040 27/15 Q1018 NOSIG RMK RWY24R 25007KT 210V320 RWY06R 22010KT RWY24L 23009KT",
    "metar_obs_time": "2025-06-03 12:20:00",
    "taf": "TAF LTFJ 031040Z 0312/0412 23010KT CAVOK BECMG 0312/0315 04009KT BECMG 0405/0408 23010KT BECMG 0409/0412 04009KT",
    "taf_obs_time": "2025-06-03 10:40:00",
    "fetched_at": "2025-06-03T12:38:29.824053Z"
  },
  "LTBA": {
    "icao": "LTBA",
    "metar": "LTBA 031220Z 24009KT 9999 SCT045 25/13 Q1018 RMK RWY23 24009KT",
    "metar_obs_time": "2025-06-03 12:20:00",
    "taf": "TAF LTBA 031040Z 0312/0412 21010KT CAVOK BECMG 0312/0315 05008KT BECMG 0406/0409 21010KT",
    "taf_obs_time": "2025-06-03 10:40:00",
    "fetched_at": "2025-06-03T12:38:29.824053Z"
  },
  "LTBU": {
    "icao": "LTBU",
    "metar": "LTBU 031220Z 14006KT 110V180 9999 FEW040 27/12 Q1019 RMK RWY22 20007KT 160V250",
    "metar_obs_time": "2025-06-03 12:20:00",
    "taf": "TAF LTBU 031040Z 0312/0412 VRB02KT CAVOK BECMG 0407/0410 17012KT",
    "taf_obs_time": "2025-06-03 10:40:00",
    "fetched_at": "2025-06-03T12:38:29.824053Z"
  }
}