{
  "LTFM": {
    "icao": "LTFM",
    "metar": "LTFM 031920Z 15006KT CAVOK 23/11 Q1018 NOSIG RMK RWY17L 14004KT RWY34L 19004KT 100V250 RWY16R 16005KT RWY36 15006KT 090V170 RWY18 17004KT",
    "metar_obs_time": "2025-06-03 19:20:00",
    "taf": "TAF LTFM 031640Z 0318/0424 10010KT CAVOK BECMG 0318/0320 18006KT BECMG 0407/0410 07012KT BECMG 0418/0420 VRB02KT",
    "taf_obs_time": "2025-06-03 16:40:00",
    "fetched_at": "2025-06-03T19:50:08.224619Z"
  },
  "LTFJ": {
    "icao": "LTFJ",
    "metar": "LTFJ 031920Z 02004KT 340V050 CAVOK 22/12 Q1018 NOSIG RMK RWY24R VRB02KT RWY06R 03005KT RWY24L VRB02KT",
    "metar_obs_time": "2025-06-03 19:20:00",
    "taf": "TAF LTFJ 031640Z 0318/0418 05006KT CAVOK BECMG 0405/0408 23010KT BECMG 0409/0412 03009KT SCT040 BECMG 0413/0416 CAVOK",
    "taf_obs_time": "2025-06-03 16:40:00",
    "fetched_at": "2025-06-03T19:50:08.224619Z"
  },
  "LTBA": {
    "icao": "LTBA",
    "metar": "LTBA 031920Z 08004KT CAVOK 23/12 Q1018 RMK RWY23 VRB02KT",
    "metar_obs_time": "2025-06-03 19:20:00",
    "taf": "TAF LTBA 031640Z 0318/0418 05005KT CAVOK BECMG 0406/0409 22010KT BECMG 0416/0418 05007KT",
    "taf_obs_time": "2025-06-03 16:40:00",
    "fetched_at": "2025-06-03T19:50:08.224619Z"
  },
  "LTBU": {
    "icao": "LTBU",
    "metar": "LTBU 031920Z 28003KT CAVOK 19/12 Q1018 RMK RWY22 25005KT",
    "metar_obs_time": "2025-06-03 19:20:00",
    "taf": "TAF LTBU 031640Z 0318/0418 VRB02KT CAVOK BECMG 0407/0410 17012KT FEW040 BECMG 0416/0418 VRB02KT CAVOK",
    "taf_obs_time": "2025-06-03 16:40:00",
    "fetched_at": "2025-06-03T19:50:08.224619Z"
  }
}