{
  "LTFM": {
    "icao": "LTFM",
    "metar": "LTFM 120720Z 03008KT 340V070 9999 SCT011 23/17 Q1016 NOSIG RMK RWY17L 01007KT 320V040 RWY34L 01008KT RWY16R 35007KT RWY36 02008KT 320V060 RWY18 02007KT 330V060",
    "metar_obs_time": "2025-06-12 07:20:00",
    "taf": "TAF LTFM 120440Z 1206/1312 35006KT 9999 BKN009 BECMG 1206/1209 05013KT SCT014 BECMG 1209/1212 CAVOK BECMG 1215/1218 SCT008 BECMG 1220/1223 BKN006 PROB30 1223/1303 4000 BR BKN004 BECMG 1304/1307 SCT012 BECMG 1307/1310 CAVOK",
    "taf_obs_time": "2025-06-12 04:40:00",
    "fetched_at": "2025-06-12T07:34:48.104601Z"
  },
  "LTFJ": {
    "icao": "LTFJ",
    "metar": "LTFJ 120720Z 06008KT 030V110 CAVOK 26/18 Q1015 NOSIG RMK RWY24R 05007KT 020V080 RWY06R 06008KT 360V090 RWY24L 05008KT 010V090",
    "metar_obs_time": "2025-06-12 07:20:00",
    "taf": "TAF LTFJ 120440Z 1206/1306 04017KT CAVOK BECMG 1218/1221 04007KT SCT009 PROB30 TEMPO 1300/1304 3500 BCFG BKN004",
    "taf_obs_time": "2025-06-12 04:40:00",
    "fetched_at": "2025-06-12T07:34:48.104601Z"
  },
  "LTBA": {
    "icao": "LTBA",
    "metar": "LTBA 120720Z 09005KT 050V120 CAVOK 26/18 Q1015 RMK RWY23 04006KT 350V100",
    "metar_obs_time": "2025-06-12 07:20:00",
    "taf": "TAF LTBA 120440Z 1206/1306 03007KT 9999 SCT012 BECMG 1208/1211 03017KT CAVOK BECMG 1217/1220 05007KT SCT012 BECMG 1220/1223 BKN006 BECMG 1304/1306 SCT012",
    "taf_obs_time": "2025-06-12 04:40:00",
    "fetched_at": "2025-06-12T07:34:48.104601Z"
  },
  "LTBU": {
    "icao": "LTBU",
    "metar": "LTBU 120720Z 06007KT 020V100 CAVOK 28/07 Q1016 RMK RWY22 08006KT 030V120",
    "metar_obs_time": "2025-06-12 07:20:00",
    "taf": "TAF LTBU 120440Z 1206/1306 34006KT CAVOK BECMG 1207/1210 04017KT BECMG 1216/1219 03007KT SCT012 PROB30 1300/1304 2200 BCFG BKN008",
    "taf_obs_time": "2025-06-12 04:40:00",
    "fetched_at": "2025-06-12T07:34:48.104601Z"
  }
}