{
  "LTFM": {
    "icao": "LTFM",
    "metar": "LTFM 041650Z 07008KT 040V100 CAVOK 28/13 Q1017 NOSIG RMK RWY17L 09007KT RWY34L 06008KT RWY16R 08008KT RWY36 06008KT 020V080 RWY18 09006KT",
    "metar_obs_time": "2025-06-04 16:50:00",
    "taf": "TAF LTFM 041640Z 0418/0524 06012KT CAVOK BECMG 0418/0420 VRB02KT BECMG 0503/0507 06012KT BECMG 0517/0520 SCT020 PROB30 TEMPO 0520/0524 3200 BR BKN004",
    "taf_obs_time": "2025-06-04 16:40:00",
    "fetched_at": "2025-06-04T17:17:06.716360Z"
  },
  "LTFJ": {
    "icao": "LTFJ",
    "metar": "LTFJ 041650Z 04011KT CAVOK 27/13 Q1017 NOSIG RMK RWY24R 04007KT RWY06R 03011KT RWY24L 04010KT",
    "metar_obs_time": "2025-06-04 16:50:00",
    "taf": "TAF LTFJ 041640Z 0418/0518 03007KT CAVOK BECMG 0507/0510 03017KT",
    "taf_obs_time": "2025-06-04 16:40:00",
    "fetched_at": "2025-06-04T17:17:06.716360Z"
  },
  "LTBA": {
    "icao": "LTBA",
    "metar": "LTBA 041650Z VRB01KT CAVOK 27/11 Q1016 RMK RWY23 VRB02KT",
    "metar_obs_time": "2025-06-04 16:50:00",
    "taf": "TAF LTBA 041640Z 0418/0518 24005KT CAVOK BECMG 0418/0421 03010KT BECMG 0506/0509 04015G25KT",
    "taf_obs_time": "2025-06-04 16:40:00",
    "fetched_at": "2025-06-04T17:17:06.716360Z"
  },
  "LTBU": {
    "icao": "LTBU",
    "metar": "LTBU 041650Z 15003KT CAVOK 27/12 Q1017 RMK RWY22 15002KT",
    "metar_obs_time": "2025-06-04 16:50:00",
    "taf": "TAF LTBU 041640Z 0418/0518 14010KT CAVOK BECMG 0418/0420 01006KT BECMG 0507/0510 05015G25KT",
    "taf_obs_time": "2025-06-04 16:40:00",
    "fetched_at": "2025-06-04T17:17:06.716360Z"
  }
}