{
  "LTFM": {
    "icao": "LTFM",
    "metar": "LTFM 181020Z 03008KT 330V060 9999 FEW025 26/16 Q1020 NOSIG RMK RWY17L 35010KT 320V030 RWY34L 02009KT 330V050 RWY16R 35009KT 310V010 RWY36 36010KT 330V030 RWY18 35010KT 300V010",
    "metar_obs_time": "2025-06-18 10:20:00",
    "taf": "TAF LTFM 180440Z 1806/1912 03010KT CAVOK BECMG 1818/1821 09006KT SCT008 PROB30 TEMPO 1823/1903 2000 BCFG BKN004 BECMG 1905/1908 03010KT CAVOK",
    "taf_obs_time": "2025-06-18 04:40:00",
    "fetched_at": "2025-06-18T10:42:43.423814Z"
  },
  "LTFJ": {
    "icao": "LTFJ",
    "metar": "LTFJ 181020Z 03011KT 330V060 CAVOK 30/14 Q1018 NOSIG RMK RWY24R 05011KT 010V100 RWY06R 02010KT 300V060 RWY24L 01011KT 330V050",
    "metar_obs_time": "2025-06-18 10:20:00",
    "taf": "TAF LTFJ 180440Z 1806/1906 04008KT CAVOK BECMG 1806/1808 24010KT BECMG 1810/1813 03016KT BECMG 1818/1821 04006KT PROB30 TEMPO 1901/1904 3500 PRFG",
    "taf_obs_time": "2025-06-18 04:40:00",
    "fetched_at": "2025-06-18T10:42:43.423814Z"
  },
  "LTBA": {
    "icao": "LTBA",
    "metar": "LTBA 181020Z 02013KT 340V080 CAVOK 30/12 Q1018 RMK RWY23 03011KT 350V060",
    "metar_obs_time": "2025-06-18 10:20:00",
    "taf": "TAF LTBA 180440Z 1806/1906 04010KT CAVOK BECMG 1806/1808 19007KT BECMG 1808/1811 04013KT",
    "taf_obs_time": "2025-06-18 04:40:00",
    "fetched_at": "2025-06-18T10:42:43.423814Z"
  },
  "LTBU": {
    "icao": "LTBU",
    "metar": "LTBU 181020Z 05010KT 010V080 CAVOK 30/13 Q1019 RMK RWY22 06009KT 020V100",
    "metar_obs_time": "2025-06-18 10:20:00",
    "taf": "TAF LTBU 180440Z 1806/1906 04005KT CAVOK BECMG 1806/1808 04015KT BECMG 1816/1819 03005KT",
    "taf_obs_time": "2025-06-18 04:40:00",
    "fetched_at": "2025-06-18T10:42:43.423814Z"
  }
}