{
  "LTFM": {
    "icao": "LTFM",
    "metar": "LTFM 041250Z 04007KT 350V060 CAVOK 30/14 Q1018 NOSIG RMK RWY17L 06007KT RWY34L 01006KT 320V070 RWY16R 04007KT 010V070 RWY36 05008KT RWY18 06007KT",
    "metar_obs_time": "2025-06-04 12:50:00",
    "taf": "TAF LTFM 041040Z 0412/0518 05012KT CAVOK BECMG 0416/0419 VRB02KT BECMG 0506/0509 05012KT",
    "taf_obs_time": "2025-06-04 10:40:00",
    "fetched_at": "2025-06-04T13:21:31.246979Z"
  },
  "LTFJ": {
    "icao": "LTFJ",
    "metar": "LTFJ 041250Z 25009KT 210V270 CAVOK 30/13 Q1017 NOSIG RMK RWY24R 23009KT RWY06R 22010KT RWY24L 24010KT",
    "metar_obs_time": "2025-06-04 12:50:00",
    "taf": "TAF LTFJ 041040Z 0412/0512 25012KT CAVOK BECMG 0412/0414 03008KT",
    "taf_obs_time": "2025-06-04 10:40:00",
    "fetched_at": "2025-06-04T13:21:31.246979Z"
  },
  "LTBA": {
    "icao": "LTBA",
    "metar": "LTBA 041250Z 24008KT CAVOK 26/15 Q1017 RMK RWY23 23009KT",
    "metar_obs_time": "2025-06-04 12:50:00",
    "taf": "TAF LTBA 041040Z 0412/0512 21012KT CAVOK BECMG 0412/0415 VRB02KT BECMG 0416/0419 04012KT",
    "taf_obs_time": "2025-06-04 10:40:00",
    "fetched_at": "2025-06-04T13:21:31.246979Z"
  },
  "LTBU": {
    "icao": "LTBU",
    "metar": "LTBU 041250Z 16009KT 120V190 9999 FEW035 29/14 Q1017 RMK RWY22 14008KT 070V180",
    "metar_obs_time": "2025-06-04 12:50:00",
    "taf": "TAF LTBU 041040Z 0412/0512 17006KT CAVOK BECMG 0417/0420 01010KT",
    "taf_obs_time": "2025-06-04 10:40:00",
    "fetched_at": "2025-06-04T13:21:31.246979Z"
  }
}