{
  "LTFM": {
    "icao": "LTFM",
    "metar": "LTFM 021650Z 06006KT 020V090 CAVOK 22/08 Q1019 NOSIG RMK RWY17L 09005KT RWY34L 05006KT RWY16R 07005KT RWY36 08006KT 020V100 RWY18 08004KT",
    "metar_obs_time": "2025-06-02 16:50:00",
    "taf": "TAF LTFM 021640Z 0218/0324 VRB02KT CAVOK BECMG 0305/0308 06012KT BECMG 0316/0319 19007KT",
    "taf_obs_time": "2025-06-02 16:40:00",
    "fetched_at": "2025-06-02T17:17:09.139520Z"
  },
  "LTFJ": {
    "icao": "LTFJ",
    "metar": "LTFJ 021650Z 04012KT CAVOK 21/12 Q1019 NOSIG RMK RWY24R 04007KT RWY06R 02011KT RWY24L 03009KT",
    "metar_obs_time": "2025-06-02 16:50:00",
    "taf": "TAF LTFJ 021640Z 0218/0318 03007KT CAVOK BECMG 0304/0307 24010KT BECMG 0309/0312 02010KT",
    "taf_obs_time": "2025-06-02 16:40:00",
    "fetched_at": "2025-06-02T17:17:09.139520Z"
  },
  "LTBA": {
    "icao": "LTBA",
    "metar": "LTBA 021650Z 19003KT 170V230 CAVOK 21/14 Q1019 RMK RWY23 17003KT 130V220",
    "metar_obs_time": "2025-06-02 16:50:00",
    "taf": "TAF LTBA 021640Z 0218/0318 04008KT CAVOK BECMG 0306/0309 21010KT BECMG 0313/0316 05007KT",
    "taf_obs_time": "2025-06-02 16:40:00",
    "fetched_at": "2025-06-02T17:17:09.139520Z"
  },
  "LTBU": {
    "icao": "LTBU",
    "metar": "LTBU 021650Z VRB02KT CAVOK 23/11 Q1019 RMK RWY22 06004KT",
    "metar_obs_time": "2025-06-02 16:50:00",
    "taf": "TAF LTBU 021640Z 0218/0318 VRB02KT CAVOK BECMG 0308/0311 17012KT BECMG 0315/0318 VRB02KT",
    "taf_obs_time": "2025-06-02 16:40:00",
    "fetched_at": "2025-06-02T17:17:09.139520Z"
  }
}