{
  "LTFM": {
    "icao": "LTFM",
    "metar": "LTFM 131620Z 06016KT CAVOK 22/16 Q1018 NOSIG RMK RWY17L 06014KT RWY34L 05013KT RWY16R 05015KT RWY36 05015KT RWY18 06014KT",
    "metar_obs_time": "2025-06-13 16:20:00",
    "taf": "TAF LTFM 131040Z 1312/1418 05018KT CAVOK BECMG 1316/1319 06008KT BECMG 1405/1408 03018KT SCT025 BECMG 1415/1418 VRB02KT",
    "taf_obs_time": "2025-06-13 10:40:00",
    "fetched_at": "2025-06-13T16:47:58.801113Z"
  },
  "LTFJ": {
    "icao": "LTFJ",
    "metar": "LTFJ 131620Z 05019KT CAVOK 23/14 Q1017 NOSIG RMK RWY24R 06014KT RWY06R 04018KT RWY24L 03019KT",
    "metar_obs_time": "2025-06-13 16:20:00",
    "taf": "TAF LTFJ 131040Z 1312/1412 06017KT 9999 FEW035 TEMPO 1312/1316 06020G30KT BECMG 1313/1315 CAVOK BECMG 1318/1321 04007KT TEMPO 1400/1404 SCT008 BECMG 1406/1409 04017KT SCT040",
    "taf_obs_time": "2025-06-13 10:40:00",
    "fetched_at": "2025-06-13T16:47:58.801113Z"
  },
  "LTBA": {
    "icao": "LTBA",
    "metar": "LTBA 131620Z 04014KT CAVOK 24/14 Q1017 RMK RWY23 04014KT 020V080",
    "metar_obs_time": "2025-06-13 16:20:00",
    "taf": "TAF LTBA 131040Z 1312/1412 04018KT CAVOK BECMG 1316/1319 05008KT BECMG 1405/1408 SCT040",
    "taf_obs_time": "2025-06-13 10:40:00",
    "fetched_at": "2025-06-13T16:47:58.801113Z"
  },
  "LTBU": {
    "icao": "LTBU",
    "metar": "LTBU 131620Z 05013KT CAVOK 23/14 Q1018 RMK RWY22 05012KT",
    "metar_obs_time": "2025-06-13 16:20:00",
    "taf": "TAF LTBU 131040Z 1312/1412 05016KT 9999 SCT025 BECMG 1312/1314 CAVOK BECMG 1316/1319 03006KT BECMG 1404/1407 04016KT SCT040",
    "taf_obs_time": "2025-06-13 10:40:00",
    "fetched_at": "2025-06-13T16:47:58.801113Z"
  }
}