{
  "LTFM": {
    "icao": "LTFM",
    "metar": "LTFM 172120Z 05007KT CAVOK 22/20 Q1018 NOSIG RMK RWY17L 05005KT RWY34L 04006KT RWY16R 02003KT 340V050 RWY36 05006KT 010V070 RWY18 08002KT",
    "metar_obs_time": "2025-06-17 21:20:00",
    "taf": "TAF LTFM 171640Z 1718/1824 07010KT CAVOK BECMG 1720/1723 30006KT SCT008 PROB30 TEMPO 1800/1803 2000 BCFG BKN004 BECMG 1804/1806 02012KT CAVOK BECMG 1816/1819 08007KT SCT008 BECMG 1819/1822 BKN004 PROB40 TEMPO 1822/1824 2000 BCFG",
    "taf_obs_time": "2025-06-17 16:40:00",
    "fetched_at": "2025-06-17T21:47:52.449843Z"
  },
  "LTFJ": {
    "icao": "LTFJ",
    "metar": "LTFJ 172120Z 04008KT CAVOK 21/14 Q1017 NOSIG RMK RWY24R 02003KT 350V070 RWY06R 04009KT RWY24L 05007KT",
    "metar_obs_time": "2025-06-17 21:20:00",
    "taf": "TAF LTFJ 171640Z 1718/1818 06006KT CAVOK BECMG 1806/1810 04016KT TEMPO 1810/1814 04016G26KT TEMPO 1814/1818 04016G26KT",
    "taf_obs_time": "2025-06-17 16:40:00",
    "fetched_at": "2025-06-17T21:47:52.449843Z"
  },
  "LTBA": {
    "icao": "LTBA",
    "metar": "LTBA 172120Z 04007KT CAVOK 24/11 Q1017 RMK RWY23 04006KT",
    "metar_obs_time": "2025-06-17 21:20:00",
    "taf": "TAF LTBA 171640Z 1718/1818 03009KT CAVOK",
    "taf_obs_time": "2025-06-17 16:40:00",
    "fetched_at": "2025-06-17T21:47:52.449843Z"
  },
  "LTBU": {
    "icao": "LTBU",
    "metar": "LTBU 172120Z 03007KT CAVOK 19/11 Q1018 RMK RWY22 02006KT",
    "metar_obs_time": "2025-06-17 21:20:00",
    "taf": "TAF LTBU 171640Z 1718/1818 36007KT CAVOK BECMG 1804/1807 06012KT",
    "taf_obs_time": "2025-06-17 16:40:00",
    "fetched_at": "2025-06-17T21:47:52.449843Z"
  }
}