{
  "LTFM": {
    "icao": "LTFM",
    "metar": "LTFM 171550Z 07009KT CAVOK 27/13 Q1017 NOSIG RMK RWY17L 08008KT RWY34L 06008KT RWY16R 07009KT RWY36 06009KT 020V090 RWY18 07008KT",
    "metar_obs_time": "2025-06-17 15:50:00",
    "taf": "TAF LTFM 171040Z 1712/1818 04012KT CAVOK BECMG 1715/1718 VRB02KT BECMG 1721/1724 SCT008 PROB30 TEMPO 1800/1803 2000 BCFG BKN004 BECMG 1804/1806 02012KT CAVOK BECMG 1815/1818 08007KT SCT008",
    "taf_obs_time": "2025-06-17 10:40:00",
    "fetched_at": "2025-06-17T16:28:18.496279Z"
  },
  "LTFJ": {
    "icao": "LTFJ",
    "metar": "LTFJ 171550Z 03011KT 350V060 CAVOK 28/11 Q1017 NOSIG RMK RWY24R 05011KT RWY06R 03013KT RWY24L 03013KT",
    "metar_obs_time": "2025-06-17 15:50:00",
    "taf": "TAF LTFJ 171040Z 1712/1812 24009KT CAVOK BECMG 1712/1714 04012KT BECMG 1718/1721 VRB02KT",
    "taf_obs_time": "2025-06-17 10:40:00",
    "fetched_at": "2025-06-17T16:28:18.496279Z"
  },
  "LTBA": {
    "icao": "LTBA",
    "metar": "LTBA 171550Z 23005KT CAVOK 26/11 Q1016 RMK RWY23 23006KT 190V250",
    "metar_obs_time": "2025-06-17 15:50:00",
    "taf": "TAF LTBA 171040Z 1712/1812 23007KT CAVOK BECMG 1713/1716 04012KT BECMG 1805/1808 18007KT",
    "taf_obs_time": "2025-06-17 10:40:00",
    "fetched_at": "2025-06-17T16:28:18.496279Z"
  },
  "LTBU": {
    "icao": "LTBU",
    "metar": "LTBU 171550Z 14007KT CAVOK 27/10 Q1017 RMK RWY22 VRB06KT",
    "metar_obs_time": "2025-06-17 15:50:00",
    "taf": "TAF LTBU 171040Z 1712/1812 16007KT 9999 SCT040 BECMG 1712/1715 CAVOK BECMG 1715/1718 35010KT BECMG 1804/1807 05012KT",
    "taf_obs_time": "2025-06-17 10:40:00",
    "fetched_at": "2025-06-17T16:28:18.496279Z"
  }
}