{
  "LTFM": {
    "icao": "LTFM",
    "metar": "LTFM 180550Z 04009KT 010V070 9999 FEW018 24/15 Q1019 NOSIG RMK RWY17L 03008KT RWY34L 01009KT RWY16R 03007KT 350V050 RWY36 02009KT RWY18 04007KT 010V070",
    "metar_obs_time": "2025-06-18 05:50:00",
    "taf": "TAF LTFM 180440Z 1806/1912 03010KT CAVOK BECMG 1818/1821 09006KT SCT008 PROB30 TEMPO 1823/1903 2000 BCFG BKN004 BECMG 1905/1908 03010KT CAVOK",
    "taf_obs_time": "2025-06-18 04:40:00",
    "fetched_at": "2025-06-18T06:27:26.095680Z"
  },
  "LTFJ": {
    "icao": "LTFJ",
    "metar": "LTFJ 180550Z 04009KT CAVOK 23/18 Q1019 NOSIG RMK RWY24R 06004KT 360V080 RWY06R 03006KT RWY24L 02007KT",
    "metar_obs_time": "2025-06-18 05:50:00",
    "taf": "TAF LTFJ 180440Z 1806/1906 04008KT CAVOK BECMG 1806/1808 24010KT BECMG 1810/1813 03016KT BECMG 1818/1821 04006KT PROB30 TEMPO 1901/1904 3500 PRFG",
    "taf_obs_time": "2025-06-18 04:40:00",
    "fetched_at": "2025-06-18T06:27:26.095680Z"
  },
  "LTBA": {
    "icao": "LTBA",
    "metar": "LTBA 180550Z 04010KT 020V080 CAVOK 26/15 Q1018 RMK RWY23 06008KT 030V090",
    "metar_obs_time": "2025-06-18 05:50:00",
    "taf": "TAF LTBA 180440Z 1806/1906 04010KT CAVOK BECMG 1806/1808 19007KT BECMG 1808/1811 04013KT",
    "taf_obs_time": "2025-06-18 04:40:00",
    "fetched_at": "2025-06-18T06:27:26.095680Z"
  },
  "LTBU": {
    "icao": "LTBU",
    "metar": "LTBU 180550Z 05009KT CAVOK 26/11 Q1019 RMK RWY22 06006KT 030V100",
    "metar_obs_time": "2025-06-18 05:50:00",
    "taf": "TAF LTBU 180440Z 1806/1906 04005KT CAVOK BECMG 1806/1808 04015KT BECMG 1816/1819 03005KT",
    "taf_obs_time": "2025-06-18 04:40:00",
    "fetched_at": "2025-06-18T06:27:26.095680Z"
  }
}