{
  "LTFM": {
    "icao": "LTFM",
    "metar": "LTFM 081650Z 04013KT 9999 SCT016 21/17 Q1014 NOSIG RMK RWY17L 03011KT RWY34L 02012KT RWY16R 03010KT RWY36 03014KT RWY18 04011KT",
    "metar_obs_time": "2025-06-08 16:50:00",
    "taf": "TAF LTFM 081640Z 0818/0924 03012KT 9999 BKN016 BECMG 0818/0821 BKN006 PROB30 0901/0905 2500 BCFG BKN004 BECMG 0906/0909 SCT016 BECMG 0912/0915 CAVOK",
    "taf_obs_time": "2025-06-08 16:40:00",
    "fetched_at": "2025-06-08T17:14:51.990170Z"
  },
  "LTFJ": {
    "icao": "LTFJ",
    "metar": "LTFJ 081650Z 03012KT CAVOK 21/17 Q1013 NOSIG RMK RWY24R 04010KT RWY06R 01011KT RWY24L 36011KT",
    "metar_obs_time": "2025-06-08 16:50:00",
    "taf": "TAF LTFJ 081640Z 0818/0918 03009KT CAVOK BECMG 0819/0822 SCT016 BECMG 0822/0901 BKN012 PROB30 0901/0904 2500 BCFG BKN005 BECMG 0905/0908 CAVOK BECMG 0908/0910 24010KT BECMG 0912/0914 03015KT",
    "taf_obs_time": "2025-06-08 16:40:00",
    "fetched_at": "2025-06-08T17:14:51.990170Z"
  },
  "LTBA": {
    "icao": "LTBA",
    "metar": "LTBA 081650Z 01009KT 9999 SCT021 21/16 Q1013 RMK RWY23 05009KT 010V080",
    "metar_obs_time": "2025-06-08 16:50:00",
    "taf": "TAF LTBA 081640Z 0818/0918 02012KT 9999 SCT016 BECMG 0820/0823 BKN012 PROB40 0823/0903 2200 BCFG BKN004 BECMG 0906/0909 CAVOK BECMG 0915/0918 SCT018",
    "taf_obs_time": "2025-06-08 16:40:00",
    "fetched_at": "2025-06-08T17:14:51.990170Z"
  },
  "LTBU": {
    "icao": "LTBU",
    "metar": "LTBU 081650Z 04010KT CAVOK 22/15 Q1014 RMK RWY22 04010KT",
    "metar_obs_time": "2025-06-08 16:50:00",
    "taf": "TAF LTBU 081640Z 0818/0918 05015KT CAVOK BECMG 0818/0821 03005KT SCT016 BECMG 0822/0824 BKN008 PROB40 0901/0905 2200 BCFG BKN004 BECMG 0905/0908 CAVOK BECMG 0912/0915 03015KT",
    "taf_obs_time": "2025-06-08 16:40:00",
    "fetched_at": "2025-06-08T17:14:51.990170Z"
  }
}