{
  "LTFM": {
    "icao": "LTFM",
    "metar": "LTFM 170720Z 29006G19KT 220V330 CAVOK 26/12 Q1017 NOSIG RMK RWY17L 33006KT 280V010 RWY34L 31006KT RWY16R 28006KT 250V340 RWY36 30004KT 220V020 RWY18 34006KT 310V010",
    "metar_obs_time": "2025-06-17 07:20:00",
    "taf": "TAF LTFM 170440Z 1706/1812 VRB02KT CAVOK BECMG 1706/1709 02012KT BECMG 1715/1718 VRB02KT BECMG 1803/1806 02012KT",
    "taf_obs_time": "2025-06-17 04:40:00",
    "fetched_at": "2025-06-17T07:48:55.805768Z"
  },
  "LTFJ": {
    "icao": "LTFJ",
    "metar": "LTFJ 170720Z 17004KT 070V220 CAVOK 25/11 Q1017 NOSIG RMK RWY24R VRB02KT RWY06R 21003KT 160V280 RWY24L VRB04KT",
    "metar_obs_time": "2025-06-17 07:20:00",
    "taf": "TAF LTFJ 170440Z 1706/1806 VRB02KT CAVOK BECMG 1708/1711 03012KT BECMG 1718/1721 VRB02KT",
    "taf_obs_time": "2025-06-17 04:40:00",
    "fetched_at": "2025-06-17T07:48:55.805768Z"
  },
  "LTBA": {
    "icao": "LTBA",
    "metar": "LTBA 170720Z 17005KT 120V220 CAVOK 23/13 Q1017 RMK RWY23 16005KT 120V220",
    "metar_obs_time": "2025-06-17 07:20:00",
    "taf": "TAF LTBA 170440Z 1706/1806 18005KT CAVOK BECMG 1711/1714 03010KT",
    "taf_obs_time": "2025-06-17 04:40:00",
    "fetched_at": "2025-06-17T07:48:55.805768Z"
  },
  "LTBU": {
    "icao": "LTBU",
    "metar": "LTBU 170720Z 36005KT 280V060 CAVOK 28/10 Q1017 RMK RWY22 33004KT 240V050",
    "metar_obs_time": "2025-06-17 07:20:00",
    "taf": "TAF LTBU 170440Z 1706/1806 36005KT CAVOK BECMG 1710/1713 06012KT BECMG 1717/1720 34008KT",
    "taf_obs_time": "2025-06-17 04:40:00",
    "fetched_at": "2025-06-17T07:48:55.805768Z"
  }
}