{
  "LTFM": {
    "icao": "LTFM",
    "metar": "LTFM 151950Z 10004KT 060V130 CAVOK 20/12 Q1018 NOSIG RMK RWY17L 12003KT RWY34L 06004KT 030V100 RWY16R 08003KT RWY36 VRB04KT RWY18 13003KT",
    "metar_obs_time": "2025-06-15 19:50:00",
    "taf": "TAF LTFM 151640Z 1518/1624 04012KT CAVOK BECMG 1518/1520 17007KT BECMG 1523/1601 25010KT TEMPO 1601/1605 FEW032 BECMG 1605/1607 01011KT BECMG 1617/1620 17007KT",
    "taf_obs_time": "2025-06-15 16:40:00",
    "fetched_at": "2025-06-15T20:27:19.346742Z"
  },
  "LTFJ": {
    "icao": "LTFJ",
    "metar": "LTFJ 151950Z 03006KT CAVOK 19/13 Q1017 NOSIG RMK RWY24R 02004KT 350V050 RWY06R 03007KT RWY24L 04005KT",
    "metar_obs_time": "2025-06-15 19:50:00",
    "taf": "TAF AMD LTFJ 151911Z 1519/1618 06012KT CAVOK BECMG 1521/1524 VRB02KT BECMG 1609/1612 03012KT",
    "taf_obs_time": "2025-06-15 19:11:00",
    "fetched_at": "2025-06-15T20:27:19.346742Z"
  },
  "LTBA": {
    "icao": "LTBA",
    "metar": "LTBA 151950Z 07008KT CAVOK 20/12 Q1017 RMK RWY23 08006KT",
    "metar_obs_time": "2025-06-15 19:50:00",
    "taf": "TAF LTBA 151640Z 1518/1618 01015KT CAVOK BECMG 1518/1520 03005KT BECMG 1605/1608 18010KT SCT032 BECMG 1610/1612 01012KT CAVOK",
    "taf_obs_time": "2025-06-15 16:40:00",
    "fetched_at": "2025-06-15T20:27:19.346742Z"
  },
  "LTBU": {
    "icao": "LTBU",
    "metar": "LTBU 151950Z 03006KT CAVOK 16/10 Q1017 RMK RWY22 03005KT",
    "metar_obs_time": "2025-06-15 19:50:00",
    "taf": "TAF LTBU 151640Z 1518/1618 05015G25KT CAVOK BECMG 1518/1520 03007KT BECMG 1523/1601 33010KT BECMG 1606/1608 03012KT SCT032 BECMG 1615/1618 VRB02KT",
    "taf_obs_time": "2025-06-15 16:40:00",
    "fetched_at": "2025-06-15T20:27:19.346742Z"
  }
}