{
  "LTFM": {
    "icao": "LTFM",
    "metar": "LTFM 162050Z 19007KT CAVOK 21/13 Q1016 NOSIG RMK RWY17L VRB02KT RWY34L 18006KT RWY16R VRB02KT RWY36 16007KT 110V190 RWY18 17005KT 140V200",
    "metar_obs_time": "2025-06-16 20:50:00",
    "taf": "TAF LTFM 161640Z 1618/1724 VRB02KT CAVOK BECMG 1705/1708 01012KT BECMG 1715/1718 VRB02KT",
    "taf_obs_time": "2025-06-16 16:40:00",
    "fetched_at": "2025-06-16T21:17:30.046733Z"
  },
  "LTFJ": {
    "icao": "LTFJ",
    "metar": "LTFJ 162050Z VRB02KT CAVOK 22/11 Q1016 NOSIG RMK RWY24R 03003KT 010V070 RWY06R VRB02KT RWY24L 06004KT",
    "metar_obs_time": "2025-06-16 20:50:00",
    "taf": "TAF LTFJ 161640Z 1618/1718 05012KT CAVOK BECMG 1619/1622 VRB02KT BECMG 1710/1714 01012KT",
    "taf_obs_time": "2025-06-16 16:40:00",
    "fetched_at": "2025-06-16T21:17:30.046733Z"
  },
  "LTBA": {
    "icao": "LTBA",
    "metar": "LTBA 162050Z 08005KT CAVOK 23/11 Q1016 RMK RWY23 07004KT",
    "metar_obs_time": "2025-06-16 20:50:00",
    "taf": "TAF LTBA 161640Z 1618/1718 VRB02KT CAVOK BECMG 1705/1708 21012KT BECMG 1711/1714 03009KT",
    "taf_obs_time": "2025-06-16 16:40:00",
    "fetched_at": "2025-06-16T21:17:30.046733Z"
  },
  "LTBU": {
    "icao": "LTBU",
    "metar": "LTBU 162050Z 00000KT CAVOK 17/11 Q1016 RMK RWY22 16001KT",
    "metar_obs_time": "2025-06-16 20:50:00",
    "taf": "TAF LTBU 161640Z 1618/1718 VRB02KT CAVOK BECMG 1621/1624 35012KT BECMG 1710/1713 13007KT",
    "taf_obs_time": "2025-06-16 16:40:00",
    "fetched_at": "2025-06-16T21:17:30.046733Z"
  }
}