{
  "LTFM": {
    "icao": "LTFM",
    "metar": "LTFM 010250Z 33006KT 290V350 9999 SCT008 BKN025 16/14 Q1017 NOSIG RMK RWY17L 30006KT RWY34L 31004KT RWY16R 29004KT RWY36 33006KT RWY18 31004KT",
    "metar_obs_time": "2025-06-01 02:50:00",
    "taf": "TAF LTFM 312240Z 0100/0206 01009KT CAVOK BECMG 0100/0102 SCT008 BKN025 PROB30 TEMPO 0104/0108 -SHRA BECMG 0109/0112 SCT028 BECMG 0112/0114 CAVOK BECMG 0118/0121 SCT006 BKN025",
    "taf_obs_time": "2025-05-31 22:40:00",
    "fetched_at": "2025-06-01T03:23:39.596513Z"
  },
  "LTFJ": {
    "icao": "LTFJ",
    "metar": "LTFJ 010250Z 04007KT 1600 R06L/P1500N R24R/1200D R06R/P1500D R24L/P1500N BCFG BKN004 14/14 Q1017 BECMG TL0350 4000 BR BKN006",
    "metar_obs_time": "2025-06-01 02:50:00",
    "taf": "TAF AMD LTFJ 312334Z 0100/0124 04005KT 4000 BR BKN006 TEMPO 0100/0104 1600 BCFG BKN004 BECMG 0106/0108 03015KT BKN030 TEMPO 0108/0112 -SHRA FEW020CB BKN030 BECMG 0113/0116 CAVOK BECMG 0118/0121 04005KT SCT006 BECMG 0121/0124 BKN006",
    "taf_obs_time": "2025-05-31 23:34:00",
    "fetched_at": "2025-06-01T03:23:39.596513Z"
  },
  "LTBA": {
    "icao": "LTBA",
    "metar": "LTBA 010250Z 36005KT 9999 SCT035 16/13 Q1017 RMK RWY23 01004KT",
    "metar_obs_time": "2025-06-01 02:50:00",
    "taf": "TAF LTBA 312240Z 0100/0124 03007KT CAVOK BECMG 0100/0103 SCT035 BECMG 0106/0109 01017KT PROB30 TEMPO 0107/0111 -SHRA BKN025 BECMG 0111/0114 CAVOK BECMG 0115/0118 SCT006 BKN025",
    "taf_obs_time": "2025-05-31 22:40:00",
    "fetched_at": "2025-06-01T03:23:39.596513Z"
  },
  "LTBU": {
    "icao": "LTBU",
    "metar": "LTBU 010250Z 35007KT CAVOK 14/07 Q1017 RMK RWY22 35007KT",
    "metar_obs_time": "2025-06-01 02:50:00",
    "taf": "TAF LTBU 312240Z 0100/0124 36007KT CAVOK BECMG 0103/0105 SCT035 BECMG 0105/0108 02017KT BECMG 0115/0118 35007KT",
    "taf_obs_time": "2025-05-31 22:40:00",
    "fetched_at": "2025-06-01T03:23:39.596513Z"
  }
}