{
  "LTFM": {
    "icao": "LTFM",
    "metar": "LTFM 120420Z 01008KT 330V040 9999 BKN006 21/19 Q1015 NOSIG RMK RWY17L 01006KT RWY34L 32006KT RWY16R 32003KT 290V350 RWY36 36008KT RWY18 02006KT",
    "metar_obs_time": "2025-06-12 04:20:00",
    "taf": "TAF LTFM 112240Z 1200/1306 35006KT 9999 BKN006 TEMPO 1200/1204 2000 BCFG BKN004 BECMG 1204/1206 SCT012 BECMG 1206/1209 05013KT CAVOK BECMG 1213/1215 SCT008",
    "taf_obs_time": "2025-06-11 22:40:00",
    "fetched_at": "2025-06-12T04:49:50.817089Z"
  },
  "LTFJ": {
    "icao": "LTFJ",
    "metar": "LTFJ 120420Z 05008KT 9999 SCT012 21/18 Q1015 NOSIG RMK RWY24R 04005KT 360V070 RWY06R 03006KT RWY24L 03005KT",
    "metar_obs_time": "2025-06-12 04:20:00",
    "taf": "TAF LTFJ 112240Z 1200/1224 04007KT 9999 BKN003 TEMPO 1200/1204 2500 BCFG BECMG 1205/1207 SCT012 BECMG 1207/1211 04017KT CAVOK BECMG 1217/1220 04007KT SCT004",
    "taf_obs_time": "2025-06-11 22:40:00",
    "fetched_at": "2025-06-12T04:49:50.817089Z"
  },
  "LTBA": {
    "icao": "LTBA",
    "metar": "LTBA 120420Z 05008KT 9999 FEW013 22/18 Q1015 RMK RWY23 05009KT",
    "metar_obs_time": "2025-06-12 04:20:00",
    "taf": "TAF LTBA 112240Z 1200/1224 03007KT CAVOK BECMG 1200/1202 SCT012 TEMPO 1200/1204 2800 BR BECMG 1208/1211 03017KT CAVOK BECMG 1217/1220 05007KT",
    "taf_obs_time": "2025-06-11 22:40:00",
    "fetched_at": "2025-06-12T04:49:50.817089Z"
  },
  "LTBU": {
    "icao": "LTBU",
    "metar": "LTBU 120420Z 35008KT CAVOK 22/10 Q1015 RMK RWY22 35006KT",
    "metar_obs_time": "2025-06-12 04:20:00",
    "taf": "TAF LTBU 112240Z 1200/1224 03007KT CAVOK BECMG 1200/1202 SCT012 TEMPO 1200/1204 2500 BR BKN008 BECMG 1204/1207 CAVOK BECMG 1209/1211 03017KT BECMG 1216/1219 03007KT",
    "taf_obs_time": "2025-06-11 22:40:00",
    "fetched_at": "2025-06-12T04:49:50.817089Z"
  }
}