{
  "LTFM": {
    "icao": "LTFM",
    "metar": "LTFM 200650Z 23009KT 190V250 CAVOK 28/13 Q1014 NOSIG RMK RWY17L 25006KT 210V270 RWY34L 22008KT RWY16R 22008KT RWY36 22008KT 180V240 RWY18 23008KT 180V250",
    "metar_obs_time": "2025-06-20 06:50:00",
    "taf": "TAF LTFM 200440Z 2006/2112 23006KT CAVOK BECMG 2006/2009 34013KT SCT016 BECMG 2013/2016 04015KT BKN008 BECMG 2018/2021 SCT016",
    "taf_obs_time": "2025-06-20 04:40:00",
    "fetched_at": "2025-06-20T07:19:37.041435Z"
  },
  "LTFJ": {
    "icao": "LTFJ",
    "metar": "LTFJ 200650Z 24005KT 180V290 9999 FEW035 25/10 Q1014 NOSIG RMK RWY24R 23005KT RWY06R 22006KT 200V260 RWY24L 22006KT",
    "metar_obs_time": "2025-06-20 06:50:00",
    "taf": "TAF LTFJ 200440Z 2006/2106 24007KT 9999 FEW035 BECMG 2009/2013 03012KT BECMG 2018/2022 BKN035 TEMPO 2023/2102 -SHRA",
    "taf_obs_time": "2025-06-20 04:40:00",
    "fetched_at": "2025-06-20T07:19:37.041435Z"
  },
  "LTBA": {
    "icao": "LTBA",
    "metar": "LTBA 200650Z 21006KT 180V240 CAVOK 23/17 Q1014 RMK RWY23 22007KT 190V250",
    "metar_obs_time": "2025-06-20 06:50:00",
    "taf": "TAF LTBA 200440Z 2006/2106 20006KT CAVOK BECMG 2009/2012 02015KT SCT016 BECMG 2015/2018 BKN009 BECMG 2022/2101 SCT016",
    "taf_obs_time": "2025-06-20 04:40:00",
    "fetched_at": "2025-06-20T07:19:37.041435Z"
  },
  "LTBU": {
    "icao": "LTBU",
    "metar": "LTBU 200650Z 30006KT 230V340 CAVOK 29/14 Q1014 RMK RWY22 32005KT 250V020",
    "metar_obs_time": "2025-06-20 06:50:00",
    "taf": "TAF LTBU 200440Z 2006/2106 VRB02KT CAVOK BECMG 2008/2011 03015KT SCT022 TEMPO 2011/2015 03016G26KT -SHRA FEW018CB BKN022 BECMG 2020/2023 03005KT",
    "taf_obs_time": "2025-06-20 04:40:00",
    "fetched_at": "2025-06-20T07:19:37.041435Z"
  }
}