{
  "LTFM": {
    "icao": "LTFM",
    "metar": "LTFM 020520Z 05004KT 360V090 CAVOK 19/13 Q1020 NOSIG RMK RWY17L VRB02KT RWY34L 36004KT 310V050 RWY16R VRB02KT RWY36 03005KT 340V080 RWY18 VRB02KT",
    "metar_obs_time": "2025-06-02 05:20:00",
    "taf": "TAF LTFM 020440Z 0206/0312 02010KT CAVOK BECMG 0217/0220 15005KT BECMG 0305/0308 05010KT",
    "taf_obs_time": "2025-06-02 04:40:00",
    "fetched_at": "2025-06-02T05:44:28.011180Z"
  },
  "LTFJ": {
    "icao": "LTFJ",
    "metar": "LTFJ 020520Z 17003KT 120V230 9999 SCT017 19/14 Q1020 NOSIG RMK RWY24R VRB02KT RWY06R VRB02KT RWY24L 21003KT 180V250",
    "metar_obs_time": "2025-06-02 05:20:00",
    "taf": "TAF LTFJ 020440Z 0206/0306 VRB02KT 9999 SCT017 BECMG 0208/0212 02015KT CAVOK BECMG 0217/0220 03005KT",
    "taf_obs_time": "2025-06-02 04:40:00",
    "fetched_at": "2025-06-02T05:44:28.011180Z"
  },
  "LTBA": {
    "icao": "LTBA",
    "metar": "LTBA 020520Z 15005KT 120V180 9999 FEW011 19/15 Q1020 RMK RWY23 VRB04KT",
    "metar_obs_time": "2025-06-02 05:20:00",
    "taf": "TAF LTBA 020440Z 0206/0306 22008KT CAVOK BECMG 0211/0213 02010KT",
    "taf_obs_time": "2025-06-02 04:40:00",
    "fetched_at": "2025-06-02T05:44:28.011180Z"
  },
  "LTBU": {
    "icao": "LTBU",
    "metar": "LTBU 020520Z 01004KT 320V040 CAVOK 21/08 Q1020 RMK RWY22 02003KT 330V050",
    "metar_obs_time": "2025-06-02 05:20:00",
    "taf": "TAF LTBU 020440Z 0206/0306 VRB02KT CAVOK TEMPO 0209/0213 17012KT SCT040 BECMG 0213/0215 04012KT BECMG 0217/0220 VRB02KT",
    "taf_obs_time": "2025-06-02 04:40:00",
    "fetched_at": "2025-06-02T05:44:28.011180Z"
  }
}