{
  "LTFM": {
    "icao": "LTFM",
    "metar": "LTFM 041120Z 05009KT 020V140 CAVOK 29/14 Q1018 NOSIG RMK RWY17L 06008KT 030V090 RWY34L 03008KT 340V070 RWY16R 05008KT 020V080 RWY36 05010KT RWY18 06008KT",
    "metar_obs_time": "2025-06-04 11:20:00",
    "taf": "TAF LTFM 041040Z 0412/0518 05012KT CAVOK BECMG 0416/0419 VRB02KT BECMG 0506/0509 05012KT",
    "taf_obs_time": "2025-06-04 10:40:00",
    "fetched_at": "2025-06-04T11:32:39.153162Z"
  },
  "LTFJ": {
    "icao": "LTFJ",
    "metar": "LTFJ 041120Z 21009KT 190V250 CAVOK 29/12 Q1018 NOSIG RMK RWY24R 23010KT RWY06R 22010KT RWY24L 22009KT",
    "metar_obs_time": "2025-06-04 11:20:00",
    "taf": "TAF LTFJ 041040Z 0412/0512 25012KT CAVOK BECMG 0412/0414 03008KT",
    "taf_obs_time": "2025-06-04 10:40:00",
    "fetched_at": "2025-06-04T11:32:39.153162Z"
  },
  "LTBA": {
    "icao": "LTBA",
    "metar": "LTBA 041120Z 22008KT CAVOK 25/16 Q1018 RMK RWY23 23008KT",
    "metar_obs_time": "2025-06-04 11:20:00",
    "taf": "TAF LTBA 041040Z 0412/0512 21012KT CAVOK BECMG 0412/0415 VRB02KT BECMG 0416/0419 04012KT",
    "taf_obs_time": "2025-06-04 10:40:00",
    "fetched_at": "2025-06-04T11:32:39.153162Z"
  },
  "LTBU": {
    "icao": "LTBU",
    "metar": "LTBU 041120Z 19009KT 140V210 9999 FEW035 30/14 Q1018 RMK RWY22 14008KT 110V180",
    "metar_obs_time": "2025-06-04 11:20:00",
    "taf": "TAF LTBU 041040Z 0412/0512 17006KT CAVOK BECMG 0417/0420 01010KT",
    "taf_obs_time": "2025-06-04 10:40:00",
    "fetched_at": "2025-06-04T11:32:39.153162Z"
  }
}