{
  "LTFM": {
    "icao": "LTFM",
    "metar": "LTFM 022020Z VRB02KT CAVOK 20/09 Q1020 NOSIG",
    "metar_obs_time": "2025-06-02 20:20:00",
    "taf": "TAF LTFM 021640Z 0218/0324 VRB02KT CAVOK BECMG 0305/0308 06012KT BECMG 0316/0319 19007KT",
    "taf_obs_time": "2025-06-02 16:40:00",
    "fetched_at": "2025-06-02T20:29:12.790854Z"
  },
  "LTFJ": {
    "icao": "LTFJ",
    "metar": "LTFJ 022020Z 04006KT CAVOK 19/13 Q1020 NOSIG",
    "metar_obs_time": "2025-06-02 20:20:00",
    "taf": "TAF LTFJ 021640Z 0218/0318 03007KT CAVOK BECMG 0304/0307 24010KT BECMG 0309/0312 02010KT",
    "taf_obs_time": "2025-06-02 16:40:00",
    "fetched_at": "2025-06-02T20:29:12.790854Z"
  },
  "LTBA": {
    "icao": "LTBA",
    "metar": "LTBA 022020Z VRB02KT CAVOK 20/10 Q1020",
    "metar_obs_time": "2025-06-02 20:20:00",
    "taf": "TAF LTBA 021640Z 0218/0318 04008KT CAVOK BECMG 0306/0309 21010KT BECMG 0313/0316 05007KT",
    "taf_obs_time": "2025-06-02 16:40:00",
    "fetched_at": "2025-06-02T20:29:12.790854Z"
  },
  "LTBU": {
    "icao": "LTBU",
    "metar": "LTBU 022020Z VRB02KT CAVOK 15/11 Q1020",
    "metar_obs_time": "2025-06-02 20:20:00",
    "taf": "TAF LTBU 021640Z 0218/0318 VRB02KT CAVOK BECMG 0308/0311 17012KT BECMG 0315/0318 VRB02KT",
    "taf_obs_time": "2025-06-02 16:40:00",
    "fetched_at": "2025-06-02T20:29:12.790854Z"
  }
}