{
  "LTFM": {
    "icao": "LTFM",
    "metar": "LTFM 180820Z 03008KT 350V080 CAVOK 26/14 Q1020 NOSIG RMK RWY17L 02008KT 350V050 RWY34L 04007KT 340V060 RWY16R 01007KT 320V060 RWY36 05008KT 020V080 RWY18 03007KT 340V060",
    "metar_obs_time": "2025-06-18 08:20:00",
    "taf": "TAF LTFM 180440Z 1806/1912 03010KT CAVOK BECMG 1818/1821 09006KT SCT008 PROB30 TEMPO 1823/1903 2000 BCFG BKN004 BECMG 1905/1908 03010KT CAVOK",
    "taf_obs_time": "2025-06-18 04:40:00",
    "fetched_at": "2025-06-18T08:34:53.138684Z"
  },
  "LTFJ": {
    "icao": "LTFJ",
    "metar": "LTFJ 180820Z 07010KT 040V100 CAVOK 28/11 Q1019 NOSIG RMK RWY24R 08009KT 040V100 RWY06R 05008KT RWY24L 05011KT",
    "metar_obs_time": "2025-06-18 08:20:00",
    "taf": "TAF LTFJ 180440Z 1806/1906 04008KT CAVOK BECMG 1806/1808 24010KT BECMG 1810/1813 03016KT BECMG 1818/1821 04006KT PROB30 TEMPO 1901/1904 3500 PRFG",
    "taf_obs_time": "2025-06-18 04:40:00",
    "fetched_at": "2025-06-18T08:34:53.138684Z"
  },
  "LTBA": {
    "icao": "LTBA",
    "metar": "LTBA 180820Z 09010KT 070V130 CAVOK 28/15 Q1019 RMK RWY23 07008KT 020V110",
    "metar_obs_time": "2025-06-18 08:20:00",
    "taf": "TAF LTBA 180440Z 1806/1906 04010KT CAVOK BECMG 1806/1808 19007KT BECMG 1808/1811 04013KT",
    "taf_obs_time": "2025-06-18 04:40:00",
    "fetched_at": "2025-06-18T08:34:53.138684Z"
  },
  "LTBU": {
    "icao": "LTBU",
    "metar": "LTBU 180820Z 02011KT 350V070 CAVOK 29/13 Q1019 RMK RWY22 05011KT 020V100",
    "metar_obs_time": "2025-06-18 08:20:00",
    "taf": "TAF LTBU 180440Z 1806/1906 04005KT CAVOK BECMG 1806/1808 04015KT BECMG 1816/1819 03005KT",
    "taf_obs_time": "2025-06-18 04:40:00",
    "fetched_at": "2025-06-18T08:34:53.138684Z"
  }
}