{
  "LTFM": {
    "icao": "LTFM",
    "metar": "LTFM 160620Z 33005KT 270V030 CAVOK 23/11 Q1017 NOSIG RMK RWY17L 33005KT 260V360 RWY34L 31005KT 270V350 RWY16R 33006KT 280V350 RWY36 34006KT 290V020 RWY18 34005KT 250V030",
    "metar_obs_time": "2025-06-16 06:20:00",
    "taf": "TAF LTFM 160440Z 1606/1712 28005KT CAVOK BECMG 1606/1609 36010KT BECMG 1614/1616 07010KT BECMG 1618/1621 18007KT BECMG 1705/1708 36012KT",
    "taf_obs_time": "2025-06-16 04:40:00",
    "fetched_at": "2025-06-16T06:40:35.651782Z"
  },
  "LTFJ": {
    "icao": "LTFJ",
    "metar": "LTFJ 160620Z 21004KT 120V270 CAVOK 22/13 Q1017 NOSIG RMK RWY24R 23003KT 190V260 RWY06R VRB02KT RWY24L VRB02KT",
    "metar_obs_time": "2025-06-16 06:20:00",
    "taf": "TAF LTFJ 160440Z 1606/1706 VRB02KT CAVOK BECMG 1608/1612 03012KT BECMG 1622/1702 VRB02KT",
    "taf_obs_time": "2025-06-16 04:40:00",
    "fetched_at": "2025-06-16T06:40:35.651782Z"
  },
  "LTBA": {
    "icao": "LTBA",
    "metar": "LTBA 160620Z 19005KT 150V220 CAVOK 21/14 Q1017 RMK RWY23 17006KT 140V220",
    "metar_obs_time": "2025-06-16 06:20:00",
    "taf": "TAF LTBA 160440Z 1606/1706 VRB02KT CAVOK BECMG 1609/1612 03012KT BECMG 1700/1703 VRB02KT",
    "taf_obs_time": "2025-06-16 04:40:00",
    "fetched_at": "2025-06-16T06:40:35.651782Z"
  },
  "LTBU": {
    "icao": "LTBU",
    "metar": "LTBU 160620Z 34008KT 300V030 CAVOK 24/09 Q1017 RMK RWY22 01008KT 340V040",
    "metar_obs_time": "2025-06-16 06:20:00",
    "taf": "TAF LTBU 160440Z 1606/1706 32007KT CAVOK BECMG 1606/1608 04012KT BECMG 1616/1617 VRB02KT",
    "taf_obs_time": "2025-06-16 04:40:00",
    "fetched_at": "2025-06-16T06:40:35.651782Z"
  }
}