{
  "LTFM": {
    "icao": "LTFM",
    "metar": "LTFM 190620Z 05008KT 020V080 9999 SCT011 24/18 Q1019 NOSIG RMK RWY17L 05006KT 360V060 RWY34L 03007KT 350V070 RWY16R 05007KT RWY36 03008KT 360V070 RWY18 05006KT 350V100",
    "metar_obs_time": "2025-06-19 06:20:00",
    "taf": "TAF LTFM 190440Z 1906/2012 05012KT 9999 SCT011 BECMG 1910/1913 CAVOK BECMG 1917/1920 VRB02KT BECMG 2006/2009 36012KT SCT016",
    "taf_obs_time": "2025-06-19 04:40:00",
    "fetched_at": "2025-06-19T06:52:51.248622Z"
  },
  "LTFJ": {
    "icao": "LTFJ",
    "metar": "LTFJ 190620Z 05010KT 010V080 CAVOK 24/18 Q1018 NOSIG RMK RWY24R 05008KT RWY06R 04012KT RWY24L 05010KT",
    "metar_obs_time": "2025-06-19 06:20:00",
    "taf": "TAF LTFJ 190440Z 1906/2006 04009KT 9999 SCT005 BECMG 1906/1908 CAVOK TEMPO 1911/1915 05015G25KT",
    "taf_obs_time": "2025-06-19 04:40:00",
    "fetched_at": "2025-06-19T06:52:51.248622Z"
  },
  "LTBA": {
    "icao": "LTBA",
    "metar": "LTBA 190620Z 06010KT 030V090 CAVOK 27/15 Q1018 RMK RWY23 07009KT 040V100",
    "metar_obs_time": "2025-06-19 06:20:00",
    "taf": "TAF LTBA 190440Z 1906/2006 04012KT CAVOK BECMG 1919/1922 VRB02KT",
    "taf_obs_time": "2025-06-19 04:40:00",
    "fetched_at": "2025-06-19T06:52:51.248622Z"
  },
  "LTBU": {
    "icao": "LTBU",
    "metar": "LTBU 190620Z 08007KT 050V110 9999 FEW040 27/13 Q1018 RMK RWY22 12005KT 070V160",
    "metar_obs_time": "2025-06-19 06:20:00",
    "taf": "TAF LTBU 190440Z 1906/2006 06013KT CAVOK BECMG 1919/1922 VRB02KT",
    "taf_obs_time": "2025-06-19 04:40:00",
    "fetched_at": "2025-06-19T06:52:51.248622Z"
  }
}