{
  "LTFM": {
    "icao": "LTFM",
    "metar": "LTFM 020820Z VRB05KT CAVOK 22/10 Q1020 NOSIG RMK RWY17L 02005KT 340V060 RWY34L 36007KT 320V050 RWY16R 01006KT 330V060 RWY36 01006KT 320V040 RWY18 04005KT 330V100",
    "metar_obs_time": "2025-06-02 08:20:00",
    "taf": "TAF LTFM 020440Z 0206/0312 02010KT CAVOK BECMG 0217/0220 15005KT BECMG 0305/0308 05010KT",
    "taf_obs_time": "2025-06-02 04:40:00",
    "fetched_at": "2025-06-02T08:54:00.866111Z"
  },
  "LTFJ": {
    "icao": "LTFJ",
    "metar": "LTFJ 020820Z 23009KT 9999 FEW020 21/15 Q1020 NOSIG RMK RWY24R 23010KT RWY06R 22010KT RWY24L 22009KT",
    "metar_obs_time": "2025-06-02 08:20:00",
    "taf": "TAF LTFJ 020440Z 0206/0306 VRB02KT 9999 SCT017 BECMG 0208/0212 02015KT CAVOK BECMG 0217/0220 03005KT",
    "taf_obs_time": "2025-06-02 04:40:00",
    "fetched_at": "2025-06-02T08:54:00.866111Z"
  },
  "LTBA": {
    "icao": "LTBA",
    "metar": "LTBA 020820Z 22008KT 9999 FEW035 20/16 Q1020 RMK RWY23 23008KT",
    "metar_obs_time": "2025-06-02 08:20:00",
    "taf": "TAF LTBA 020440Z 0206/0306 22008KT CAVOK BECMG 0211/0213 02010KT",
    "taf_obs_time": "2025-06-02 04:40:00",
    "fetched_at": "2025-06-02T08:54:00.866111Z"
  },
  "LTBU": {
    "icao": "LTBU",
    "metar": "LTBU 020820Z 12005KT 060V180 CAVOK 24/11 Q1020 RMK RWY22 13006KT 060V180",
    "metar_obs_time": "2025-06-02 08:20:00",
    "taf": "TAF LTBU 020440Z 0206/0306 VRB02KT CAVOK TEMPO 0209/0213 17012KT SCT040 BECMG 0213/0215 04012KT BECMG 0217/0220 VRB02KT",
    "taf_obs_time": "2025-06-02 04:40:00",
    "fetched_at": "2025-06-02T08:54:00.866111Z"
  }
}