{
  "LTFM": {
    "icao": "LTFM",
    "metar": "LTFM 101820Z 03014KT 9999 FEW014 21/16 Q1018 NOSIG RMK RWY17L 04012KT RWY34L 02013KT RWY16R 02014KT RWY36 03015KT RWY18 04012KT",
    "metar_obs_time": "2025-06-10 18:20:00",
    "taf": "TAF LTFM 101640Z 1018/1124 03018G28KT 9999 FEW014 SCT020 BECMG 1018/1021 04012KT BECMG 1103/1106 03015G25KT BECMG 1108/1111 CAVOK BECMG 1117/1120 36005KT BKN006 TEMPO 1120/1124 2500 BR",
    "taf_obs_time": "2025-06-10 16:40:00",
    "fetched_at": "2025-06-10T18:50:24.238255Z"
  },
  "LTFJ": {
    "icao": "LTFJ",
    "metar": "LTFJ 101820Z 05014KT 9999 BKN025 21/17 Q1017 NOSIG RMK RWY24R 05012KT RWY06R 04014KT RWY24L 04013KT",
    "metar_obs_time": "2025-06-10 18:20:00",
    "taf": "TAF LTFJ 101640Z 1018/1118 04012KT 9999 BKN015 BECMG 1110/1113 SCT035 TEMPO 1112/1116 04015G25KT",
    "taf_obs_time": "2025-06-10 16:40:00",
    "fetched_at": "2025-06-10T18:50:24.238255Z"
  },
  "LTBA": {
    "icao": "LTBA",
    "metar": "LTBA 101820Z 04014KT 9999 FEW022 21/17 Q1016 RMK RWY23 04014KT 360V080",
    "metar_obs_time": "2025-06-10 18:20:00",
    "taf": "TAF LTBA 101640Z 1018/1118 03016G26KT 9999 SCT023 BECMG 1019/1022 04014KT BECMG 1023/1102 BKN022 BECMG 1104/1107 03018G28KT SCT025 BECMG 1109/1112 CAVOK",
    "taf_obs_time": "2025-06-10 16:40:00",
    "fetched_at": "2025-06-10T18:50:24.238255Z"
  },
  "LTBU": {
    "icao": "LTBU",
    "metar": "LTBU 101820Z 04018KT CAVOK 20/14 Q1016 RMK RWY22 03014KT",
    "metar_obs_time": "2025-06-10 18:20:00",
    "taf": "TAF LTBU 101640Z 1018/1118 04022G32KT 9999 FEW025 BECMG 1018/1021 04014KT BECMG 1106/1109 04018G28KT",
    "taf_obs_time": "2025-06-10 16:40:00",
    "fetched_at": "2025-06-10T18:50:24.238255Z"
  }
}