{
  "LTFM": {
    "icao": "LTFM",
    "metar": "LTFM 031050Z 05010KT 010V070 CAVOK 26/13 Q1019 NOSIG RMK RWY17L 07009KT RWY34L 04009KT 010V070 RWY16R 05010KT 020V080 RWY36 06011KT 020V080 RWY18 06010KT",
    "metar_obs_time": "2025-06-03 10:50:00",
    "taf": "TAF LTFM 031040Z 0312/0418 06012KT CAVOK BECMG 0316/0319 18005KT BECMG 0407/0410 05010KT",
    "taf_obs_time": "2025-06-03 10:40:00",
    "fetched_at": "2025-06-03T11:18:14.068103Z"
  },
  "LTFJ": {
    "icao": "LTFJ",
    "metar": "LTFJ 031050Z 23009KT CAVOK 26/13 Q1019 NOSIG RMK RWY24R 25009KT RWY06R 22010KT RWY24L 22010KT",
    "metar_obs_time": "2025-06-03 10:50:00",
    "taf": "TAF LTFJ 031040Z 0312/0412 23010KT CAVOK BECMG 0312/0315 04009KT BECMG 0405/0408 23010KT BECMG 0409/0412 04009KT",
    "taf_obs_time": "2025-06-03 10:40:00",
    "fetched_at": "2025-06-03T11:18:14.068103Z"
  },
  "LTBA": {
    "icao": "LTBA",
    "metar": "LTBA 031050Z 24008KT 9999 FEW025 24/14 Q1019 RMK RWY23 25008KT",
    "metar_obs_time": "2025-06-03 10:50:00",
    "taf": "TAF LTBA 031040Z 0312/0412 21010KT CAVOK BECMG 0312/0315 05008KT BECMG 0406/0409 21010KT",
    "taf_obs_time": "2025-06-03 10:40:00",
    "fetched_at": "2025-06-03T11:18:14.068103Z"
  },
  "LTBU": {
    "icao": "LTBU",
    "metar": "LTBU 031050Z 16008KT 120V220 9999 FEW040 27/12 Q1019 RMK RWY22 16009KT 120V200",
    "metar_obs_time": "2025-06-03 10:50:00",
    "taf": "TAF LTBU 031040Z 0312/0412 VRB02KT CAVOK BECMG 0407/0410 17012KT",
    "taf_obs_time": "2025-06-03 10:40:00",
    "fetched_at": "2025-06-03T11:18:14.068103Z"
  }
}