{
  "LTFM": {
    "icao": "LTFM",
    "metar": "LTFM 132320Z 06008KT 010V090 9999 SCT017 21/17 Q1019 NOSIG RMK RWY17L 06008KT RWY34L 05007KT RWY16R 05008KT RWY36 06008KT 010V070 RWY18 07008KT",
    "metar_obs_time": "2025-06-13 23:20:00",
    "taf": "TAF LTFM 132240Z 1400/1506 06010KT 9999 SCT017 BECMG 1405/1408 03015G25KT BECMG 1412/1415 02012KT BECMG 1415/1418 VRB02KT CAVOK BECMG 1504/1506 36012KT",
    "taf_obs_time": "2025-06-13 22:40:00",
    "fetched_at": "2025-06-13T23:46:22.600226Z"
  },
  "LTFJ": {
    "icao": "LTFJ",
    "metar": "LTFJ 132320Z 04008KT CAVOK 18/16 Q1018 NOSIG RMK RWY24R 04007KT RWY06R 04008KT RWY24L 05005KT",
    "metar_obs_time": "2025-06-13 23:20:00",
    "taf": "TAF LTFJ 132240Z 1400/1424 03007KT CAVOK PROB30 1403/1407 SCT015 BECMG 1407/1409 03017KT SCT035 BECMG 1414/1418 03005KT CAVOK",
    "taf_obs_time": "2025-06-13 22:40:00",
    "fetched_at": "2025-06-13T23:46:22.600226Z"
  },
  "LTBA": {
    "icao": "LTBA",
    "metar": "LTBA 132320Z 04011KT CAVOK 20/16 Q1018 RMK RWY23 04009KT",
    "metar_obs_time": "2025-06-13 23:20:00",
    "taf": "TAF LTBA 132240Z 1400/1424 04009KT CAVOK BECMG 1405/1408 03015G25KT SCT040 BECMG 1415/1418 03007KT CAVOK",
    "taf_obs_time": "2025-06-13 22:40:00",
    "fetched_at": "2025-06-13T23:46:22.600226Z"
  },
  "LTBU": {
    "icao": "LTBU",
    "metar": "LTBU 132320Z 04011KT CAVOK 18/15 Q1018 RMK RWY22 03009KT",
    "metar_obs_time": "2025-06-13 23:20:00",
    "taf": "TAF LTBU 132240Z 1400/1424 03009KT CAVOK BECMG 1403/1406 03015G25KT SCT040 BECMG 1416/1419 36007KT CAVOK",
    "taf_obs_time": "2025-06-13 22:40:00",
    "fetched_at": "2025-06-13T23:46:22.600226Z"
  }
}