{
  "LTFM": {
    "icao": "LTFM",
    "metar": "LTFM 042020Z 10006KT 060V130 CAVOK 25/10 Q1018 NOSIG RMK RWY17L VRB02KT RWY34L 07005KT RWY16R 35002KT RWY36 VRB06G16KT RWY18 09004KT",
    "metar_obs_time": "2025-06-04 20:20:00",
    "taf": "TAF LTFM 041640Z 0418/0524 06012KT CAVOK BECMG 0418/0420 VRB02KT BECMG 0503/0507 06012KT BECMG 0517/0520 SCT020 PROB30 TEMPO 0520/0524 3200 BR BKN004",
    "taf_obs_time": "2025-06-04 16:40:00",
    "fetched_at": "2025-06-04T20:36:25.918744Z"
  },
  "LTFJ": {
    "icao": "LTFJ",
    "metar": "LTFJ 042020Z 04008KT CAVOK 24/08 Q1018 NOSIG RMK RWY24R 02003KT 340V090 RWY06R 02009KT RWY24L 04005KT",
    "metar_obs_time": "2025-06-04 20:20:00",
    "taf": "TAF LTFJ 041640Z 0418/0518 03007KT CAVOK BECMG 0507/0510 03017KT",
    "taf_obs_time": "2025-06-04 16:40:00",
    "fetched_at": "2025-06-04T20:36:25.918744Z"
  },
  "LTBA": {
    "icao": "LTBA",
    "metar": "LTBA 042020Z 05007KT CAVOK 25/10 Q1017 RMK RWY23 04007KT",
    "metar_obs_time": "2025-06-04 20:20:00",
    "taf": "TAF LTBA 041640Z 0418/0518 24005KT CAVOK BECMG 0418/0421 03010KT BECMG 0506/0509 04015G25KT",
    "taf_obs_time": "2025-06-04 16:40:00",
    "fetched_at": "2025-06-04T20:36:25.918744Z"
  },
  "LTBU": {
    "icao": "LTBU",
    "metar": "LTBU 042020Z 03008KT CAVOK 21/14 Q1018 RMK RWY22 04006KT",
    "metar_obs_time": "2025-06-04 20:20:00",
    "taf": "TAF LTBU 041640Z 0418/0518 14010KT CAVOK BECMG 0418/0420 01006KT BECMG 0507/0510 05015G25KT",
    "taf_obs_time": "2025-06-04 16:40:00",
    "fetched_at": "2025-06-04T20:36:25.918744Z"
  }
}