{
  "LTFM": {
    "icao": "LTFM",
    "metar": "LTFM 100720Z 02017KT 9999 BKN009 23/20 Q1019 NOSIG RMK RWY17L 01014KT RWY34L 01017KT RWY16R 01013KT RWY36 02017KT RWY18 02014KT",
    "metar_obs_time": "2025-06-10 07:20:00",
    "taf": "TAF LTFM 100440Z 1006/1112 36013KT 9999 SCT012 BECMG 1006/1009 BKN008 BECMG 1009/1012 03018G28KT SCT022 BECMG 1015/1018 04013KT CAVOK BECMG 1020/1023 SCT008",
    "taf_obs_time": "2025-06-10 04:40:00",
    "fetched_at": "2025-06-10T07:34:44.575917Z"
  },
  "LTFJ": {
    "icao": "LTFJ",
    "metar": "LTFJ 100720Z 03009KT CAVOK 26/17 Q1017 NOSIG RMK RWY24R 02009KT 360V060 RWY06R 03010KT 360V060 RWY24L 03008KT 340V060",
    "metar_obs_time": "2025-06-10 07:20:00",
    "taf": "TAF LTFJ 100440Z 1006/1106 03008KT 9999 BKN008 BECMG 1006/1008 CAVOK BECMG 1009/1012 03018KT SCT020 TEMPO 1013/1016 03020G30KT BECMG 1015/1017 CAVOK BECMG 1020/1023 SCT012 BECMG 1100/1103 BKN010 BECMG 1103/1106 SCT018",
    "taf_obs_time": "2025-06-10 04:40:00",
    "fetched_at": "2025-06-10T07:34:44.575917Z"
  },
  "LTBA": {
    "icao": "LTBA",
    "metar": "LTBA 100720Z 15004KT 080V220 9999 SCT026 24/18 Q1018 RMK RWY23 VRB04KT",
    "metar_obs_time": "2025-06-10 07:20:00",
    "taf": "TAF LTBA 100440Z 1006/1106 03013KT CAVOK BECMG 1008/1011 03021G31KT SCT030 BECMG 1015/1017 CAVOK BECMG 1017/1020 04013KT",
    "taf_obs_time": "2025-06-10 04:40:00",
    "fetched_at": "2025-06-10T07:34:44.575917Z"
  },
  "LTBU": {
    "icao": "LTBU",
    "metar": "LTBU 100720Z 02026KT 9999 SCT019 24/19 Q1018 RMK RWY22 03022KT 360V060",
    "metar_obs_time": "2025-06-10 07:20:00",
    "taf": "TAF LTBU 100440Z 1006/1106 02016KT CAVOK BECMG 1006/1008 03022G32KT SCT025 BECMG 1015/1017 CAVOK BECMG 1017/1020 03013KT",
    "taf_obs_time": "2025-06-10 04:40:00",
    "fetched_at": "2025-06-10T07:34:44.575917Z"
  }
}