{
  "LTFM": {
    "icao": "LTFM",
    "metar": "LTFM 161020Z 02011KT 340V070 CAVOK 25/14 Q1017 NOSIG RMK RWY17L 02010KT RWY34L 02010KT 340V040 RWY16R 36010KT 330V030 RWY36 03011KT 340V060 RWY18 01009KT 330V040",
    "metar_obs_time": "2025-06-16 10:20:00",
    "taf": "TAF LTFM 160440Z 1606/1712 28005KT CAVOK BECMG 1606/1609 36010KT BECMG 1614/1616 07010KT BECMG 1618/1621 18007KT BECMG 1705/1708 36012KT",
    "taf_obs_time": "2025-06-16 04:40:00",
    "fetched_at": "2025-06-16T10:56:19.317816Z"
  },
  "LTFJ": {
    "icao": "LTFJ",
    "metar": "LTFJ 161020Z 25007KT 210V280 9999 FEW035 25/13 Q1016 NOSIG RMK RWY24R VRB04KT RWY06R 23009KT RWY24L 26006KT 210V310",
    "metar_obs_time": "2025-06-16 10:20:00",
    "taf": "TAF AMD LTFJ 160821Z 1608/1706 24009KT 9999 FEW035 BECMG 1609/1612 03012KT CAVOK BECMG 1619/1623 VRB02KT",
    "taf_obs_time": "2025-06-16 08:21:00",
    "fetched_at": "2025-06-16T10:56:19.317816Z"
  },
  "LTBA": {
    "icao": "LTBA",
    "metar": "LTBA 161020Z 24009KT 200V270 9999 SCT035 24/14 Q1016 RMK RWY23 25009KT",
    "metar_obs_time": "2025-06-16 10:20:00",
    "taf": "TAF LTBA 160440Z 1606/1706 VRB02KT CAVOK BECMG 1609/1612 03012KT BECMG 1700/1703 VRB02KT",
    "taf_obs_time": "2025-06-16 04:40:00",
    "fetched_at": "2025-06-16T10:56:19.317816Z"
  },
  "LTBU": {
    "icao": "LTBU",
    "metar": "LTBU 161020Z VRB06KT CAVOK 27/10 Q1016 RMK RWY22 08007KT 050V120",
    "metar_obs_time": "2025-06-16 10:20:00",
    "taf": "TAF LTBU 160440Z 1606/1706 32007KT CAVOK BECMG 1606/1608 04012KT BECMG 1616/1617 VRB02KT",
    "taf_obs_time": "2025-06-16 04:40:00",
    "fetched_at": "2025-06-16T10:56:19.317816Z"
  }
}