{
  "LTFM": {
    "icao": "LTFM",
    "metar": "LTFM 112150Z 02008KT 9999 BKN006 20/19 Q1014 NOSIG RMK RWY17L 02005KT RWY34L 36008KT RWY16R 02005KT RWY36 02007KT RWY18 02005KT",
    "metar_obs_time": "2025-06-11 21:50:00",
    "taf": "TAF LTFM 111640Z 1118/1224 35006KT 9999 SCT008 BECMG 1121/1123 BKN006 PROB40 1123/1203 2000 BCFG BKN004 BECMG 1204/1206 SCT012 BECMG 1206/1209 05013KT CAVOK BECMG 1213/1215 SCT008",
    "taf_obs_time": "2025-06-11 16:40:00",
    "fetched_at": "2025-06-11T22:18:08.177447Z"
  },
  "LTFJ": {
    "icao": "LTFJ",
    "metar": "LTFJ 112150Z 03014KT 9999 SCT004 20/18 Q1013 BECMG BKN003",
    "metar_obs_time": "2025-06-11 21:50:00",
    "taf": "TAF AMD LTFJ 112135Z 1121/1218 04007KT 9999 SCT004 BECMG 1121/1123 BKN003 TEMPO 1200/1204 2500 BCFG BECMG 1205/1207 SCT012 BECMG 1207/1211 04017KT CAVOK",
    "taf_obs_time": "2025-06-11 21:35:00",
    "fetched_at": "2025-06-11T22:18:08.177447Z"
  },
  "LTBA": {
    "icao": "LTBA",
    "metar": "LTBA 112150Z 03010KT CAVOK 21/18 Q1013 RMK RWY23 03009KT",
    "metar_obs_time": "2025-06-11 21:50:00",
    "taf": "TAF LTBA 111640Z 1118/1218 02006KT CAVOK BECMG 1118/1121 SCT012 BECMG 1121/1123 BKN006 PROB30 1123/1203 2800 BR BECMG 1208/1211 03017KT CAVOK",
    "taf_obs_time": "2025-06-11 16:40:00",
    "fetched_at": "2025-06-11T22:18:08.177447Z"
  },
  "LTBU": {
    "icao": "LTBU",
    "metar": "LTBU 112150Z 01010KT CAVOK 19/15 Q1014 RMK RWY22 01010KT",
    "metar_obs_time": "2025-06-11 21:50:00",
    "taf": "TAF LTBU 111640Z 1118/1218 03007KT CAVOK BECMG 1118/1121 SCT012 PROB30 1122/1202 2500 BR BKN008 BECMG 1204/1207 CAVOK BECMG 1209/1211 03017KT",
    "taf_obs_time": "2025-06-11 16:40:00",
    "fetched_at": "2025-06-11T22:18:08.177447Z"
  }
}