{
  "LTFM": {
    "icao": "LTFM",
    "metar": "LTFM 060250Z 05011KT 9999 BKN008 20/18 Q1017 NOSIG RMK RWY17L 05009KT RWY34L 03010KT RWY16R 05010KT RWY36 05012KT RWY18 06010KT",
    "metar_obs_time": "2025-06-06 02:50:00",
    "taf": "TAF LTFM 052240Z 0600/0706 05009KT 9999 BKN006 TEMPO 0600/0604 1200 BCFG BKN004 BECMG 0604/0607 04015G25KT SCT008 BECMG 0607/0610 CAVOK BECMG 0617/0620 04012KT SCT006",
    "taf_obs_time": "2025-06-05 22:40:00",
    "fetched_at": "2025-06-06T03:04:06.226165Z"
  },
  "LTFJ": {
    "icao": "LTFJ",
    "metar": "LTFJ 060250Z 04014KT CAVOK 19/17 Q1016 NOSIG RMK RWY24R 03009KT RWY06R 03014KT RWY24L 03011KT",
    "metar_obs_time": "2025-06-06 02:50:00",
    "taf": "TAF LTFJ 052240Z 0600/0624 03009KT CAVOK PROB30 0603/0606 2000 BCFG BKN004 BECMG 0606/0609 03019KT BECMG 0617/0620 03009KT BECMG 0620/0624 BKN006",
    "taf_obs_time": "2025-06-05 22:40:00",
    "fetched_at": "2025-06-06T03:04:06.226165Z"
  },
  "LTBA": {
    "icao": "LTBA",
    "metar": "LTBA 060250Z 04009KT 9999 SCT011 20/18 Q1016 RMK RWY23 04010KT 010V070",
    "metar_obs_time": "2025-06-06 02:50:00",
    "taf": "TAF LTBA 052240Z 0600/0624 04012KT CAVOK BECMG 0605/0608 04017G28KT BECMG 0617/0620 03012KT SCT008 PROB30 TEMPO 0621/0624 4000 BR BKN006",
    "taf_obs_time": "2025-06-05 22:40:00",
    "fetched_at": "2025-06-06T03:04:06.226165Z"
  },
  "LTBU": {
    "icao": "LTBU",
    "metar": "LTBU 060250Z 02012KT CAVOK 18/17 Q1016 RMK RWY22 01010KT",
    "metar_obs_time": "2025-06-06 02:50:00",
    "taf": "TAF LTBU 052240Z 0600/0624 03009KT CAVOK BECMG 0605/0608 04015G25KT BECMG 0616/0619 03012KT SCT008 PROB30 0621/0624 4000 BR BKN006",
    "taf_obs_time": "2025-06-05 22:40:00",
    "fetched_at": "2025-06-06T03:04:06.226165Z"
  }
}