{
  "LTFM": {
    "icao": "LTFM",
    "metar": "LTFM 171250Z 02009KT 340V050 CAVOK 28/13 Q1017 NOSIG RMK RWY17L 03008KT RWY34L 02008KT RWY16R 01008KT 320V050 RWY36 01009KT 340V040 RWY18 05008KT 010V070",
    "metar_obs_time": "2025-06-17 12:50:00",
    "taf": "TAF LTFM 171040Z 1712/1818 04012KT CAVOK BECMG 1715/1718 VRB02KT BECMG 1721/1724 SCT008 PROB30 TEMPO 1800/1803 2000 BCFG BKN004 BECMG 1804/1806 02012KT CAVOK BECMG 1815/1818 08007KT SCT008",
    "taf_obs_time": "2025-06-17 10:40:00",
    "fetched_at": "2025-06-17T13:20:32.383896Z"
  },
  "LTFJ": {
    "icao": "LTFJ",
    "metar": "LTFJ 171250Z 23011KT CAVOK 28/10 Q1016 BECMG TL1400 04012KT",
    "metar_obs_time": "2025-06-17 12:50:00",
    "taf": "TAF LTFJ 171040Z 1712/1812 24009KT CAVOK BECMG 1712/1714 04012KT BECMG 1718/1721 VRB02KT",
    "taf_obs_time": "2025-06-17 10:40:00",
    "fetched_at": "2025-06-17T13:20:32.383896Z"
  },
  "LTBA": {
    "icao": "LTBA",
    "metar": "LTBA 171250Z 24008KT CAVOK 26/16 Q1016 RMK RWY23 24009KT",
    "metar_obs_time": "2025-06-17 12:50:00",
    "taf": "TAF LTBA 171040Z 1712/1812 23007KT CAVOK BECMG 1713/1716 04012KT BECMG 1805/1808 18007KT",
    "taf_obs_time": "2025-06-17 10:40:00",
    "fetched_at": "2025-06-17T13:20:32.383896Z"
  },
  "LTBU": {
    "icao": "LTBU",
    "metar": "LTBU 171250Z 17006KT 110V230 9999 FEW040 30/11 Q1017 RMK RWY22 17006KT 120V240",
    "metar_obs_time": "2025-06-17 12:50:00",
    "taf": "TAF LTBU 171040Z 1712/1812 16007KT 9999 SCT040 BECMG 1712/1715 CAVOK BECMG 1715/1718 35010KT BECMG 1804/1807 05012KT",
    "taf_obs_time": "2025-06-17 10:40:00",
    "fetched_at": "2025-06-17T13:20:32.383896Z"
  }
}