{
  "LTFM": {
    "icao": "LTFM",
    "metar": "LTFM 042120Z 06005KT 030V110 CAVOK 23/12 Q1018 NOSIG RMK RWY17L VRB02KT RWY34L 02004KT 350V060 RWY16R 30003KT 230V340 RWY36 07006KT 360V090 RWY18 06002KT",
    "metar_obs_time": "2025-06-04 21:20:00",
    "taf": "TAF LTFM 041640Z 0418/0524 06012KT CAVOK BECMG 0418/0420 VRB02KT BECMG 0503/0507 06012KT BECMG 0517/0520 SCT020 PROB30 TEMPO 0520/0524 3200 BR BKN004",
    "taf_obs_time": "2025-06-04 16:40:00",
    "fetched_at": "2025-06-04T21:48:21.526345Z"
  },
  "LTFJ": {
    "icao": "LTFJ",
    "metar": "LTFJ 042120Z 03008KT CAVOK 23/07 Q1018 NOSIG RMK RWY24R 02006KT RWY06R 02008KT RWY24L 02006KT",
    "metar_obs_time": "2025-06-04 21:20:00",
    "taf": "TAF LTFJ 041640Z 0418/0518 03007KT CAVOK BECMG 0507/0510 03017KT",
    "taf_obs_time": "2025-06-04 16:40:00",
    "fetched_at": "2025-06-04T21:48:21.526345Z"
  },
  "LTBA": {
    "icao": "LTBA",
    "metar": "LTBA 042120Z 06006KT CAVOK 23/10 Q1017 RMK RWY23 06005KT",
    "metar_obs_time": "2025-06-04 21:20:00",
    "taf": "TAF LTBA 041640Z 0418/0518 24005KT CAVOK BECMG 0418/0421 03010KT BECMG 0506/0509 04015G25KT",
    "taf_obs_time": "2025-06-04 16:40:00",
    "fetched_at": "2025-06-04T21:48:21.526345Z"
  },
  "LTBU": {
    "icao": "LTBU",
    "metar": "LTBU 042120Z 03008KT CAVOK 20/13 Q1018 RMK RWY22 03006KT",
    "metar_obs_time": "2025-06-04 21:20:00",
    "taf": "TAF LTBU 041640Z 0418/0518 14010KT CAVOK BECMG 0418/0420 01006KT BECMG 0507/0510 05015G25KT",
    "taf_obs_time": "2025-06-04 16:40:00",
    "fetched_at": "2025-06-04T21:48:21.526345Z"
  }
}