{
  "LTFM": {
    "icao": "LTFM",
    "metar": "LTFM 211820Z 07017KT CAVOK 22/13 Q1019 NOSIG RMK RWY17L 07014KT RWY34L 06013KT RWY16R 06013KT RWY36 06012KT RWY18 07014KT",
    "metar_obs_time": "2025-06-21 18:20:00",
    "taf": "TAF LTFM 211640Z 2118/2224 06013KT CAVOK BECMG 2200/2203 SCT025 BECMG 2203/2206 03016G26KT BECMG 2215/2217 CAVOK BECMG 2217/2220 17008KT",
    "taf_obs_time": "2025-06-21 16:40:00",
    "fetched_at": "2025-06-21T18:55:35.491455Z"
  },
  "LTFJ": {
    "icao": "LTFJ",
    "metar": "LTFJ 211820Z 05015KT CAVOK 21/13 Q1019 NOSIG RMK RWY24R 06011KT RWY06R 04014KT RWY24L 05014KT",
    "metar_obs_time": "2025-06-21 18:20:00",
    "taf": "TAF LTFJ 211640Z 2118/2218 05018KT CAVOK BECMG 2118/2122 05007KT BECMG 2203/2207 SCT035 TEMPO 2208/2210 BKN030 BECMG 2210/2214 04017KT BECMG 2216/2218 05007KT",
    "taf_obs_time": "2025-06-21 16:40:00",
    "fetched_at": "2025-06-21T18:55:35.491455Z"
  },
  "LTBA": {
    "icao": "LTBA",
    "metar": "LTBA 211820Z 05014KT CAVOK 22/13 Q1019 RMK RWY23 06014KT",
    "metar_obs_time": "2025-06-21 18:20:00",
    "taf": "TAF LTBA 211640Z 2118/2218 04019KT CAVOK BECMG 2118/2120 05008KT BECMG 2203/2206 03016G26KT SCT030 PROB30 TEMPO 2206/2209 -SHRA SCT004 FEW020TCU BKN025 BECMG 2213/2216 CAVOK BECMG 2216/2218 06006KT",
    "taf_obs_time": "2025-06-21 16:40:00",
    "fetched_at": "2025-06-21T18:55:35.491455Z"
  },
  "LTBU": {
    "icao": "LTBU",
    "metar": "LTBU 211820Z 05010KT CAVOK 19/13 Q1019 RMK RWY22 05009KT",
    "metar_obs_time": "2025-06-21 18:20:00",
    "taf": "TAF LTBU 211640Z 2118/2218 04018KT CAVOK BECMG 2118/2120 03008KT BECMG 2203/2206 03016G26KT SCT035 BECMG 2212/2215 CAVOK BECMG 2215/2218 02006KT",
    "taf_obs_time": "2025-06-21 16:40:00",
    "fetched_at": "2025-06-21T18:55:35.491455Z"
  }
}